id,buildingName,furigana,adress,access,access_2,access_3,access_4,access_5,installationTime,detailInfo,station,facility,googleMap,imgSlider,imgSlider_2,imgSlider_3,imgDetail,workingDay,workingDay_2,workingDay_3,workingDay_4,lateNightService,lateNightService_2,campaign,keyword,lat,lng,floorMapId,link,imgSlider_4,access_6,access_7,access_8,access_9,access_10,detailInfo_2,imgSlider_5,imgSlider_6,imgSlider_7,prefectures,city,area
5900,西新橋スクエア B2F,ニシシンバシスクエア,東京都港区西新橋1-3-1,都営三田線「内幸町駅」A4b出口直結エントランスホール,　,都営三田線 内幸町駅 A4b出口直結,東京メトロ銀座線 虎ノ門駅より徒歩6分,JR山手線 新橋駅より徒歩6分,"平日土日祝: 7:00 - 21:00
",1人用：2台,内幸町駅・虎ノ門駅・新橋駅,"・24時間連続稼働換気ファン<br />
・エアコン<br />
・WiFi<br />
・スマホスタンド<br />
<br />
※WiFiについて<br />
LTE回線を利用したベストエフォートでの提供となり、時間帯によっては十分な速度が出ない可能性がございます。大事な会議や面接でご利用の際には、代替通信手段のご用意をお願いいたします。","<iframe src=""https://www.google.com/maps/embed?pb=!1m14!1m8!1m3!1d12965.269488807677!2d139.7544269!3d35.6691866!3m2!1i1024!2i768!4f13.1!3m3!1m2!1s0x0%3A0xc435f33b24f32c18!2z6KW_5paw5qmL44K544Kv44Ko44Ki!5e0!3m2!1sja!2sjp!4v1667914097917!5m2!1sja!2sjp"" width=""600"" height=""450"" style=""border:0;"" allowfullscreen="""" loading=""lazy"" referrerpolicy=""no-referrer-when-downgrade""></iframe>",https://telecube.jp/wp/wp-content/uploads/2022/11/西新橋スクエア_1.jpg,https://telecube.jp/wp/wp-content/uploads/2022/11/西新橋スクエア_2.jpg,https://telecube.jp/wp/wp-content/uploads/2022/11/西新橋スクエア_3.jpg,https://telecube.jp/wp/wp-content/uploads/2022/11/西新橋スクエアフロア図.png,平日,土曜日,日曜日,祝日,朝7時から,夜21時まで,週末価格,"西新橋スクエア, ニシシンバシスクエア,
東京, 港区西新橋,
内幸町駅, 虎ノ門駅, 新橋駅, 
都営三田線, 銀座線, 山手線,
WiFi, スマホスタンド,
GBP",35.66890478967755,139.75472385130823,166,https://telecube.jp/location/nishishinbashisquare/,,,,,,,,,,,,,
5881,ハービスOSAKA オフィスタワー 1F,ハービスオーサカ オフィスタワー,大阪府大阪市北区梅田2丁目5-25,阪神大阪梅田駅 西口から 徒歩すぐ,Osaka Metro 四つ橋線西梅田駅 北改札口から 徒歩すぐ,JR大阪駅 桜橋口から 徒歩2分,JR東西線 北新地駅西改札口から 徒歩4分,Osaka Metro 御堂筋線梅田駅 南改札口から　徒歩5分,平日土日祝: 8:00 - 21:00,1人用：2台,大阪駅・大阪梅田駅・梅田駅・東梅田駅・西梅田駅・北新地駅,"・24時間稼働換気ファン<br />
・WiFi<br />
・Web会議用LED照明<br />
・モニター（HDMI対応）<br />
・スマホスタンド<br />
<br />
※このブースは、ビルにて空調管理がされているため、エアコンを設置しておりません。<br />
<br />
※WiFiについて<br />
LTE回線を利用したベストエフォートでの提供となり、時間帯によっては十分な速度が出ない可能性がございます。大事な会議や面接でご利用の際には、代替通信手段のご用意をお願いいたします。","<iframe src=""https://www.google.com/maps/embed?pb=!1m14!1m8!1m3!1d820.0680158257544!2d135.49253900686114!3d34.69831724492804!3m2!1i1024!2i768!4f13.1!3m3!1m2!1s0x0%3A0x51c7d95eeb65334a!2z44OP44O844OT44K5T1NBS0Hjgqrjg5XjgqPjgrk!5e0!3m2!1sja!2sjp!4v1667264156115!5m2!1sja!2sjp"" width=""600"" height=""450"" style=""border:0;"" allowfullscreen="""" loading=""lazy"" referrerpolicy=""no-referrer-when-downgrade""></iframe>",https://telecube.jp/wp/wp-content/uploads/2022/11/ハービスOSAKA2.jpeg,https://telecube.jp/wp/wp-content/uploads/2022/11/ハービスOSAKA1.jpeg,https://telecube.jp/wp/wp-content/uploads/2022/11/ハービスOSAKA3.jpg,https://telecube.jp/wp/wp-content/uploads/2022/11/ハービスOSAKA_フロア図.png,平日,土曜日,日曜日,祝日,夜21時まで,,週末価格,"ハービスOSAKAオフィスタワー,
大阪府, 大阪市北区梅田,
電源(コンセント / USB),WiFi（ブース内 or 施設内）,スマホスタンド,
GBP",34.69842902283539,135.4926116444813,164,https://telecube.jp/location/herbis_osaka/,,,,,,,,,,,,,
5859,パレスサイドビル,パレスサイドビル,東京都千代田区一ツ橋1-1-1,パレスサイドビル東側B1F（証明写真機横）,　,東京メトロ東西線 竹橋駅 直結,東京メトロ半蔵門線、都営地下鉄新宿線・三田線 神保町駅(A8出口)から徒歩5分,,平日土: 7:00 - 21:00,1人用: 1,竹橋駅・神保町駅,"・24時間連続換気ファン<br />
・WiFi<br />
・スマホスタンド<br />
※このブースは、ビルにて空調管理がされているため、エアコンを設置しておりません。<br />
<br />
※WiFiについて<br />
LTE回線を利用したベストエフォートでの提供となり、時間帯によっては十分な速度が出ない可能性がございます。大事な会議や面接でご利用の際には、代替通信手段のご用意をお願いいたします。","<iframe src=""https://www.google.com/maps/embed?pb=!1m14!1m8!1m3!1d12961.736071806965!2d139.7575803!3d35.6909358!3m2!1i1024!2i768!4f13.1!3m3!1m2!1s0x0%3A0x4bd452e821b5af93!2z44OR44Os44K544K144Kk44OJ44OT44Or!5e0!3m2!1sja!2sjp!4v1667225936960!5m2!1sja!2sjp"" width=""600"" height=""450"" style=""border:0;"" allowfullscreen="""" loading=""lazy"" referrerpolicy=""no-referrer-when-downgrade""></iframe>",https://telecube.jp/wp/wp-content/uploads/2022/10/パレスサイドビル1.jpg,https://telecube.jp/wp/wp-content/uploads/2022/10/パレスサイドビル2.jpg,https://telecube.jp/wp/wp-content/uploads/2022/10/パレスサイドビル3.jpg,https://telecube.jp/wp/wp-content/uploads/2022/10/パレスサイドビル_フロアマップ.png,平日,土曜日,,,朝7時から,夜21時まで,週末価格,"パレスサイドビル,毎日新聞ビル, 
東京, 千代田区一ツ橋,
竹橋駅, 神保町駅,
東西線, 半蔵門線, 都営新宿線,
WiFi, スマホスタンド,
GBP",35.69089936165447,139.75775459423537,165,https://telecube.jp/location/palaceside_bldg/,,,,,,,,,,,,,
5705,有楽町イトシアオフィスタワー,ユウラクチョウイトシアオフィスタワー,東京都千代田区有楽町二丁目7番1号,1Fエレベーター手前のエントランスロビー 左手柱の横,JR 有楽町駅より徒歩1分,都営地下鉄・東京メトロ 銀座駅・有楽町駅より徒歩2～5分,,,平日土日祝: 8:00 - 21:00,1人用: 1台,銀座駅・有楽町駅,"・24時間連続換気ファン<br />
・WiFi<br />
・スマホスタンド<br />
※このブースは、ビルにて空調管理がされているため、エアコンを設置しておりません。<br />
<br />
※WiFiについて<br />
LTE回線を利用したベストエフォートでの提供となり、時間帯によっては十分な速度が出ない可能性がございます。大事な会議や面接でご利用の際には、代替通信手段のご用意をお願いいたします。","<iframe src=""https://www.google.com/maps/embed?pb=!1m18!1m12!1m3!1d810.2743297553244!2d139.7633757908472!3d35.67460563851071!2m3!1f0!2f0!3f0!3m2!1i1024!2i768!4f13.1!3m3!1m2!1s0x60188b88dcda45c9%3A0x50450b03ccc86305!2z5pyJ5qW955S644Kk44OI44K344Ki44Kq44OV44Kj44K544K_44Ov44O8!5e0!3m2!1sja!2sjp!4v1666748088480!5m2!1sja!2sjp"" width=""600"" height=""450"" style=""border:0;"" allowfullscreen="""" loading=""lazy"" referrerpolicy=""no-referrer-when-downgrade""></iframe>",https://telecube.jp/wp/wp-content/uploads/2022/10/YuracuchoItocia1.jpeg,https://telecube.jp/wp/wp-content/uploads/2022/10/YuracuchoItocia3.jpg,https://telecube.jp/wp/wp-content/uploads/2022/10/YuracuchoItocia2.jpg,https://telecube.jp/wp/wp-content/uploads/2022/10/有楽町イトシアオフィスタワーmap.png,平日,土曜日,日曜日,祝日,夜21時まで,,週末価格,"有楽町イトシアオフィスタワー,有楽町駅前ビルディング, 
東京, 千代田区有楽町, 
銀座駅,有楽町駅, 山手線,京浜東北線,有楽町線, 日比谷線,
電源(コンセント / USB),WiFi（ブース内 or 施設内）,スマホスタンド,
GBP",35.67446982273541,139.7638306408996,163,https://telecube.jp/location/yurakuchoitocia/,,,,,,,,,,,,,
5636,パシフィックシティ高松ビル 4F,パシフィックシティタカマツビル,香川県高松市寿町1-1-12,JR高松駅南口 徒歩3分,　,4階エレベーター降りて右へ進み、すぐの通路を右折し最初の部屋（左側）に設置しております。,,,平日 9:00 〜 17:00,1人用: 2台,高松駅,"・24時間稼働換気ファン<br />
・WiFi<br />
<br />
※このブースは、ビルにて空調管理がされているため、エアコンを設置しておりません。<br />
<br />
※WiFiについて<br />
LTE回線を利用したベストエフォートでの提供となり、時間帯によっては十分な速度が出ない可能性がございます。大事な会議や面接でご利用の際には、代替通信手段のご用意をお願いいたします。","<iframe src=""https://www.google.com/maps/embed?pb=!1m18!1m12!1m3!1d3294.013100319922!2d134.04635841559383!3d34.3501446805261!2m3!1f0!2f0!3f0!3m2!1i1024!2i768!4f13.1!3m3!1m2!1s0x3553eb8620c38acb%3A0x81f3873aa0568d1f!2z44CSNzYwLTAwMjMg6aaZ5bed55yM6auY5p2-5biC5a-_55S677yR5LiB55uu77yR4oiS77yR77ySIOODkeOCt-ODleOCo-ODg-OCr-OCt-ODhuOCo-mrmOadvg!5e0!3m2!1sja!2sjp!4v1665058671992!5m2!1sja!2sjp"" width=""600"" height=""450"" style=""border:0;"" allowfullscreen="""" loading=""lazy"" referrerpolicy=""no-referrer-when-downgrade""></iframe>",https://telecube.jp/wp/wp-content/uploads/2022/10/IMG_4793.jpg,https://telecube.jp/wp/wp-content/uploads/2022/10/IMG_4794.jpg,https://telecube.jp/wp/wp-content/uploads/2022/10/IMG_4782.jpg,https://telecube.jp/wp/wp-content/uploads/2022/10/パシフィックシティ高松ビルフロア図.png,平日,,,,,,," パシフィックシティ高松ビル,
四国, 香川県高松市, 
電源(コンセント / USB),WiFi（ブース内 or 施設内）,スマホスタンド,
GBP",34.350151877470594,134.04853502826057,147,https://telecube.jp/location/pacificcitytakamatsu/,,,,,,,,,,,,,
5626,イトーヨーカドー南大沢店 1F,イトーヨーカドーミナミオオサワテン,東京都八王子市南大沢2丁目28-1,1F 公園側入口横スペース,　,京王相模原線 南大沢駅 徒歩1分,,,平日土日祝 10:00 〜 21:00,1人用: 2,南大沢駅,"・24時間連続換気ファン<br />
・WiFi<br />
・スマホスタンド<br />
※このブースは、ビルにて空調管理がされているため、エアコンを設置しておりません。<br />
<br />
※WiFiについて<br />
LTE回線を利用したベストエフォートでの提供となり、時間帯によっては十分な速度が出ない可能性がございます。大事な会議や面接でご利用の際には、代替通信手段のご用意をお願いいたします。","<iframe src=""https://www.google.com/maps/embed?pb=!1m18!1m12!1m3!1d405.44804170739013!2d139.3791769129039!3d35.613318680210256!2m3!1f0!2f0!3f0!3m2!1i1024!2i768!4f13.1!3m3!1m2!1s0x6018e2ba0d5fdaf9%3A0x73aea7e51736d30c!2z44Kk44OI44O844Oo44O844Kr44OJ44O8IOWNl-Wkp-ayouW6lw!5e0!3m2!1sja!2sjp!4v1664956026734!5m2!1sja!2sjp"" width=""600"" height=""450"" style=""border:0;"" allowfullscreen="""" loading=""lazy"" referrerpolicy=""no-referrer-when-downgrade""></iframe>",https://telecube.jp/wp/wp-content/uploads/2022/10/IMG_3080.jpg,https://telecube.jp/wp/wp-content/uploads/2022/10/IMG_3081.jpg,https://telecube.jp/wp/wp-content/uploads/2022/10/IMG_3084.jpg,https://telecube.jp/wp/wp-content/uploads/2022/10/イトーヨーカドー南大沢店.png,平日,土曜日,日曜日,祝日,夜21時まで,,週末価格,"イトーヨーカドー 南大沢店, IY,
東京, 八王子市南大沢
京王線,南大沢駅
電源(コンセント / USB),WiFi（ブース内 or 施設内）,スマホスタンド,
GBP",35.61346982793976,139.37987099893303,162,https://telecube.jp/location/iyminamiosawa/,,,,,,,,,,,,,
5603,グランフロント大阪 タワーA 9F ファミマ側スカイロビー内,グランフロントオオサカ,大阪府大阪市北区大深町4-20,タワーA 9F ファミマ側スカイロビー内,　,JR西日本 大阪駅 連絡橋口改札　徒歩2分,大阪メトロ 梅田駅 北口改札　徒歩6分,阪急電鉄 大阪梅田駅 2階中央改札口　徒歩5分,平日土日祝 7:00〜21:00,1人用: 4,大阪駅・梅田駅・大阪梅田駅,"・24時間稼働換気ファン<br />
・WiFi<br />
・Web会議用LED照明<br />
・モニター（HDMI対応）<br />
・スマホスタンド<br />
<br />
※WiFiについて<br />
LTE回線を利用したベストエフォートでの提供となります。大事な会議や面接でご利用の際には、代替通信手段のご用意をお願いいたします。","<iframe src=""https://www.google.com/maps/embed?pb=!1m14!1m8!1m3!1d205.00198394892467!2d135.49472434557802!3d34.704379292266275!3m2!1i1024!2i768!4f13.1!3m3!1m2!1s0x6000e68f07000001%3A0xa684e6b145ca9d5!2z44Kw44Op44Oz44OV44Ot44Oz44OI5aSn6Ziq!5e0!3m2!1sja!2sjp!4v1664802315800!5m2!1sja!2sjp"" width=""600"" height=""450"" style=""border:0;"" allowfullscreen="""" loading=""lazy"" referrerpolicy=""no-referrer-when-downgrade""></iframe>",https://telecube.jp/wp/wp-content/uploads/2022/10/GrandFrontOsaka1.jpeg,https://telecube.jp/wp/wp-content/uploads/2022/10/GrandFrontOsaka2.jpeg,https://telecube.jp/wp/wp-content/uploads/2022/10/GrandFrontOsaka4.jpeg,https://telecube.jp/wp/wp-content/uploads/2022/10/GrandFrontOsakaフロア図.png,平日,土曜日,日曜日,祝日,朝7時から,夜21時まで,週末価格,"グランフロント大阪, 
大阪府大阪市北区梅田,
大阪駅,梅田駅,大阪梅田駅,北新地駅,大阪環状線, 宝塚線,京都線,阪急線,
電源(コンセント / USB),WiFi（ブース内 or 施設内）,スマホスタンド,モニター,LED照明, 
GBP",34.70453860664313,135.49473239220526,161,https://telecube.jp/location/gfosaka/,https://telecube.jp/wp/wp-content/uploads/2022/10/GrandFrontOsaka3.jpeg,,,,,,,,,,,,
5582,大阪梅田ツインタワーズ・サウス B1F / 11F,オオサカウメダツインタワーズサウス,大阪府大阪市北区梅田1丁目13-1,11F: タリーズ前 ,B1F: オフィスエントランスエスカレーター脇,　,JR 大阪駅より徒歩3分,JR 北新地駅より徒歩4分,平日土日祝 7:00〜21:00,1人用 : 2 (11F),大阪駅・梅田駅・大阪梅田駅・西梅田駅・東梅田駅・北新地駅,"・24時間稼働換気ファン<br />
・WiFi<br />
・Web会議用LED照明<br />
・モニター（HDMI対応）<br />
・スマホスタンド<br />
<br />
※このブースは、ビルにて空調管理がされているため、エアコンを設置しておりません。<br />
<br />
※WiFiについて<br />
LTE回線を利用したベストエフォートでの提供となり、時間帯によっては十分な速度が出ない可能性がございます。大事な会議や面接でご利用の際には、代替通信手段のご用意をお願いいたします。","<iframe src=""https://www.google.com/maps/embed?pb=!1m18!1m12!1m3!1d3280.172529313242!2d135.49516721559792!3d34.70082809071826!2m3!1f0!2f0!3f0!3m2!1i1024!2i768!4f13.1!3m3!1m2!1s0x6000e76ecd9df40d%3A0x6ae3d981fd2f660b!2z5aSn6Ziq5qKF55Sw44OE44Kk44Oz44K_44Ov44O844K644O744K144Km44K5!5e0!3m2!1sja!2sjp!4v1663952897757!5m2!1sja!2sjp"" width=""600"" height=""450"" style=""border:0;"" allowfullscreen="""" loading=""lazy"" referrerpolicy=""no-referrer-when-downgrade""></iframe>",https://telecube.jp/wp/wp-content/uploads/2022/09/IMG_3037.jpg,https://telecube.jp/wp/wp-content/uploads/2022/09/IMG_3035.jpg,https://telecube.jp/wp/wp-content/uploads/2022/09/IMG_3039.jpg,https://telecube.jp/wp/wp-content/uploads/2022/09/大阪梅田ツインタワーズ・サウス_02.png,平日,土曜日,日曜日,祝日,朝7時から,夜21時まで,週末価格,"梅田ツインタワーズ・サウス,
大阪府大阪市北区梅田,
大阪駅,梅田駅,大阪梅田駅,西梅田駅,東梅田駅,北新地駅,大阪環状線, 宝塚線,京都線,
電源(コンセント / USB),WiFi（ブース内 or 施設内）,スマホスタンド,
GBP",34.701014206244615,135.4973976559736,160,https://telecube.jp/location/osakaumedatwintowerssouth/,https://telecube.jp/wp/wp-content/uploads/2022/09/IMG_3040.jpg,大阪メトロ御堂筋線 梅田駅より徒歩1分,大阪メトロ四つ橋線 西梅田駅より徒歩3分,大阪メトロ谷町線 東梅田駅より徒歩2分,阪急 大阪梅田駅より徒歩7分,阪神 大阪梅田駅より徒歩1分,1人用 : 1 (B1F),,,,,,
5538,大阪アメニティパーク 2Fロビー,オオサカアメニティパーク,大阪府大阪市北区天満橋1-8-30,JR 桜ノ宮駅 徒歩5分,JR 大阪天満宮駅 徒歩10分,Osaka Metro 南森町駅 徒歩10分,,,平日土日祝 8:00〜21:00,1人用: 2台,桜ノ宮駅・大阪天満宮駅・南森町駅,"・24時間連続換気ファン<br />
・WiFi<br />
・スマホスタンド<br />
※このブースは、ビルにて空調管理がされているため、エアコンを設置しておりません。<br />
<br />
※WiFiについて<br />
LTE回線を利用したベストエフォートでの提供となり、時間帯によっては十分な速度が出ない可能性がございます。大事な会議や面接でご利用の際には、代替通信手段のご用意をお願いいたします。","<iframe src=""https://www.google.com/maps/embed?pb=!1m18!1m12!1m3!1d3280.202739780438!2d135.51526123067913!3d34.70006601785473!2m3!1f0!2f0!3f0!3m2!1i1024!2i768!4f13.1!3m3!1m2!1s0x6000e6d19aa7ed67%3A0x7237764f599c13f2!2zT0FQIOWkp-mYquOCouODoeODi-ODhuOCo-ODkeODvOOCrw!5e0!3m2!1sja!2sjp!4v1662104481101!5m2!1sja!2sjp"" width=""600"" height=""450"" style=""border:0;"" allowfullscreen="""" loading=""lazy"" referrerpolicy=""no-referrer-when-downgrade""></iframe>",https://telecube.jp/wp/wp-content/uploads/2022/09/OAP1.jpeg,https://telecube.jp/wp/wp-content/uploads/2022/09/OAP2.jpeg,https://telecube.jp/wp/wp-content/uploads/2022/09/OAP3.jpeg,https://telecube.jp/wp/wp-content/uploads/2022/09/OAPフロア図.png,平日,土曜日,日曜日,祝日,朝7時から,,週末価格,"大阪アメニティパーク, OAP, 
大阪府大阪市北区天満橋,
桜ノ宮, 大阪天満宮, 南森町, 大阪帝国ホテル,
電源(コンセント / USB),WiFi（ブース内 or 施設内）,スマホスタンド,
GBP",34.70005456578673,135.52001865525435,159,https://telecube.jp/location/osakaamenitypark/,https://telecube.jp/wp/wp-content/uploads/2022/09/OAP4.jpeg,,,,,,,https://telecube.jp/wp/wp-content/uploads/2022/09/OAP5.jpeg,https://telecube.jp/wp/wp-content/uploads/2022/09/OAP6.jpeg,,,,
5519,安城東栄町国道1号,アンジョウトウエイチョウコクドウ１ゴウ,安城市東栄町3-816-2,名古屋鉄道 新安城駅北口より徒歩8分,ファミリーマート安城東栄町店の隣,コインランドリーkirei 併設施設,,,平日土日祝: 7:00 〜 21:00,1人用：3台,新安城駅,"・24時間稼働換気ファン<br />
・WiFi<br />
・スマホスタンド　<br />
※このブースは、ビルにて空調管理がされているため、エアコンを設置しておりません。<br />
<br />
※WiFiについて<br />
LTE回線を利用したベストエフォートでの提供となり、時間帯によっては十分な速度が出ない可能性がございます。大事な会議や面接でご利用の際には、代替通信手段のご用意をお願いいたします。","<iframe src=""https://www.google.com/maps/embed?pb=!1m18!1m12!1m3!1d817.2091540310205!2d137.09007204829672!3d34.985756993521775!2m3!1f0!2f0!3f0!3m2!1i1024!2i768!4f13.1!3m3!1m2!1s0x600499225ba180a9%3A0xbd1b8dd65f5e90c3!2z44OV44Kh44Of44Oq44O844Oe44O844OIIOWuieWfjuadseaghOeUuuW6lw!5e0!3m2!1sja!2sjp!4v1661934743380!5m2!1sja!2sjp"" width=""600"" height=""450"" style=""border:0;"" allowfullscreen="""" loading=""lazy"" referrerpolicy=""no-referrer-when-downgrade""></iframe>",https://telecube.jp/wp/wp-content/uploads/2022/08/Harumiko4-1.jpg,https://telecube.jp/wp/wp-content/uploads/2022/08/Harumiko2-1.jpg,https://telecube.jp/wp/wp-content/uploads/2022/08/Harumiko3-1.jpg,https://telecube.jp/wp/wp-content/uploads/2022/08/HarumikoMap.png,平日,土曜日,日曜日,祝日,朝7時から,夜21時まで,週末価格,"安城東栄町国道1号
愛知県安城市, 新安城, 
名鉄, 
電源(コンセント / USB),WiFi（ブース内 or 施設内）,スマホスタンド,
GBP",34.98580533893269,137.090332222556,157,https://telecube.jp/location/anjoutouei-r1/,https://telecube.jp/wp/wp-content/uploads/2022/08/Harumiko1-1.jpg,,,,,,,,,,,,
5497,【特殊価格形態】二子玉川ライズ オフィス棟 １階 グループ用,フタコタマガワライズ,東京都世田谷区玉川二丁目21-1,東急田園都市線「二子玉川駅」徒歩1分,,,,,平日土日祝 8:00-20:00,2人用：1台,二子玉川駅,"・24時間稼働換気ファン<br />
・WiFi<br />
※このブースは、ビルにて空調管理がされているため、エアコンを設置しておりません。<br />
<br />
※WiFiについて<br />
LTE回線を利用したベストエフォートでの提供となり、時間帯によっては十分な速度が出ない可能性がございます。大事な会議や面接でご利用の際には、代替通信手段のご用意をお願いいたします。<br />
<br />
【特殊価格形態】<br />
・予約単位：30分<br />
・利用料：1,320円(税込)/30分<br />
・利用定員：2名<br />
","<iframe src=""https://www.google.com/maps/embed?pb=!1m18!1m12!1m3!1d3243.647942546146!2d139.62604571510943!3d35.61174998021051!2m3!1f0!2f0!3f0!3m2!1i1024!2i768!4f13.1!3m3!1m2!1s0x6018f43fdf955555%3A0x7d8ca1a1c8966b96!2z5LqM5a2Q546J5bed44Op44Kk44K644O744K344On44OD44OU44Oz44Kw44K744Oz44K_44O8!5e0!3m2!1sja!2sjp!4v1613605772707!5m2!1sja!2sjp"" width=""600"" height=""450"" frameborder=""0"" style=""border:0;"" allowfullscreen="""" aria-hidden=""false"" tabindex=""0""></iframe>",https://telecube.jp/wp/wp-content/uploads/2021/02/RISE1.jpg,https://telecube.jp/wp/wp-content/uploads/2021/02/RISE2.jpg,https://telecube.jp/wp/wp-content/uploads/2022/08/futakotamagawa-rize-1f-4.jpeg,https://telecube.jp/wp/wp-content/uploads/2021/02/二子玉川RIZEフロア図.jpg,平日,土曜日,日曜日,祝日,,,,"二子玉川ライズ オフィス棟,フタコタマガワライズ オフィストウ,48-03,にこたまライズ,ニコタマライズ,二子玉川駅,東急電鉄,田園都市線,東京,世田谷区,電源(コンセント / USB),WiFi（ブース内 or 施設内）,グループ",35.61192036,139.627845,151,https://telecube.jp/location/futakotamagawa-rise-1f-group/,,,,,,,,,,,,,
5475,【週末】愛宕東洋ビル 1F,アタゴトウヨウビル,東京都港区愛宕1-3-2,東京メトロ日比谷線「虎ノ門ヒルズ駅」 徒歩3分,東京メトロ都営三田線「御成門駅」 徒歩8分,東京メトロ日比谷線「神谷町駅 」 徒歩8分,東京メトロ銀座線「虎ノ門駅」 徒歩8分,,平日 7:00～20:00 / 土曜 9:00～17:00,1人用: 2台,虎ノ門ヒルズ駅・御成門駅・神谷町駅・虎ノ門駅,"・24時間連続換気ファン<br />
・WiFi<br />
・スマホスタンド<br />
※このブースは、ビルにて空調管理がされているため、エアコンを設置しておりません。<br />
<br />
※WiFiについて<br />
LTE回線を利用したベストエフォートでの提供となり、時間帯によっては十分な速度が出ない可能性がございます。大事な会議や面接でご利用の際には、代替通信手段のご用意をお願いいたします。","<iframe src=""https://www.google.com/maps/embed?pb=!1m18!1m12!1m3!1d3241.4496011867063!2d139.74724761562342!3d35.66592998019787!2m3!1f0!2f0!3f0!3m2!1i1024!2i768!4f13.1!3m3!1m2!1s0x60188b9385ad9b53%3A0xf544fba07ad058e8!2z44CSMTA1LTAwMDIg5p2x5Lqs6YO95riv5Yy65oSb5a6V77yR5LiB55uu77yT4oiS77ySIOaEm-Wuleadsea0i-ODk-ODqw!5e0!3m2!1sja!2sjp!4v1661787888288!5m2!1sja!2sjp"" width=""600"" height=""450"" style=""border:0;"" allowfullscreen="""" loading=""lazy"" referrerpolicy=""no-referrer-when-downgrade""></iframe>",https://telecube.jp/wp/wp-content/uploads/2022/08/IMG_2989.jpg,https://telecube.jp/wp/wp-content/uploads/2022/08/IMG_2988.jpg,https://telecube.jp/wp/wp-content/uploads/2022/08/IMG_2987.jpg,https://telecube.jp/wp/wp-content/uploads/2022/08/愛宕東洋ビル.png,平日,土曜日,,,朝7時から,,週末価格,"愛宕東洋ビル,アタゴトウヨウビル
東京都港区愛宕
虎ノ門, 御成門, 神谷町, 新橋, 
銀座線, 日比谷線, 三田線, 
電源(コンセント / USB),WiFi（ブース内 or 施設内）,スマホスタンド,
GBP
",35.66597465190016,139.7494322749174,158,https://telecube.jp/location/atagotoyobldg/,,,,,,,,,,,,,
5418,新有楽町ビル 地下1階（WEB会議センター）,シンユウラクチョウビル,東京都千代田区有楽町1-12-1,東京メトロ有楽町線有楽町駅D2出口より直結, JR有楽町駅中央西口より徒歩1分, 東京メトロ日比谷駅A3出口より徒歩2分,,,平日 9:00～21:00 / 土曜 9:00～16:00,1人用：10,有楽町駅,"・24時間稼働換気ファン<br />
・WiFi<br />
・WEB会議用LED照明<br />
・モニター（HDMI対応）<br />
・スマホスタンド<br />
<br />
※このブースは、ビルにて空調管理がされているため、エアコンを設置しておりません。","<iframe src=""https://www.google.com/maps/embed?pb=!1m18!1m12!1m3!1d405.1323182018747!2d139.76209319999998!3d35.67556040000001!2m3!1f0!2f0!3f0!3m2!1i1024!2i768!4f13.1!3m3!1m2!1s0x60188bf01b242b33%3A0x58a575c8ba323f62!2z44CSMTAwLTAwMDYg5p2x5Lqs6YO95Y2D5Luj55Sw5Yy65pyJ5qW955S677yR5LiB55uu77yR77yS4oiS77yRIOaWsOaciealveeUuuODk-ODqw!5e0!3m2!1sja!2sjp!4v1659764152889!5m2!1sja!2sjp"" width=""600"" height=""450"" style=""border:0;"" allowfullscreen="""" loading=""lazy"" referrerpolicy=""no-referrer-when-downgrade""></iframe>",https://telecube.jp/wp/wp-content/uploads/2022/08/IMG_3270.jpeg,https://telecube.jp/wp/wp-content/uploads/2022/08/IMG_3276.jpeg,https://telecube.jp/wp/wp-content/uploads/2022/08/IMG_3274.jpeg,https://telecube.jp/wp/wp-content/uploads/2022/08/新有楽町ビルWEB会議センター_02.png,平日,土曜日,,,夜21時まで,,週末価格,"新有楽町ビル,
有楽町線,日比谷線,山手線,京浜東北線, 東京都千代田区有楽町,
電源(コンセント / USB),WiFi（ブース内 or 施設内）,スマホスタンド,モニター,LED照明, 
WEB会議センター,GBP",35.67564317686962,139.76161040240584,149,https://telecube.jp/location/shinyurakuchobldg/,https://telecube.jp/wp/wp-content/uploads/2022/08/image0.jpeg,,,,,,,https://telecube.jp/wp/wp-content/uploads/2022/08/image2.jpeg,,,,,
5312,鹿児島空港 国内線ターミナル 2F,カゴシマクウコウ,鹿児島県霧島市溝辺町麓822,鹿児島空港 国内線ターミナル 2F,,,,,平日土日祝: 7:00 - 21:00,1人用: 2台,鹿児島空港,"・24時間連続稼働換気ファン<br />
・WiFi<br />
・スマホスタンド<br />
<br />
※WiFiについて<br />
LTE回線を利用したベストエフォートでの提供となり、時間帯によっては十分な速度が出ない可能性がございます。大事な会議や面接でご利用の際には、代替通信手段のご用意をお願いいたします。","<iframe src=""https://www.google.com/maps/embed?pb=!1m18!1m12!1m3!1d847.7192597256667!2d130.71555462922575!3d31.801100898829873!2m3!1f0!2f0!3f0!3m2!1i1024!2i768!4f13.1!3m3!1m2!1s0x353efdd5dc33dc4b%3A0xc5cc843c4b0aaeaf!2z6bm_5YWQ5bO256m65rivIOWbveWGhee3muOCv-ODvOODn-ODiuODqw!5e0!3m2!1sja!2sjp!4v1659256567416!5m2!1sja!2sjp"" width=""600"" height=""450"" style=""border:0;"" allowfullscreen="""" loading=""lazy"" referrerpolicy=""no-referrer-when-downgrade""></iframe>",https://telecube.jp/wp/wp-content/uploads/2022/08/鹿児島空港1.jpeg,https://telecube.jp/wp/wp-content/uploads/2022/08/鹿児島空港3.jpeg,https://telecube.jp/wp/wp-content/uploads/2022/08/鹿児島空港2.jpeg,https://telecube.jp/wp/wp-content/uploads/2022/08/鹿児島空港フロア図202211.png,平日,土曜日,日曜日,祝日,朝7時から,夜21時まで,週末価格,"鹿児島県,鹿児島空港,カゴシマクウコウ,九州,電源(コンセント / USB),WiFi（ブース内 or 施設内）,スマホスタンド,GBP",31.800496748120388,130.7164763836313,150,https://telecube.jp/location/kagoshima_airport/,https://telecube.jp/wp/wp-content/uploads/2022/08/iOS-の画像.jpg,,,,,,,,,,,,
5253,京都ポルタ B9出口踊場,キョウトポルタ,京都府京都市下京区東塩小路町902,B9出口: ポルタ 中央通り x 南通りの角、PLAZA店舗の横,　,JR京都駅丸東改札口出てすぐ,京都市営地下鉄烏丸線京都駅 直結,近鉄京都駅 徒歩5分,平日土日祝 : 7:00 - 21:00,1人用: 3台,1人用: 1台,"・24時間連続稼働換気ファン<br />
・エアコン<br />
・WiFi<br />
・スマホスタンド<br />
<br />
※WiFiについて<br />
LTE回線を利用したベストエフォートでの提供となり、時間帯によっては十分な速度が出ない可能性がございます。大事な会議や面接でご利用の際には、代替通信手段のご用意をお願いいたします。","<iframe src=""https://www.google.com/maps/embed?pb=!1m18!1m12!1m3!1d817.2012892644766!2d135.75818502924622!3d34.98654489877258!2m3!1f0!2f0!3f0!3m2!1i1024!2i768!4f13.1!3m3!1m2!1s0x6001090bccb0eeab%3A0x300da0bd3bf5b6bc!2z44OG44Os44Kt44Ol44O844OW!5e0!3m2!1sja!2sjp!4v1658479507610!5m2!1sja!2sjp"" width=""600"" height=""450"" style=""border:0;"" allowfullscreen="""" loading=""lazy"" referrerpolicy=""no-referrer-when-downgrade""></iframe>",https://telecube.jp/wp/wp-content/uploads/2022/07/IMG_3187.jpeg,https://telecube.jp/wp/wp-content/uploads/2022/07/IMG_3183.jpeg,https://telecube.jp/wp/wp-content/uploads/2022/07/PortaB9.jpg,https://telecube.jp/wp/wp-content/uploads/2022/07/京都ポルタmap.png,平日,土曜日,日曜日,祝日,朝7時から,夜21時まで,週末価格,"京都府, 京都市, 京都, 京都駅, JR西日本 京都駅, 近鉄 京都駅, ポルタ, 138-01,138-02,138-03, 京都ポルタ,キョウトポルタ,京都市, 下京区, 東海道新幹線,東海道本線, 近鉄京都線,電源(コンセント / USB),WiFi（ブース内 or 施設内）,スマホスタンド,GBP",34.98648,135.7587462262635,148,https://telecube.jp/location/kyoto_porta/,https://telecube.jp/wp/wp-content/uploads/2022/07/IMG_3184.jpeg,,,,,,,https://telecube.jp/wp/wp-content/uploads/2022/07/IMG_3186.jpeg,https://telecube.jp/wp/wp-content/uploads/2022/07/IMG_3185.jpeg,,,,
5168,新国際ビル,シンコクサイビル,東京都千代田区丸の内3-4-1,東京メトロ有楽町線「有楽町駅」直結D3出口,都営三田線「日比谷駅」・JR「有楽町駅」から徒歩3分,,,,平日: 8:00 - 21:00 / 土曜: 8:00 - 19:00 / 日曜: 10:00 - 19:00,1人用 1台,有楽町駅,"・24時間連続換気ファン<br />
・WiFi<br />
・スマホスタンド<br />
※このブースは、ビルにて空調管理がされているため、エアコンを設置しておりません。<br />
<br />
※WiFiについて<br />
LTE回線を利用したベストエフォートでの提供となり、時間帯によっては十分な速度が出ない可能性がございます。大事な会議や面接でご利用の際には、代替通信手段のご用意をお願いいたします。<br />
","<iframe src=""https://www.google.com/maps/embed?pb=!1m18!1m12!1m3!1d405.12859405372774!2d139.76165261830423!3d35.67629401627953!2m3!1f0!2f0!3f0!3m2!1i1024!2i768!4f13.1!3m3!1m2!1s0x60188bf00cc5b591%3A0x836288cd284162d3!2z5paw5Zu96Zqb44OT44Or44OC44Oz44Kw!5e0!3m2!1sja!2sjp!4v1656464004135!5m2!1sja!2sjp"" width=""600"" height=""450"" style=""border:0;"" allowfullscreen="""" loading=""lazy"" referrerpolicy=""no-referrer-when-downgrade""></iframe>",https://telecube.jp/wp/wp-content/uploads/2022/06/LINE_ALBUM_新国際ビル_220625_2.jpg,https://telecube.jp/wp/wp-content/uploads/2022/06/LINE_ALBUM_新国際ビル_220625_4.jpg,https://telecube.jp/wp/wp-content/uploads/2022/06/LINE_ALBUM_新国際ビル_220628_1.jpg,https://telecube.jp/wp/wp-content/uploads/2022/06/ShinKokusaiBldg_FloorMap.png,平日,土曜日,日曜日,,,,,"新国際ビル,シンコクサイビル,135-01,有楽町駅,日比谷駅,JR東日本,京浜東北線,山手線,東京メトロ,千代田線,都営地下鉄,東京,千代田区,電源(コンセント / USB),WiFi（ブース内 or 施設内）,スマホスタンド,GBP",35.676627,139.76217,146,https://telecube.jp/location/shinkokusaibldg/,,,,,,,,,,,,,
5063,丸の内オアゾ 1階（丸の内北口ビル 1階エントランスホール）,マルノウチアアゾ マルノウチキタグチビル,東京都千代田区丸の内1-6-5,JR東京駅 丸の内北口地下通路より徒歩1分,東京メトロ丸ノ内線東京駅 直結,東京メトロ東西線大手町駅 直結,※徒歩時間は施設までの時間であり、テレキューブまでの時間ではありませんのでご注意ください,,平日 7:00-21:00,1人用：2台,東京駅・大手町・丸の内・オアゾ,"・24時間稼働換気ファン<br />
・WiFi<br />
・スマホスタンド　<br />
※このブースは、ビルにて空調管理がされているため、エアコンを設置しておりません。<br />
<br />
※WiFiについて<br />
LTE回線を利用したベストエフォートでの提供となり、時間帯によっては十分な速度が出ない可能性がございます。大事な会議や面接でご利用の際には、代替通信手段のご用意をお願いいたします。","<iframe src=""https://www.google.com/maps/embed?pb=!1m18!1m12!1m3!1d1620.3649928255527!2d139.76590914950305!3d35.683650014707034!2m3!1f0!2f0!3f0!3m2!1i1024!2i768!4f13.1!3m3!1m2!1s0x60188bf9274299a5%3A0x150fcc903bcec163!2z44CSMTAwLTAwMDUg5p2x5Lqs6YO95Y2D5Luj55Sw5Yy65Li444Gu5YaF77yR5LiB55uu77yW4oiS77yVIOS4uOOBruWGheWMl-WPo-ODk-ODq-ODh-OCo-ODs-OCsA!5e0!3m2!1sja!2sjp!4v1653268180408!5m2!1sja!2sjp"" width=""600"" height=""450"" style=""border:0;"" allowfullscreen="""" loading=""lazy"" referrerpolicy=""no-referrer-when-downgrade""></iframe>",https://telecube.jp/wp/wp-content/uploads/2022/05/iOS-の画像-85.jpg,https://telecube.jp/wp/wp-content/uploads/2022/05/iOS-の画像-82.jpg,https://telecube.jp/wp/wp-content/uploads/2022/05/iOS-の画像-84.jpg,https://telecube.jp/wp/wp-content/uploads/2022/05/丸の内北口ビル・オアゾ.png,平日,,,,朝7時から,夜21時まで,,"丸の内北口,マルノウチキタグチ,丸の内オアゾ,マルノウチオアゾ,東京駅,大手町駅,JR東日本,山手線,京浜東北線,中央線,東海道線,横須賀線,総武線,京葉線,東京メトロ,東西線,千代田線,半蔵門線,東京,千代田区,電源(コンセント / USB),WiFi（ブース内 or 施設内）,スマホスタンド,広告掲載,ソニー生命,GBP",35.68371507488247,139.76680038334865,145,https://telecube.jp/location/marunouchikitaguchibldg/,,,,,,,,,,,,,
5007,たまプラーザテラスGATE PLAZA,タマプラーザテラスゲートプラザ,神奈川県横浜市青葉区美しが丘1-1-2,東急田園都市線　たまプラーザ駅東改札直結,3Fエスカレータ前 (東急トラベルプラザの脇),,,,平日土日祝 8:00-21:00,１人用：１台,たまプラーザ駅,"・24時間連続換気ファン<br />
・WiFi<br />
・スマホスタンド<br />
※このブースは、ビルにて空調管理がされているため、エアコンを設置しておりません。<br />
<br />
※WiFiについて<br />
LTE回線を利用したベストエフォートでの提供となり、時間帯によっては十分な速度が出ない可能性がございます。大事な会議や面接でご利用の際には、代替通信手段のご用意をお願いいたします。","<iframe src=""https://www.google.com/maps/embed?pb=!1m18!1m12!1m3!1d3245.0297392981233!2d139.5557305152559!3d35.577657780218715!2m3!1f0!2f0!3f0!3m2!1i1024!2i768!4f13.1!3m3!1m2!1s0x6018f710baf5ae7d%3A0x87b02e0697c73493!2z44Gf44G-44OX44Op44O844K2IOODhuODqeOCuQ!5e0!3m2!1sja!2sjp!4v1651034154753!5m2!1sja!2sjp"" width=""600"" height=""450"" style=""border:0;"" allowfullscreen="""" loading=""lazy"" referrerpolicy=""no-referrer-when-downgrade""></iframe>",https://telecube.jp/wp/wp-content/uploads/2022/04/800px-Tama_Plaza_Terrace_02-1.jpg,https://telecube.jp/wp/wp-content/uploads/2022/04/tamaplazaterrace_gateplazza_1.jpg,https://telecube.jp/wp/wp-content/uploads/2022/04/tamaplazaterrace_gateplazza.jpg,https://telecube.jp/wp/wp-content/uploads/2022/04/tamaplazaterrace_gateplazza_floormap.png,平日,土曜日,日曜日,祝日,夜21時まで,,週末価格,"たまプラーザテラスGATE PLAZA,タマプラーザテラスゲートプラザ,133-01,たまプラーザ駅,東急電鉄, 田園都市線,神奈川県,横浜市,電源(コンセント / USB),WiFi（ブース内 or 施設内）,スマホスタンド,GBP",35.57785,139.55791,144,https://telecube.jp/location/tamaplazaterrace_gateplazza/,,,,,,,,,,,,,
4975,大手門タワー,オオテモンタワー,東京都千代田区大手町1-1-2,東京メトロ東西線・千代田線・半蔵門線・丸の内線・都営三田線 「大手町駅」C10出口より徒歩約2分,※徒歩時間は施設までの時間であり、テレキューブまでの時間ではありませんのでご注意ください,,,,平日 8:00-20:00,１人用：２台,大手町駅,"・24時間連続稼働換気ファン<br />
・WiFi<br />
・スマホスタンド<br />
<br />
※WiFiについて<br />
LTE回線を利用したベストエフォートでの提供となり、時間帯によっては十分な速度が出ない可能性がございます。大事な会議や面接でご利用の際には、代替通信手段のご用意をお願いいたします。","<iframe src=""https://www.google.com/maps/embed?pb=!1m18!1m12!1m3!1d3240.6309122825!2d139.75961376525896!3d35.68608903019309!2m3!1f0!2f0!3f0!3m2!1i1024!2i768!4f13.1!3m3!1m2!1s0x60188c0877f5f721%3A0x234206615306ab45!2z5aSn5omL6ZaA44K_44Ov44O8772lRU5FT1Pjg5Pjg6s!5e0!3m2!1sja!2sjp!4v1649207335390!5m2!1sja!2sjp"" width=""600"" height=""450"" style=""border:0;"" allowfullscreen="""" loading=""lazy"" referrerpolicy=""no-referrer-when-downgrade""></iframe>",https://telecube.jp/wp/wp-content/uploads/2022/04/otemon_tower_6@0.33x.jpg,https://telecube.jp/wp/wp-content/uploads/2022/04/otemon_tower_2.jpg,https://telecube.jp/wp/wp-content/uploads/2022/04/otemon_tower_3.jpg,https://telecube.jp/wp/wp-content/uploads/2022/04/otemon_tower_floormap.png,平日,,,,,,,"大手門タワー,オオテモンタワー,130-01,130-02,東京駅,大手町駅,JR東日本,山手線,京浜東北線,中央線,東海道線,横須賀線,総武線,京葉線,東京メトロ,東西線,千代田線,半蔵門線,東京,千代田区,電源(コンセント / USB),WiFi（ブース内 or 施設内）,スマホスタンド,GBP",35.68630,139.76193,142,https://telecube.jp/location/otemon_tower/,https://telecube.jp/wp/wp-content/uploads/2022/04/otemon_tower_1.jpg,,,,,,,,,,,,
4778,横浜駅　南北連絡通路,ヨコハマエキ,神奈川県横浜市西区南幸1-1-1,東急線・みなとみらい線・JR線・京急線・相鉄線・横浜市営地下鉄 　各線　横浜駅　徒歩3分,※徒歩時間は施設までの時間であり、テレキューブまでの時間ではありませんのでご注意ください,,,,平日土日祝 7:00-21:00,1人用：2台,横浜駅,"・24時間連続稼働換気ファン<br />
・エアコン<br />
・WiFi<br />
・スマホスタンド<br />
<br />
※WiFiについて<br />
LTE回線を利用したベストエフォートでの提供となり、時間帯によっては十分な速度が出ない可能性がございます。大事な会議や面接でご利用の際には、代替通信手段のご用意をお願いいたします。","<iframe src=""https://www.google.com/maps/embed?pb=!1m18!1m12!1m3!1d3249.5480781785063!2d139.61987331525293!3d35.46598108024506!2m3!1f0!2f0!3f0!3m2!1i1024!2i768!4f13.1!3m3!1m2!1s0x60185c0df6cfd2f1%3A0xbbbca6f36b5235f5!2z5qiq5rWc6aeF!5e0!3m2!1sja!2sjp!4v1648185893643!5m2!1sja!2sjp"" width=""600"" height=""450"" style=""border:0;"" allowfullscreen="""" loading=""lazy"" referrerpolicy=""no-referrer-when-downgrade""></iframe>",https://telecube.jp/wp/wp-content/uploads/2022/03/yokohama_1.jpg,https://telecube.jp/wp/wp-content/uploads/2022/03/yokohama_7.jpg,https://telecube.jp/wp/wp-content/uploads/2022/03/yokohama_8.jpg,https://telecube.jp/wp/wp-content/uploads/2022/03/yokohama_floormap.png,平日,土曜日,日曜日,祝日,朝7時から,夜21時まで,週末価格,"横浜駅,ヨコハマエキ,128-01,128-02,横浜駅,JR東日本,東海道線,横須賀線,京浜東北線,根岸線,横浜線,東急東横線,東急電鉄,みなとみらい線,京浜急行電鉄,京急電鉄,本線,相模鉄道,相鉄線,横浜市営地下鉄,ブルーライン,神奈川県,横浜市,電源(コンセント / USB),WiFi（ブース内 or 施設内）,スマホスタンド,エアコン（ブース内 or 施設内）,GBP",35.46636,139.62227,141,https://telecube.jp/location/yokohama/,https://telecube.jp/wp/wp-content/uploads/2022/03/yokohama_2561.jpg,,,,,,,,,,,,
4775,武蔵小杉東急スクエア,ムサシコスギトウキュウスクエア,神奈川県川崎市中原区小杉町３丁目-472,東急東横線・目黒線　武蔵小杉駅　東急スクエア連絡口直結,JR　武蔵小杉駅　北改札（南武線口）から連絡通路で2階に直結,,,,平日土日祝 10:00-20:00,１人用：１台,武蔵小杉駅,"・24時間連続換気ファン<br />
・WiFi<br />
・スマホスタンド<br />
※このブースは、ビルにて空調管理がされているため、エアコンを設置しておりません。<br />
<br />
※WiFiについて<br />
LTE回線を利用したベストエフォートでの提供となり、時間帯によっては十分な速度が出ない可能性がございます。大事な会議や面接でご利用の際には、代替通信手段のご用意をお願いいたします。","<iframe src=""https://www.google.com/maps/embed?pb=!1m18!1m12!1m3!1d3245.100054467238!2d139.6570860152558!3d35.57592218021905!2m3!1f0!2f0!3f0!3m2!1i1024!2i768!4f13.1!3m3!1m2!1s0x6018f57b3921cde7%3A0xa9e83577915c3c48!2z5q2m6JS15bCP5p2J5p2x5oCl44K544Kv44Ko44Ki!5e0!3m2!1sja!2sjp!4v1648183958252!5m2!1sja!2sjp"" width=""600"" height=""450"" style=""border:0;"" allowfullscreen="""" loading=""lazy"" referrerpolicy=""no-referrer-when-downgrade""></iframe>",https://telecube.jp/wp/wp-content/uploads/2022/03/musashikosugi_tokyu_square_2541.jpeg,https://telecube.jp/wp/wp-content/uploads/2022/03/musashikosugi_tokyu_square_2527.jpg,https://telecube.jp/wp/wp-content/uploads/2022/03/musashikosugi_tokyu_square_2524.jpg,https://telecube.jp/wp/wp-content/uploads/2022/03/musashikosugi_tokyu_square_floormap.png,平日,土曜日,日曜日,祝日,,,週末価格,"武蔵小杉東急スクエア,ムサシコスギトウキュウスクエア,129-01,武蔵小杉駅,JR東日本,横須賀線,総武線,南武線,埼京線,相模鉄道,相鉄線,東急東横線,東急電鉄,目黒線,神奈川県,川崎市,電源(コンセント / USB),WiFi（ブース内 or 施設内）,スマホスタンド,GBP",35.57613,139.65926,139,https://telecube.jp/location/musashikosugi_tokyu_square/,https://telecube.jp/wp/wp-content/uploads/2022/03/musashikosugi_tokyu_square_2529.jpg,,,,,,,,,,,,
4767,仙台空港 2F 国内線搭乗待合室内（搭乗時のみ利用可）,センダイクウコウ,宮城県名取市下増田字南原,仙台空港アクセス線「仙台空港駅」 ,仙台空港 2F 国内線搭乗待合室内 7番搭乗口付近,※国内保安検査場を抜けて左手奥,※搭乗手続きをされた方のみご利用いただけます,※到着ロビーからの入場はできません,平日土日祝 7:00-21:00,１人用：１台,仙台空港駅,"・24時間連続換気ファン<br />
・WiFi<br />
・スマホスタンド<br />
※このブースは、ビルにて空調管理がされているため、エアコンを設置しておりません。<br />
<br />
※WiFiについて<br />
LTE回線を利用したベストエフォートでの提供となり、時間帯によっては十分な速度が出ない可能性がございます。大事な会議や面接でご利用の際には、代替通信手段のご用意をお願いいたします。","<iframe src=""https://www.google.com/maps/embed?pb=!1m18!1m12!1m3!1d3138.0202471688635!2d140.91475571532814!3d38.13972217969468!2m3!1f0!2f0!3f0!3m2!1i1024!2i768!4f13.1!3m3!1m2!1s0x5f8a224f3f0008fd%3A0x1e9222da787f18e0!2z5LuZ5Y-w56m65riv!5e0!3m2!1sja!2sjp!4v1648113125260!5m2!1sja!2sjp"" width=""600"" height=""450"" style=""border:0;"" allowfullscreen="""" loading=""lazy""></iframe>",https://telecube.jp/wp/wp-content/uploads/2022/03/Sendai_Airport_1.jpg,https://telecube.jp/wp/wp-content/uploads/2022/03/Sendai_Airport_3.jpg,https://telecube.jp/wp/wp-content/uploads/2022/03/Sendai_Airport_4.jpg,https://telecube.jp/wp/wp-content/uploads/2022/03/Sendai_Airport_floormap.png,平日,土曜日,日曜日,祝日,朝7時から,,週末価格,"仙台空港,センダイクウコウ,131-01,仙台空港駅,仙台空港鉄道,仙台空港線,宮城県,名取市,電源(コンセント / USB),WiFi（ブース内 or 施設内）,スマホスタンド,GBP",38.13989,140.91694,140,https://telecube.jp/location/sendai_airport/,,,,,,,,,,,,,
4745,八王子ファーストスクエア,ハチオウジファーストスクエア,東京都八王子市明神町３丁目２０−６,京王線「京王八王子駅」3番出口から　徒歩3分,JR線「八王子駅」北口から　徒歩6分,※徒歩時間は施設までの時間であり、テレキューブまでの時間ではありませんのでご注意ください,,,平日土日祝 7:00-21:00,１人用：１台,京王八王子駅・八王子駅,"・24時間連続稼働換気ファン<br />
・エアコン<br />
・WiFi<br />
・スマホスタンド<br />
<br />
※WiFiについて<br />
LTE回線を利用したベストエフォートでの提供となり、時間帯によっては十分な速度が出ない可能性がございます。大事な会議や面接でご利用の際には、代替通信手段のご用意をお願いいたします。","<iframe src=""https://www.google.com/maps/embed?pb=!1m18!1m12!1m3!1d3241.7924296651017!2d139.34023171525817!3d35.657485380199674!2m3!1f0!2f0!3f0!3m2!1i1024!2i768!4f13.1!3m3!1m2!1s0x60191dde7dac06bb%3A0xc9f3614e8ffa3911!2z5YWr546L5a2Q44OV44Kh44O844K544OI44K544Kv44Ko44Ki!5e0!3m2!1sja!2sjp!4v1646620549414!5m2!1sja!2sjp"" width=""600"" height=""450"" style=""border:0;"" allowfullscreen="""" loading=""lazy""></iframe>",https://telecube.jp/wp/wp-content/uploads/2022/03/hachioji_first_square.jpg,https://telecube.jp/wp/wp-content/uploads/2022/03/hachioji_first_square_3.jpg,https://telecube.jp/wp/wp-content/uploads/2022/03/hachioji_first_square_4.jpg,https://telecube.jp/wp/wp-content/uploads/2022/03/hachioji_first_square_floormap.png,平日,土曜日,日曜日,祝日,朝7時から,夜21時まで,週末価格,"八王子ファーストスクエア,ハチオウジファーストスクエア,63-01,京王八王子駅,京王電鉄,京王線,八王子駅,JR東日本,中央線,横浜線,相模線,川越線,八高線,東京,八王子市,電源(コンセント / USB),WiFi（ブース内 or 施設内）,スマホスタンド,エアコン（ブース内 or 施設内）,GBP",35.65763,139.34242,138,https://telecube.jp/location/hachioji_first_square/,,,,,,,,,,,,,
4714,西武鉄道 新所沢駅 改札内,セイブテツドウ シントコロザワエキ,埼玉県所沢市緑町1丁目21-25,西武新宿線 新所沢駅 改札内,改札内のため、ご利用には乗車券または入場券の購入が必要となります。,,,,平日土日祝 7:00-21:00,1人用：1台,新所沢駅,"・24時間稼働換気ファン<br />
・エアコン<br />
・WiFi<br />
・スマホスタンド<br />
<br />
※WiFiについて<br />
LTE回線を利用したベストエフォートでの提供となり、時間帯によっては十分な速度が出ない可能性がございます。大事な会議や面接でご利用の際には、代替通信手段のご用意をお願いいたします。","<iframe src=""https://www.google.com/maps/embed?pb=!1m18!1m12!1m3!1d3235.719722149666!2d139.45386541526221!3d35.80681348016528!2m3!1f0!2f0!3f0!3m2!1i1024!2i768!4f13.1!3m3!1m2!1s0x6018dddac5820f91%3A0x6bfc2ad5d33151d8!2z5paw5omA5rKi6aeF!5e0!3m2!1sja!2sjp!4v1646033532086!5m2!1sja!2sjp"" width=""600"" height=""450"" style=""border:0;"" allowfullscreen="""" loading=""lazy""></iframe>",https://telecube.jp/wp/wp-content/uploads/2022/02/seibu_shintokorozawa_1.jpg,https://telecube.jp/wp/wp-content/uploads/2022/02/seibu_shintokorozawa.jpg,https://telecube.jp/wp/wp-content/uploads/2022/02/seibu_shintokorozawa_2.jpg,https://telecube.jp/wp/wp-content/uploads/2022/02/seibu_shintokorozawa_floormap.png,平日,土曜日,日曜日,祝日,朝7時から,夜21時まで,週末価格,"西武鉄道 新所沢駅,セイブテツドウ シントコロザワエキ,127-01,新所沢駅,西武鉄道,埼玉県,所沢市,電源(コンセント / USB),WiFi（ブース内 or 施設内）,スマホスタンド,エアコン（ブース内 or 施設内）,広告掲載,GBP",35.80700,139.45606,137,https://telecube.jp/location/seibu_shin_tokorozawa/,,,,,,,,,,,,,
4558,ハービスENTオフィスタワー,ハービスエントオフィスタワー,大阪府大阪市北区梅田2丁目2-22　ハービスENTオフィスタワー　B2F,阪神大阪梅田駅 西口から　徒歩 すぐ,JR大阪駅 桜橋口から　徒歩約 2 分,JR東西線 北新地駅西改札口から　徒歩約4分,※徒歩時間は施設までの時間であり、テレキューブまでの時間ではありませんのでご注意ください,,平日土日祝 7:00-21:00,１人用：１台,大阪梅田駅・大阪駅・北新地駅,"・24時間連続換気ファン<br />
・WiFi<br />
※このブースは、ビルにて空調管理がされているため、エアコンを設置しておりません。<br />
<br />
※WiFiについて<br />
LTE回線を利用したベストエフォートでの提供となり、時間帯によっては十分な速度が出ない可能性がございます。大事な会議や面接でご利用の際には、代替通信手段のご用意をお願いいたします。","<iframe src=""https://www.google.com/maps/embed?pb=!1m18!1m12!1m3!1d3280.213963905419!2d135.49238111523223!3d34.699782880434746!2m3!1f0!2f0!3f0!3m2!1i1024!2i768!4f13.1!3m3!1m2!1s0x6000e68cd8a9ed7f%3A0xbff3d3ef6f1d4ead!2z44OP44O844OT44K5UExBWkEgRU5U!5e0!3m2!1sja!2sjp!4v1644283104912!5m2!1sja!2sjp"" width=""600"" height=""450"" style=""border:0;"" allowfullscreen="""" loading=""lazy""></iframe>",https://telecube.jp/wp/wp-content/uploads/2022/02/herbisentofficetower.jpg,https://telecube.jp/wp/wp-content/uploads/2022/02/herbisentofficetower_2.jpg,https://telecube.jp/wp/wp-content/uploads/2022/02/herbisentofficetower_3.jpg,https://telecube.jp/wp/wp-content/uploads/2022/02/herbisentofficetower_floormap.jpg,平日,土曜日,日曜日,祝日,朝7時から,夜21時まで,週末価格,"ハービスENTオフィスタワー,ハービスエントオフィスタワー,67-01,大阪梅田駅,大阪駅,北新地駅,阪急電鉄,阪急電車,宝塚本線,阪神電気鉄道,阪神電鉄,阪神電車,JR西日本,大阪環状線,東海道本線,福知山線,宝塚線,東西線,大阪府,大阪市,電源(コンセント / USB),WiFi（ブース内 or 施設内）モニター,LED照明,ソニー生命,GBP",34.70000,135.49453,136,https://telecube.jp/location/herbisentofficetower/,https://telecube.jp/wp/wp-content/uploads/2022/02/herbisentofficetower_1.jpg,,,,,,,,,,,,
4540,【特殊価格形態】国際ビル（2人用）グループ用,コクサイビル（フタリヨウ）グループヨウ,千代田区丸の内3-1-1国際ビル,ＪＲ「有楽町駅」より徒歩２分,東京メトロ有楽町線「有楽町駅」直結,都営地下鉄三田線「日比谷駅」直結,※徒歩時間は施設までの時間であり、テレキューブまでの時間ではありませんのでご注意ください,,"平日土 9:00-21:00
日祝 11:00-21:00",2人用：1台,有楽町駅・日比谷駅,"・24時間連続換気ファン<br />
・WiFi<br />
※このブースは、ビルにて空調管理がされているため、エアコンを設置しておりません。<br />
<br />
※WiFiについて<br />
LTE回線を利用したベストエフォートでの提供となり、時間帯によっては十分な速度が出ない可能性がございます。大事な会議や面接でご利用の際には、代替通信手段のご用意をお願いいたします。<br />
<br />
【特殊価格形態】<br />
・予約単位：30分<br />
・利用料：1,080円(税込)/30分<br />
・利用定員：2名","<iframe src=""https://www.google.com/maps/embed?pb=!1m18!1m12!1m3!1d3241.011664377786!2d139.7590260152587!3d35.67671478019536!2m3!1f0!2f0!3f0!3m2!1i1024!2i768!4f13.1!3m3!1m2!1s0x60188bf05c6cee0f%3A0xac9551f8658dbc06!2z44CSMTAwLTAwMDUg5p2x5Lqs6YO95Y2D5Luj55Sw5Yy65Li444Gu5YaF77yT5LiB55uu77yR4oiS77yRIOWbvemam-ODk-ODqw!5e0!3m2!1sja!2sjp!4v1643848667354!5m2!1sja!2sjp"" width=""600"" height=""450"" style=""border:0;"" allowfullscreen="""" loading=""lazy""></iframe>",https://telecube.jp/wp/wp-content/uploads/2022/02/image_67142145.jpg,https://telecube.jp/wp/wp-content/uploads/2022/02/image_67148801_2.jpg,https://telecube.jp/wp/wp-content/uploads/2022/02/image_67164673.jpg,https://telecube.jp/wp/wp-content/uploads/2022/02/kokusaiibuilding_for2_floormap.png,平日,土曜日,日曜日,祝日,夜21時まで,,,"国際ビル（2人用）グループ用,コクサイビル（フタリヨウ）グループヨウ,126-01,有楽町駅,日比谷駅,JR東日本,京浜東北線,山手線,東京メトロ,千代田線,都営地下鉄,東京,千代田区,電源(コンセント / USB),WiFi（ブース内 or 施設内）",35.6769235107652,139.761063202446,131,https://telecube.jp/location/kokusaibuilding_for2/,,,,,,,,,,,,,
4514,ニッセイアロマスクエア,ニッセイアロマスクエア,東京都大田区蒲田5丁目37-1,JR・東急電鉄「蒲田駅」徒歩5分,※徒歩時間は施設までの時間であり、テレキューブまでの時間ではありませんのでご注意ください,,,,平日土日 8:00-20:00,１人用：２台,蒲田駅,"・24時間連続換気ファン<br />
・WiFi<br />
・スマホスタンド<br />
※このブースは、ビルにて空調管理がされているため、エアコンを設置しておりません。<br />
<br />
※WiFiについて<br />
LTE回線を利用したベストエフォートでの提供となり、時間帯によっては十分な速度が出ない可能性がございます。大事な会議や面接でご利用の際には、代替通信手段のご用意をお願いいたします。","<iframe src=""https://www.google.com/maps/embed?pb=!1m18!1m12!1m3!1d3245.712497593392!2d139.7162301505147!3d35.560802044078144!2m3!1f0!2f0!3f0!3m2!1i1024!2i768!4f13.1!3m3!1m2!1s0x6018605963f12d7f%3A0x281f5da9e34da99c!2z44CSMTQ0LTAwNTIg5p2x5Lqs6YO95aSn55Sw5Yy66JKy55Sw77yV5LiB55uu77yT77yX4oiS77yRIOODi-ODg-OCu-OCpOOCouODreODnuOCueOCr-OCqOOCog!5e0!3m2!1sja!2sjp!4v1643166612626!5m2!1sja!2sjp"" width=""600"" height=""450"" style=""border:0;"" allowfullscreen="""" loading=""lazy""></iframe>",https://telecube.jp/wp/wp-content/uploads/2022/01/NissayAroma_5.jpg,https://telecube.jp/wp/wp-content/uploads/2022/01/NissayAroma_7.jpg,https://telecube.jp/wp/wp-content/uploads/2022/01/NissayAroma.jpg,https://telecube.jp/wp/wp-content/uploads/2022/01/NissayAroma_floormap.png,平日,土曜日,日曜日,,,,週末価格,"ニッセイアロマスクエア,ニッセイアロマスクエア,59-01,59-02,蒲田駅,JR東日本,京浜東北線,東急電鉄,池上線,東急多摩川線,東京,大田区,電源(コンセント / USB),WiFi（ブース内 or 施設内）,スマホスタンド,GBP",35.5609825590954,139.718318850926,132,https://telecube.jp/location/nissayaroma/,,,,,,,,,,,,,
4507,三田Avanti,ミタアバンテ,東京都港区三田3-11-28,都営浅草線・京浜急行「泉岳寺駅」A4出口徒歩1分,JR山手線・京浜東北線「高輪ゲートウェイ駅」徒歩8分,※徒歩時間は施設までの時間であり、テレキューブまでの時間ではありませんのでご注意ください,,,平日 8:00-19:00,１人用：１台,泉岳寺駅・高輪ゲートウェイ駅,"・24時間連続換気ファン<br />
・WiFi<br />
・スマホスタンド<br />
※このブースは、ビルにて空調管理がされているため、エアコンを設置しておりません。<br />
<br />
※WiFiについて<br />
LTE回線を利用したベストエフォートでの提供となり、時間帯によっては十分な速度が出ない可能性がございます。大事な会議や面接でご利用の際には、代替通信手段のご用意をお願いいたします。","<iframe src=""https://www.google.com/maps/embed?pb=!1m18!1m12!1m3!1d3242.462971533901!2d139.73946421525773!3d35.64096348020371!2m3!1f0!2f0!3f0!3m2!1i1024!2i768!4f13.1!3m3!1m2!1s0x60188bad658eb2eb%3A0x2f43b8a470fdb2fd!2z44CSMTA4LTAwNzMg5p2x5Lqs6YO95riv5Yy65LiJ55Sw77yT5LiB55uu77yR77yR4oiS77yS77yYIOS4ieeUsO-8oe-9lu-9ge-9ju-9lO-9iQ!5e0!3m2!1sja!2sjp!4v1643165716514!5m2!1sja!2sjp"" width=""600"" height=""450"" style=""border:0;"" allowfullscreen="""" loading=""lazy""></iframe>",https://telecube.jp/wp/wp-content/uploads/2022/01/Mita_Avanti_5.jpg,https://telecube.jp/wp/wp-content/uploads/2022/01/Mita_Avanti_4.jpg,https://telecube.jp/wp/wp-content/uploads/2022/01/Mita_Avanti_1.jpg,https://telecube.jp/wp/wp-content/uploads/2022/01/Mita_Avanti_floormap.png,平日,,,,,,週末価格,"三田Avanti,ミタアバンテ,125-01,泉岳寺駅,高輪ゲートウェイ駅,JR東日本,山手線,京浜東北線,都営地下鉄,京浜急行電鉄,京急電鉄,本線,東京,港区,電源(コンセント / USB),WiFi（ブース内 or 施設内）,スマホスタンド,GBP",35.6409273595807,139.741443638623,134,https://telecube.jp/location/mitaavanti/,,,,,,,,,,,,,
4317,アプローズタワー,アプローズタワー,大阪府大阪市北区茶屋町19-19,大阪メトロ御堂筋線　中津駅　4号出口から徒歩5分,阪急大阪梅田駅　茶屋町口から徒歩5分,JR大阪駅　御堂筋南口から徒歩10分,※徒歩時間は施設までの時間であり、テレキューブまでの時間ではありませんのでご注意ください,,平日土日祝 7:00-21:00,１人用：２台,中津駅・大阪梅田駅・大阪駅,"・24時間連続換気ファン<br />
・WiFi<br />
・スマホスタンド<br />
※このブースは、ビルにて空調管理がされているため、エアコンを設置しておりません。<br />
<br />
※WiFiについて<br />
LTE回線を利用したベストエフォートでの提供となり、時間帯によっては十分な速度が出ない可能性がございます。大事な会議や面接でご利用の際には、代替通信手段のご用意をお願いいたします。","<iframe src=""https://www.google.com/maps/embed?pb=!1m18!1m12!1m3!1d3279.8678487062016!2d135.49635261523247!3d34.708512980432495!2m3!1f0!2f0!3f0!3m2!1i1024!2i768!4f13.1!3m3!1m2!1s0x6000e69042a52b61%3A0x25dc80e9a0765711!2z44Ki44OX44Ot44O844K644K_44Ov44O8!5e0!3m2!1sja!2sjp!4v1640227401166!5m2!1sja!2sjp"" width=""600"" height=""450"" style=""border:0;"" allowfullscreen="""" loading=""lazy""></iframe>",https://telecube.jp/wp/wp-content/uploads/2021/12/applausetower_1.jpg,https://telecube.jp/wp/wp-content/uploads/2021/12/applausetower_3.jpg,https://telecube.jp/wp/wp-content/uploads/2021/12/applausetower_2.jpg,https://telecube.jp/wp/wp-content/uploads/2021/12/applausetower_floormap.png,平日,土曜日,日曜日,祝日,朝7時から,夜21時まで,週末価格,"アプローズタワー,アプローズタワー,124-01,124-02,大阪駅,大阪梅田駅,中津駅,JR西日本,大阪環状線,宝塚線,東海道本線,福知山線,大阪メトロ,御堂筋線,阪急電鉄,阪急電車,阪神電気鉄道,阪神電鉄,阪神電車,大阪府,大阪市,電源(コンセント / USB),WiFi（ブース内 or 施設内）,スマホスタンド,GBP",34.7085348554493,135.498784427647,130,https://telecube.jp/location/applausetower/,https://telecube.jp/wp/wp-content/uploads/2021/12/applausetower_4.jpg,,,,,,,https://telecube.jp/wp/wp-content/uploads/2021/12/applausetower.jpg,,,,,
4303,梅田センタービル,ウメダセンタービル,大阪府大阪市北区中崎西2-4-12,阪急電車：大阪梅田駅	徒歩約5分,地下鉄：梅田駅・東梅田駅	徒歩約7分,※徒歩時間は施設までの時間であり、テレキューブまでの時間ではありませんのでご注意ください,,,平日土日祝 8:00-21:00,１人用：１台,大阪梅田駅・梅田駅・東梅田駅,"・24時間連続換気ファン<br />
・WiFi<br />
・スマホスタンド<br />
※このブースは、ビルにて空調管理がされているため、エアコンを設置しておりません。<br />
<br />
※WiFiについて<br />
LTE回線を利用したベストエフォートでの提供となり、時間帯によっては十分な速度が出ない可能性がございます。大事な会議や面接でご利用の際には、代替通信手段のご用意をお願いいたします。","<iframe src=""https://www.google.com/maps/embed?pb=!1m18!1m12!1m3!1d3279.96644464184!2d135.4997680152325!3d34.70602628043312!2m3!1f0!2f0!3f0!3m2!1i1024!2i768!4f13.1!3m3!1m2!1s0x6000e693f5dfebff%3A0xeb06bc15062e3f2e!2z5qKF55Sw44K744Oz44K_44O844OT44Or!5e0!3m2!1sja!2sjp!4v1639708121756!5m2!1sja!2sjp"" width=""600"" height=""450"" style=""border:0;"" allowfullscreen="""" loading=""lazy""></iframe>",https://telecube.jp/wp/wp-content/uploads/2021/12/umedacenterbuilding.jpg,https://telecube.jp/wp/wp-content/uploads/2021/12/umedacenterbuilding_1.jpg,https://telecube.jp/wp/wp-content/uploads/2021/12/iOS-の画像-2.jpg,https://telecube.jp/wp/wp-content/uploads/2021/12/umedacenterbuilding_floormap.png,平日,土曜日,日曜日,祝日,夜21時まで,,週末価格,"梅田センタービル,ウメダセンタービル,50-01,大阪梅田駅,梅田駅,東梅田駅,阪急電鉄,阪急電車,宝塚本線,大阪メトロ,御堂筋線,谷町線,大阪府,大阪市,電源(コンセント / USB),WiFi（ブース内 or 施設内）,スマホスタンド,GBP",34.7059521199112,135.501812716532,129,https://telecube.jp/location/umedacenterbuilding/,,,,,,,,,,,,,
3833,コンワビル,コンワビル,東京都中央区築地１丁目１２−２２ コンワビルB1F,東京メトロ日比谷線「東銀座駅」５出口より徒歩２分 ,都営地下鉄浅草線「東銀座駅」A７、A8出口より徒歩3分,※徒歩時間は施設までの時間であり、テレキューブまでの時間ではありませんのでご注意ください,,,平日土 8:00-21:00,１人用：１台,東銀座駅,"・24時間連続換気ファン<br />
・WiFi (現在利用出来ませんのでご注意ください)<br />
・スマホスタンド<br />
※このブースは、ビルにて空調管理がされているため、エアコンを設置しておりません。<br />
<br />
※WiFiについて<br />
LTE回線を利用したベストエフォートでの提供となり、時間帯によっては十分な速度が出ない可能性がございます。大事な会議や面接でご利用の際には、代替通信手段のご用意をお願いいたします。","<iframe src=""https://www.google.com/maps/embed?pb=!1m18!1m12!1m3!1d3241.33190944188!2d139.76772576525843!3d35.668828580197136!2m3!1f0!2f0!3f0!3m2!1i1024!2i768!4f13.1!3m3!1m2!1s0x60188bde2e5e63b3%3A0x1a1e3c0d73cc5026!2z44Kz44Oz44Ov44OT44Or!5e0!3m2!1sja!2sjp!4v1636428451097!5m2!1sja!2sjp"" width=""600"" height=""450"" style=""border:0;"" allowfullscreen="""" loading=""lazy""></iframe>",https://telecube.jp/wp/wp-content/uploads/2021/11/konwabuilding_1.jpg,https://telecube.jp/wp/wp-content/uploads/2021/11/konwabuilding.jpg,https://telecube.jp/wp/wp-content/uploads/2021/11/konwabuilding_2.jpg,https://telecube.jp/wp/wp-content/uploads/2021/11/konwabuilding_floormap.png,平日,土曜日,,,夜21時まで,,週末価格,"コンワビル,コンワビル,123-01,東銀座駅,東京メトロ,都営地下鉄,東京,中央区,電源(コンセント / USB),WiFi（ブース内 or 施設内）,スマホスタンド,GBP",35.6687902,139.769909,128,https://telecube.jp/location/konwabuilding/,,,,,,,,,,,,,
3657,セブン‐イレブン 台東駒形１丁目店,セブンイレブン タイトウコマガタイッチョウメテン,東京都台東区駒形1丁目3-16駒形プラザビル1F,大江戸線「蔵前駅」徒歩１分,浅草線「蔵前駅」徒歩3分,浅草線「浅草駅」徒歩6分,※徒歩時間は施設までの時間であり、テレキューブまでの時間ではありませんのでご注意ください,,平日土日祝 7:00-21:00,１人用：１台,蔵前駅・浅草駅,"・24時間連続換気ファン<br />
・WiFi<br />
・スマホスタンド<br />
※このブースは、ビルにて空調管理がされているため、エアコンを設置しておりません。<br />
<br />
※WiFiについて<br />
LTE回線を利用したベストエフォートでの提供となり、時間帯によっては十分な速度が出ない可能性がございます。大事な会議や面接でご利用の際には、代替通信手段のご用意をお願いいたします。","<iframe src=""https://www.google.com/maps/embed?pb=!1m18!1m12!1m3!1d3239.8288427147963!2d139.79155241525942!3d35.7058292801886!2m3!1f0!2f0!3f0!3m2!1i1024!2i768!4f13.1!3m3!1m2!1s0x60188ec8040e3389%3A0xefdd1134e056cd8!2z44K744OW44Oz44Kk44Os44OW44OzIOWPsOadsemnkuW9ou-8keS4geebruW6lw!5e0!3m2!1sja!2sjp!4v1635476976304!5m2!1sja!2sjp"" width=""600"" height=""450"" style=""border:0;"" allowfullscreen="""" loading=""lazy""></iframe>",https://telecube.jp/wp/wp-content/uploads/2021/10/711_taitoukomagataichichometen_1.jpg,https://telecube.jp/wp/wp-content/uploads/2021/10/711_taitoukomagataichichometen_4.jpg,https://telecube.jp/wp/wp-content/uploads/2021/10/711_taitoukomagataichichometen_5.jpg,https://telecube.jp/wp/wp-content/uploads/2021/10/711_taitoukomagataichichometen_floormap.png,平日,土曜日,日曜日,祝日,朝7時から,夜21時まで,週末価格,"セブン‐イレブン 台東駒形１丁目店,セブンイレブン タイトウコマガタイッチョウメテン,122-01,蔵前駅,浅草駅,都営地下鉄,大江戸線,東京,台東区,電源(コンセント / USB),WiFi（ブース内 or 施設内）,スマホスタンド,広告掲載,GBP",35.7059053,139.793688,127,https://telecube.jp/location/seven-eleven-taitoukomagataichichometen/,,,,,,,,,,,,,
3408,京阪電鉄　京橋駅,ケイハンデンテツ キョウバシエキ,大阪府大阪市都島区東野田町2-1-38,京阪電鉄　京橋駅中央改札口,※徒歩時間は施設までの時間であり、テレキューブまでの時間ではありませんのでご注意ください,,,,平日土日祝 7:00-21:00,１人用：１台,京橋駅,"・24時間連続稼働換気ファン<br />
・エアコン<br />
・WiFi<br />
・スマホスタンド<br />
<br />
※WiFiについて<br />
LTE回線を利用したベストエフォートでの提供となり、時間帯によっては十分な速度が出ない可能性がございます。大事な会議や面接でご利用の際には、代替通信手段のご用意をお願いいたします。","<iframe src=""https://www.google.com/maps/embed?pb=!1m18!1m12!1m3!1d3280.336579227814!2d135.53172341523216!3d34.69668968043551!2m3!1f0!2f0!3f0!3m2!1i1024!2i768!4f13.1!3m3!1m2!1s0x6000e0d7677aa7d9%3A0x9352a9b582580554!2z5Lqs5qmL6aeF!5e0!3m2!1sja!2sjp!4v1633654395598!5m2!1sja!2sjp"" width=""600"" height=""450"" style=""border:0;"" allowfullscreen="""" loading=""lazy""></iframe>",https://telecube.jp/wp/wp-content/uploads/2021/10/keihan_kyobashi_3.jpg,https://telecube.jp/wp/wp-content/uploads/2021/10/keihan_kyobashi.jpg,https://telecube.jp/wp/wp-content/uploads/2021/10/keihan_kyobashi_4.jpg,https://telecube.jp/wp/wp-content/uploads/2021/10/keihan_kyobashi_floormap.png,平日,土曜日,日曜日,祝日,朝7時から,夜21時まで,週末価格,"京阪電鉄　京橋駅,ケイハンデンテツ キョウバシエキ,115-01,京橋駅,京阪電鉄,大阪府,大阪市,電源(コンセント / USB),WiFi（ブース内 or 施設内）,スマホスタンド,エアコン（ブース内 or 施設内）,GBP",34.69737777,135.5327251,121,https://telecube.jp/location/keihandentetsu-kyobashi/,,,,,,,,,,,,,
3394,田端ASUKAタワー,タバタアスカタワー,東京都北区田端六丁目1-1田端ASUKAタワー1F,JR田端駅北口から徒歩2分,※徒歩時間は施設までの時間であり、テレキューブまでの時間ではありませんのでご注意ください,,,,平日土日祝 7:00-21:00,１人用：１台,田端駅,"・24時間連続換気ファン<br />
・WiFi<br />
・スマホスタンド<br />
※このブースは、ビルにて空調管理がされているため、エアコンを設置しておりません。<br />
<br />
※WiFiについて<br />
LTE回線を利用したベストエフォートでの提供となり、時間帯によっては十分な速度が出ない可能性がございます。大事な会議や面接でご利用の際には、代替通信手段のご用意をお願いいたします。","<iframe src=""https://www.google.com/maps/embed?pb=!1m18!1m12!1m3!1d3238.511359752637!2d139.7570295152603!3d35.738234180181124!2m3!1f0!2f0!3f0!3m2!1i1024!2i768!4f13.1!3m3!1m2!1s0x60188de9d8bec247%3A0x8a1929306ba5b176!2z44CSMTE0LTAwMTQg5p2x5Lqs6YO95YyX5Yy655Sw56uv77yW5LiB55uu77yR4oiS77yRIOeUsOerr--8oe-8s--8te-8q--8oeOCv-ODr-ODvA!5e0!3m2!1sja!2sjp!4v1633487441729!5m2!1sja!2sjp"" width=""600"" height=""450"" style=""border:0;"" allowfullscreen="""" loading=""lazy""></iframe>",https://telecube.jp/wp/wp-content/uploads/2021/10/tabata_asuka_tower_2.jpg,https://telecube.jp/wp/wp-content/uploads/2021/10/tabata_asuka_tower_7.jpg,https://telecube.jp/wp/wp-content/uploads/2021/10/tabata_asuka_tower_8.jpg,https://telecube.jp/wp/wp-content/uploads/2021/10/tabata_asuka_tower_floormap.png,平日,土曜日,日曜日,祝日,朝7時から,夜21時まで,週末価格,"田端ASUKAタワー,タバタアスカタワー,120-01,田端駅,JR東日本,山手線,京浜東北線,東京,北区,電源(コンセント / USB),WiFi（ブース内 or 施設内）,スマホスタンド,GBP",35.73802519,139.7596152,126,https://telecube.jp/location/tabata_asuka_tower/,,,,,,,,,,,,,
3385,五反田第一生命ビルディング,ゴタンダダイイチセイメイビルディング,東京都品川区西五反田二丁目19-3五反田第一生命ビルディング1F,JR五反田駅西口から徒歩3分,※徒歩時間は施設までの時間であり、テレキューブまでの時間ではありませんのでご注意ください,,,,平日土 8:00-19:00 / 日祝 9:00-19:00,１人用：１台,五反田駅,"・24時間連続換気ファン<br />
・WiFi<br />
・スマホスタンド<br />
※このブースは、ビルにて空調管理がされているため、エアコンを設置しておりません。<br />
<br />
※WiFiについて<br />
LTE回線を利用したベストエフォートでの提供となり、時間帯によっては十分な速度が出ない可能性がございます。大事な会議や面接でご利用の際には、代替通信手段のご用意をお願いいたします。","<iframe src=""https://www.google.com/maps/embed?pb=!1m18!1m12!1m3!1d3243.0645206190197!2d139.71994651525722!3d35.626135880207215!2m3!1f0!2f0!3f0!3m2!1i1024!2i768!4f13.1!3m3!1m2!1s0x60188afb4bff5477%3A0xfacdbac858a9893f!2z44CSMTQxLTAwMzEg5p2x5Lqs6YO95ZOB5bed5Yy66KW_5LqU5Y-N55Sw77yS5LiB55uu77yR77yZ4oiS77yTIOS6lOWPjeeUsOesrOS4gOeUn-WRveODk-ODq-ODh-OCo-ODs-OCsA!5e0!3m2!1sja!2sjp!4v1633486008688!5m2!1sja!2sjp"" width=""600"" height=""450"" style=""border:0;"" allowfullscreen="""" loading=""lazy""></iframe>",https://telecube.jp/wp/wp-content/uploads/2021/10/gotanda_daiichiseimei_building_5.jpg,https://telecube.jp/wp/wp-content/uploads/2021/10/gotanda_daiichiseimei_building_1.jpg,https://telecube.jp/wp/wp-content/uploads/2021/10/gotanda_daiichiseimei_building.jpg,https://telecube.jp/wp/wp-content/uploads/2021/10/gotanda_daiichiseimei_building_floormap.png,平日,土曜日,日曜日,祝日,,,週末価格,"五反田第一生命ビルディング,ゴタンダダイイチセイメイビルディング,119-01,五反田駅,JR東日本,山手線,東急電鉄,池上線,都営地下鉄,東京,品川区,電源(コンセント / USB),WiFi（ブース内 or 施設内）,スマホスタンド,ソニー生命,GBP",35.62622311,139.7222318,125,https://telecube.jp/location/gotanda_daiichiseimei_building/,,,,,,,,,,,,,
3364,【特殊価格形態】新丸の内ビル（2人用）グループ用,シンマルノウチビルディング（フタリヨウ）グループヨウ,東京都千代田区丸の内１－５－１新丸ビルB1,JR「東京駅」 丸の内地下北口より直結,※徒歩時間は施設までの時間であり、テレキューブまでの時間ではありませんのでご注意ください,,,,平日土日祝 7:00-21:00,2人用：1台,東京駅,"・24時間連続換気ファン<br />
・WiFi<br />
※このブースは、ビルにて空調管理がされているため、エアコンを設置しておりません。<br />
<br />
※WiFiについて<br />
LTE回線を利用したベストエフォートでの提供となり、時間帯によっては十分な速度が出ない可能性がございます。大事な会議や面接でご利用の際には、代替通信手段のご用意をお願いいたします。<br />
<br />
【特殊価格形態】<br />
・予約単位：30分<br />
・利用料：1,188円(税込)/30分<br />
・利用定員：2名","<iframe src=""https://www.google.com/maps/embed?pb=!1m18!1m12!1m3!1d3240.772451376797!2d139.76214691492518!3d35.682604537504695!2m3!1f0!2f0!3f0!3m2!1i1024!2i768!4f13.1!3m3!1m2!1s0x60188bf9b11e03ab%3A0x94bd79343edb8416!2z5paw5Li444Gu5YaF44OT44Or44OH44Kj44Oz44Kw77yI5paw5Li444OT44Or77yJ!5e0!3m2!1sja!2sjp!4v1561544377636!5m2!1sja!2sjp"" width=""600"" height=""450"" frameborder=""0"" style=""border:0"" allowfullscreen></iframe>",https://telecube.jp/wp/wp-content/uploads/2021/09/shinmarunouchibuilding_for2.jpg,https://telecube.jp/wp/wp-content/uploads/2021/09/shinmarunouchibuilding_for2_2.jpg,https://telecube.jp/wp/wp-content/uploads/2021/09/shinmarunouchibuilding_for2_3.jpg,https://telecube.jp/wp/wp-content/uploads/2021/09/shinmarunouchibuilding_for2_floormap.png,平日,土曜日,日曜日,祝日,朝7時から,夜21時まで,,"新丸の内ビルディング（2人用）グループ用,シンマルノウチビルディング（フタリヨウ）グループヨウ,121-01,新丸ビル,シンマルビル,東京駅,JR東日本,山手線,京浜東北線,中央線,東海道線,横須賀線,総武線,京葉線,東京メトロ,東京,千代田区,電源(コンセント / USB),WiFi（ブース内 or 施設内）,ミロ",35.6826212,139.7642435,123,https://telecube.jp/location/shinmarunouchibuilding_for2/,https://telecube.jp/wp/wp-content/uploads/2021/09/shinmarunouchibuilding_for2_1.jpg,,,,,,,,,,,,
3357,セブン‐イレブン 立川南駅前店,セブンイレブン タチカワミナミエキマエテン,東京都立川市柴崎町3丁目6-23LXビル1F,JR立川駅南口から徒歩3分,多摩モノレール立川南駅から徒歩1分,※徒歩時間は施設までの時間であり、テレキューブまでの時間ではありませんのでご注意ください,,,平日土日祝 7:00-21:00,１人用：１台,立川駅・立川南駅,"・24時間連続換気ファン<br />
・WiFi<br />
・スマホスタンド<br />
※このブースは、ビルにて空調管理がされているため、エアコンを設置しておりません。<br />
<br />
※WiFiについて<br />
LTE回線を利用したベストエフォートでの提供となり、時間帯によっては十分な速度が出ない可能性がございます。大事な会議や面接でご利用の際には、代替通信手段のご用意をお願いいたします。","<iframe src=""https://www.google.com/maps/embed?pb=!1m18!1m12!1m3!1d3240.238566793569!2d139.41045855064874!3d35.6957464800937!2m3!1f0!2f0!3f0!3m2!1i1024!2i768!4f13.1!3m3!1m2!1s0x6018e1387355859b%3A0x7251b5133d2b4eac!2z44K744OW44Oz44Kk44Os44OW44OzIOeri-W3neWNl-mnheWJjeW6lw!5e0!3m2!1sja!2sjp!4v1632891107960!5m2!1sja!2sjp"" width=""600"" height=""450"" style=""border:0;"" allowfullscreen="""" loading=""lazy""></iframe>",https://telecube.jp/wp/wp-content/uploads/2021/09/711_tachikawaminamiekimaeten_12.jpg,https://telecube.jp/wp/wp-content/uploads/2021/09/711_tachikawaminamiekimaeten_4.jpg,https://telecube.jp/wp/wp-content/uploads/2021/09/711_tachikawaminamiekimaeten_7.jpg,https://telecube.jp/wp/wp-content/uploads/2021/09/711_tachikawaminamiekimaeten_floormap.png,平日,土曜日,日曜日,祝日,朝7時から,夜21時まで,週末価格,"セブン‐イレブン 立川南駅前店,セブンイレブン タチカワミナミエキマエテン,118-01,立川駅,立川南駅,JR東日本,中央線,青梅線,南武線,多摩都市モノレール,東京,立川市,電源(コンセント / USB),WiFi（ブース内 or 施設内）,スマホスタンド,広告掲載,GBP",35.69572343,139.4127119,124,https://telecube.jp/location/seven-eleven-tachikawaminamiekimaeten/,https://telecube.jp/wp/wp-content/uploads/2021/09/711_tachikawaminamiekimaeten_8.jpg,,,,,,,,,,,,
3307,中野セントラルパークイースト,ナカノセントラルパークイースト,東京都中野区中野４丁目１０番１号中野セントラルパークイースト1F,JR中央線・東京メトロ東西線「中野駅」から徒歩5分,※徒歩時間は施設までの時間であり、テレキューブまでの時間ではありませんのでご注意ください,,,,平日土日祝 8:00-20:00,１人用：１台,中野駅,"・24時間連続換気ファン<br />
・WiFi<br />
・スマホスタンド<br />
※このブースは、ビルにて空調管理がされているため、エアコンを設置しておりません。<br />
<br />
※WiFiについて<br />
LTE回線を利用したベストエフォートでの提供となり、時間帯によっては十分な速度が出ない可能性がございます。大事な会議や面接でご利用の際には、代替通信手段のご用意をお願いいたします。","<iframe src=""https://www.google.com/maps/embed?pb=!1m18!1m12!1m3!1d3239.7497739421256!2d139.66071781525966!3d35.70777478018802!2m3!1f0!2f0!3f0!3m2!1i1024!2i768!4f13.1!3m3!1m2!1s0x6018f2906052b507%3A0x98fa25d263fe803a!2z44CSMTY0LTAwMDEg5p2x5Lqs6YO95Lit6YeO5Yy65Lit6YeO77yU5LiB55uu77yR77yQ4oiS77yRIOS4remHjuOCu-ODs-ODiOODqeODq-ODkeODvOOCr-OCpOODvOOCueODiA!5e0!3m2!1sja!2sjp!4v1630898377454!5m2!1sja!2sjp"" width=""600"" height=""450"" style=""border:0;"" allowfullscreen="""" loading=""lazy""></iframe>",https://telecube.jp/wp/wp-content/uploads/2021/09/nakanocentralpark-eats_9.jpg,https://telecube.jp/wp/wp-content/uploads/2021/09/nakanocentralpark-east_1.jpg,https://telecube.jp/wp/wp-content/uploads/2021/09/nakanocentralpark-eats_12.jpg,https://telecube.jp/wp/wp-content/uploads/2021/09/nakanocentralpark-east_floormap.png,平日,土曜日,日曜日,祝日,,,週末価格,"中野セントラルパークイースト,ナカノセントラルパークイースト,117-01,NAKANO CENTRAL PARK EAST,中野駅,JR東日本,中央線,総武線,東京メトロ,東西線,東京,中野区,電源(コンセント / USB),WiFi（ブース内 or 施設内）,スマホスタンド,GBP",35.7074786,139.6630621,122,https://telecube.jp/location/nakanocentralpark-east/,,,,,,,,,,,,,
3298,セブン‐イレブン 東武曳舟駅前店,セブンイレブン トウブヒキフネエキマエテン,東京都墨田区東向島2-16-14ナンカイビル1階,東武線曳舟駅西口から徒歩1分,※徒歩時間は施設までの時間であり、テレキューブまでの時間ではありませんのでご注意ください,,,,平日土日祝 7:00-21:00,１人用：１台,曳舟駅,"・24時間連続換気ファン<br />
・WiFi<br />
・スマホスタンド<br />
※このブースは、ビルにて空調管理がされているため、エアコンを設置しておりません。<br />
<br />
※WiFiについて<br />
LTE回線を利用したベストエフォートでの提供となり、時間帯によっては十分な速度が出ない可能性がございます。大事な会議や面接でご利用の際には、代替通信手段のご用意をお願いいたします。","<iframe src=""https://www.google.com/maps/embed?pb=!1m18!1m12!1m3!1d3239.3229575528153!2d139.81414671525985!3d35.71827508018568!2m3!1f0!2f0!3f0!3m2!1i1024!2i768!4f13.1!3m3!1m2!1s0x60188f271c554a0b%3A0x887d7dbcbe1bfcf8!2z44K744OW44OzLeOCpOODrOODluODsyDmnbHmrabmm7PoiJ_pp4XliY3lupc!5e0!3m2!1sja!2sjp!4v1630639522816!5m2!1sja!2sjp"" width=""600"" height=""450"" style=""border:0;"" allowfullscreen="""" loading=""lazy""></iframe>",https://telecube.jp/wp/wp-content/uploads/2021/09/tobu_hikifuneekimaeten.jpg,https://telecube.jp/wp/wp-content/uploads/2021/09/tobu_hikifuneekimaeten_2.jpg,https://telecube.jp/wp/wp-content/uploads/2021/09/tobu_hikifuneekimaeten_3.jpg,https://telecube.jp/wp/wp-content/uploads/2021/09/tobu_hikifuneekimaeten_floormap.png,平日,土曜日,日曜日,祝日,朝7時から,夜21時まで,週末価格,"セブン‐イレブン 東武曳舟駅前店,セブンイレブン トウブヒキフネエキマエテン,116-01,曳舟駅,東武鉄道,伊勢崎線,東武スカイツリーライン,亀戸線,東京,墨田区,電源(コンセント / USB),WiFi（ブース内 or 施設内）,スマホスタンド,広告掲載,GBP",35.71829198,139.8162915,120,https://telecube.jp/location/seven-eleven-tobuhikifuneekimaeten/,,,,,,,,,,,,,
3241,京阪電鉄　淀屋橋駅,ケイハンデンテツ ヨドヤバシエキ,大阪府大阪市中央区北浜3丁目1番25号,京阪電鉄 淀屋橋駅 中央改札口 改札外（入口専用改札）,※徒歩時間は施設までの時間であり、テレキューブまでの時間ではありませんのでご注意ください,,,,平日土日祝 7:00-21:00,１人用：２台,淀屋橋駅,"・24時間連続稼働換気ファン<br />
・エアコン<br />
・WiFi<br />
・スマホスタンド<br />
<br />
※WiFiについて<br />
LTE回線を利用したベストエフォートでの提供となり、時間帯によっては十分な速度が出ない可能性がございます。大事な会議や面接でご利用の際には、代替通信手段のご用意をお願いいたします。","<iframe src=""https://www.google.com/maps/embed?pb=!1m18!1m12!1m3!1d3280.512101650326!2d135.49886431523208!3d34.692261380436705!2m3!1f0!2f0!3f0!3m2!1i1024!2i768!4f13.1!3m3!1m2!1s0x6000e6e66c48ad31%3A0x8d7cc7b1e83b0c46!2z5reA5bGL5qmL6aeF!5e0!3m2!1sja!2sjp!4v1630307481176!5m2!1sja!2sjp"" width=""600"" height=""450"" style=""border:0;"" allowfullscreen="""" loading=""lazy""></iframe>",https://telecube.jp/wp/wp-content/uploads/2021/08/keihan_yodoyabashi_6.jpg,https://telecube.jp/wp/wp-content/uploads/2021/08/keihan_yodoyabashi_3.jpg,https://telecube.jp/wp/wp-content/uploads/2021/08/keihan_yodoyabashi_4.jpg,https://telecube.jp/wp/wp-content/uploads/2021/08/keihan_yodoyabashi_floormap.png,平日,土曜日,日曜日,祝日,朝7時から,夜21時まで,週末価格,"京阪電鉄 淀屋橋駅,ケイハンデンテツ ヨドヤバシエキ,114-01,114-02,淀屋橋駅,京阪電鉄,大阪メトロ,御堂筋線,大阪府,大阪市,電源(コンセント / USB),WiFi（ブース内 or 施設内）,スマホスタンド,エアコン（ブース内 or 施設内）,GBP",34.69233939,135.5021176,119,https://telecube.jp/location/keihandentetsu-yodoyabashi/,,,,,,,,,,,,,
3063,セブン‐イレブン ハイアットリージェンシー東京店,セブンイレブン ハイアットリージェンシートウキョウテン,東京都新宿区西新宿2-7-2,都営大江戸線「都庁前駅」(A7出口)から徒歩3分,※徒歩時間は施設までの時間であり、テレキューブまでの時間ではありませんのでご注意ください,,,,平日土日祝 7:00-21:00,１人用：１台,都庁前駅,"・24時間連続換気ファン<br />
・WiFi（LTE回線を利用したベストエフォートでの提供となります）<br />
・スマホスタンド<br />
※このブースは、ビルにて空調管理がされているため、エアコンを設置しておりません。<br />
<br />
※WiFiについて<br />
LTE回線を利用したベストエフォートでの提供となり、時間帯によっては十分な速度が出ない可能性がございます。大事な会議や面接でご利用の際には、代替通信手段のご用意をお願いいたします。","<iframe src=""https://www.google.com/maps/embed?pb=!1m18!1m12!1m3!1d3240.4400192380353!2d139.68947131525897!3d35.6907880801921!2m3!1f0!2f0!3f0!3m2!1i1024!2i768!4f13.1!3m3!1m2!1s0x6018f32acd6c090f%3A0x4471bc4422af9138!2z44K744OW44OzLeOCpOODrOODluODsyDjg4_jgqTjgqLjg4Pjg4jjg6rjg7zjgrjjgqfjg7Pjgrfjg7zmnbHkuqzlupc!5e0!3m2!1sja!2sjp!4v1626667091083!5m2!1sja!2sjp"" width=""600"" height=""450"" style=""border:0;"" allowfullscreen="""" loading=""lazy""></iframe>",https://telecube.jp/wp/wp-content/uploads/2021/07/S__3883038_.jpg,https://telecube.jp/wp/wp-content/uploads/2021/07/S__3883040_.jpg,,https://telecube.jp/wp/wp-content/uploads/2021/07/download-7.png,平日,土曜日,日曜日,祝日,朝7時から,夜21時まで,週末価格,"セブン‐イレブン ハイアットリージェンシー東京店,セブンイレブン ハイアットリージェンシートウキョウテン,113-01,都庁前駅,都営地下鉄,大江戸線,東京,新宿区,電源(コンセント / USB),WiFi（ブース内 or 施設内）,スマホスタンド,広告掲載,ソニー生命,GBP",35.6909101,139.6912738,118,https://telecube.jp/location/seven-eleven-hyattregencytokyo/,,,,,,,,,,,,,
3040,名古屋鉄道　名鉄岐阜駅,ナゴヤテツドウ メイテツギフエキ,岐阜県岐阜市神田町九丁目１番地　2F,名古屋鉄道「名鉄岐阜駅」中央改札外　コインロッカー横,※徒歩時間は施設までの時間であり、テレキューブまでの時間ではありませんのでご注意ください,,,,平日土日祝 7:00-21:00,１人用：１台,名鉄岐阜駅,"・24時間連続稼働換気ファン<br />
・エアコン<br />
・WiFi<br />
・スマホスタンド<br />
<br />
※WiFiについて<br />
LTE回線を利用したベストエフォートでの提供となり、時間帯によっては十分な速度が出ない可能性がございます。大事な会議や面接でご利用の際には、代替通信手段のご用意をお願いいたします。","<iframe src=""https://www.google.com/maps/embed?pb=!1m18!1m12!1m3!1d3251.7888037851812!2d136.7559227152513!3d35.410485130258216!2m3!1f0!2f0!3f0!3m2!1i1024!2i768!4f13.1!3m3!1m2!1s0x6003a93856443a7b%3A0x86539dc698d4cc43!2z5ZCN6YmE5bKQ6Zic6aeF!5e0!3m2!1sja!2sjp!4v1625734515735!5m2!1sja!2sjp"" width=""600"" height=""450"" style=""border:0;"" allowfullscreen="""" loading=""lazy""></iframe>",https://telecube.jp/wp/wp-content/uploads/2021/07/iOS-の画像-1_-3.jpg,https://telecube.jp/wp/wp-content/uploads/2021/07/iOS-の画像_-1.jpg,https://telecube.jp/wp/wp-content/uploads/2021/07/iOS-の画像-2_-1.jpg,https://telecube.jp/wp/wp-content/uploads/2021/07/download-6.png,平日,土曜日,日曜日,祝日,朝7時から,夜21時まで,週末価格,"名古屋鉄道 名鉄岐阜駅,ナゴヤテツドウ メイテツギフエキ,110-01,名鉄 名鉄岐阜駅,メイテツ メイテツギフエキ,名鉄岐阜駅,岐阜駅,名古屋鉄道,名鉄,名古屋本線,各務原線,JR東海,東海道本線,高山本線,岐阜県,岐阜市,電源(コンセント / USB),WiFi（ブース内 or 施設内）,スマホスタンド,エアコン（ブース内 or 施設内）,GBP",35.41170496,136.7596487,117,https://telecube.jp/location/meitetsu-meitetsugifu/,,,,,,,,,,,,,
3030,名古屋鉄道　大曽根駅,ナゴヤテツドウ オオゾネエキ,愛知県名古屋市東区矢田南５丁目２－６,名古屋鉄道「大曽根駅」改札外　ミュープラット側,※徒歩時間は施設までの時間であり、テレキューブまでの時間ではありませんのでご注意ください,,,,平日土日祝 7:00-21:00,１人用：１台,大曽根駅,"・24時間連続稼働換気ファン<br />
・エアコン<br />
・WiFi<br />
・スマホスタンド<br />
<br />
※WiFiについて<br />
LTE回線を利用したベストエフォートでの提供となり、時間帯によっては十分な速度が出ない可能性がございます。大事な会議や面接でご利用の際には、代替通信手段のご用意をお願いいたします。","<iframe src=""https://www.google.com/maps/embed?pb=!1m18!1m12!1m3!1d3260.6048268677678!2d136.93499241524546!3d35.1914006803114!2m3!1f0!2f0!3f0!3m2!1i1024!2i768!4f13.1!3m3!1m2!1s0x60037101554947d5%3A0x82282c950c7a7069!2z5aSn5pu95qC56aeF!5e0!3m2!1sja!2sjp!4v1625617278197!5m2!1sja!2sjp"" width=""600"" height=""450"" style=""border:0;"" allowfullscreen="""" loading=""lazy""></iframe>",https://telecube.jp/wp/wp-content/uploads/2021/07/iOS-の画像-2_.jpg,https://telecube.jp/wp/wp-content/uploads/2021/07/iOS-の画像-1_-2.jpg,https://telecube.jp/wp/wp-content/uploads/2021/07/iOS-の画像_.jpg,https://telecube.jp/wp/wp-content/uploads/2021/07/download-5.png,平日,土曜日,日曜日,祝日,朝7時から,夜21時まで,週末価格,"名古屋鉄道 大曽根駅,ナゴヤテツドウ オオゾネエキ,109-01,名鉄 大曽根駅,メイテツ オオゾネエキ,大曽根駅,名古屋鉄道,名鉄,瀬戸線,JR東海,中央本線,名古屋市営地下鉄,名城線,名港線,愛知県,名古屋市,電源(コンセント / USB),WiFi（ブース内 or 施設内）,スマホスタンド,エアコン（ブース内 or 施設内）,GBP",35.1916289,136.9368616,116,https://telecube.jp/location/meitetsu-oozone/,,,,,,,,,,,,,
3017,名古屋鉄道　金山駅,ナゴヤテツドウ カナヤマエキ,愛知県名古屋市熱田区金山町一丁目１番１８号　2F,名古屋鉄道「金山駅」改札内,改札内のため、ご利用には乗車券または入場券の購入が必要となります。,,,,平日土日祝 7:00-21:00,１人用：１台,金山駅,"・24時間連続稼働換気ファン<br />
・エアコン<br />
・WiFi<br />
・スマホスタンド<br />
<br />
※WiFiについて<br />
LTE回線を利用したベストエフォートでの提供となり、時間帯によっては十分な速度が出ない可能性がございます。大事な会議や面接でご利用の際には、代替通信手段のご用意をお願いいたします。","<iframe src=""https://www.google.com/maps/embed?pb=!1m18!1m12!1m3!1d3262.5490265842127!2d136.8990148152441!3d35.14292598032328!2m3!1f0!2f0!3f0!3m2!1i1024!2i768!4f13.1!3m3!1m2!1s0x600377528d49f49b%3A0x2ee1ef7c402cda8!2z6YeR5bGx6aeF!5e0!3m2!1sja!2sjp!4v1625479315759!5m2!1sja!2sjp"" width=""600"" height=""450"" style=""border:0;"" allowfullscreen="""" loading=""lazy""></iframe>",https://telecube.jp/wp/wp-content/uploads/2021/07/iOS-の画像-1_-1.jpg,https://telecube.jp/wp/wp-content/uploads/2021/07/iOS-の画像-3_.jpg,https://telecube.jp/wp/wp-content/uploads/2021/07/iOS-の画像-4_.jpg,https://telecube.jp/wp/wp-content/uploads/2021/07/download-4.png,平日,土曜日,日曜日,祝日,朝7時から,夜21時まで,週末価格,"名古屋鉄道 金山駅,ナゴヤテツドウ カナヤマエキ,108-01,名鉄 金山駅,メイテツ カナヤマエキ,金山駅,名古屋鉄道,名鉄,名古屋本線,JR東海,中央本線,東海道本線,名古屋市営地下鉄,名城線,名港線,愛知県,名古屋市,電源(コンセント / USB),WiFi（ブース内 or 施設内）,スマホスタンド,エアコン（ブース内 or 施設内）,ソニー生命,GBP",35.142635,136.9011701,115,https://telecube.jp/location/meitetsu-kanayama/,,,,,,,,,,,,,
3007,セブン‐イレブン 川崎中原区役所前店,セブンイレブン カワサキナカハラクヤクショマエテン,神奈川県川崎市中原区小杉町3-247-1,JR・東急電鉄「武蔵小杉駅」徒歩約6分,※徒歩時間は施設までの時間であり、テレキューブまでの時間ではありませんのでご注意ください,,,,平日土日祝 7:00-21:00,１人用：１台,武蔵小杉駅,"・24時間連続換気ファン<br />
・WiFi<br />
・スマホスタンド<br />
※このブースは、ビルにて空調管理がされているため、エアコンを設置しておりません。<br />
<br />
※WiFiについて<br />
LTE回線を利用したベストエフォートでの提供となり、時間帯によっては十分な速度が出ない可能性がございます。大事な会議や面接でご利用の際には、代替通信手段のご用意をお願いいたします。","<iframe src=""https://www.google.com/maps/embed?pb=!1m18!1m12!1m3!1d3245.1166564504847!2d139.65374191525592!3d35.575512380219!2m3!1f0!2f0!3f0!3m2!1i1024!2i768!4f13.1!3m3!1m2!1s0x6018f57a2e64b697%3A0x3a54b1d9af576fdf!2z44K744OW44OzLeOCpOODrOODluODsyDlt53ltI7kuK3ljp_ljLrlvbnmiYDliY3lupc!5e0!3m2!1sja!2sjp!4v1625124417115!5m2!1sja!2sjp"" width=""600"" height=""450"" style=""border:0;"" allowfullscreen="""" loading=""lazy""></iframe>",https://telecube.jp/wp/wp-content/uploads/2021/07/SE川崎中原区役所前店_210701_6_.jpg,https://telecube.jp/wp/wp-content/uploads/2021/07/SE川崎中原区役所前店_2107050_.jpg,,https://telecube.jp/wp/wp-content/uploads/2021/07/download-3.png,平日,土曜日,日曜日,祝日,朝7時から,夜21時まで,週末価格,"セブン‐イレブン 川崎中原区役所前店,セブンイレブン カワサキナカハラクヤクショマエテン,112-01,武蔵小杉駅,JR東日本,横須賀線,総武線,南武線,埼京線,相模鉄道,相鉄線,東急東横線,東急電鉄,神奈川県,川崎市,電源(コンセント / USB),WiFi（ブース内 or 施設内）,スマホスタンド,広告掲載,GBP",35.5754913,139.6559197,112,https://telecube.jp/location/seven-eleven-kawasakinakaharakuyakusyomae/,,,,,,,,,,,,,
2996,名鉄バスターミナルビル,メイテツバスターミナルビル,愛知県名古屋市中村区名駅１丁目２−４  １F,名古屋鉄道「名鉄名古屋駅」南改札口から徒歩2分,近畿日本鉄道「近鉄名古屋駅」正面改札口から徒歩2分,JR東海「名古屋駅」広小路口から徒歩4分,※徒歩時間は施設までの時間であり、テレキューブまでの時間ではありませんのでご注意ください,,平日土日祝 7:00-21:00,１人用：２台,名鉄名古屋駅・近鉄名古屋駅・名古屋駅,"・24時間連続稼働換気ファン<br />
・エアコン<br />
・WiFi<br />
・スマホスタンド<br />
<br />
※WiFiについて<br />
LTE回線を利用したベストエフォートでの提供となり、時間帯によっては十分な速度が出ない可能性がございます。大事な会議や面接でご利用の際には、代替通信手段のご用意をお願いいたします。","<iframe src=""https://www.google.com/maps/embed?pb=!1m16!1m12!1m3!1d3261.522845884978!2d136.88198191524472!3d35.16851898031688!2m3!1f0!2f0!3f0!3m2!1i1024!2i768!4f13.1!2m1!1z5ZCN6YmE44OQ44K544K_44O844Of44OK44Or44OT44Or!5e0!3m2!1sja!2sjp!4v1625118063453!5m2!1sja!2sjp"" width=""600"" height=""450"" style=""border:0;"" allowfullscreen="""" loading=""lazy""></iframe>",https://telecube.jp/wp/wp-content/uploads/2021/07/meitetsu_bus-terminal_bld_1.jpg,https://telecube.jp/wp/wp-content/uploads/2021/07/iOS-の画像-1_.jpg,https://telecube.jp/wp/wp-content/uploads/2021/07/iOS-の画像2_.jpg,https://telecube.jp/wp/wp-content/uploads/2021/07/202211_名鉄バスターミナルビル.png,平日,土曜日,日曜日,祝日,朝7時から,夜21時まで,週末価格,"名鉄バスターミナルビル,メイテツバスターミナルビル,107-01,107-02,名鉄バスセンター,メイテツバスセンター,名古屋駅,近鉄名古屋駅,名鉄名古屋駅,JR東海,東海道本線,中央本線,関西本線,名古屋臨海高速鉄道,あおなみ線,名古屋市営地下鉄,東山線,桜通線,近畿日本鉄道,近鉄,名古屋線,名古屋鉄道,名鉄,名古屋本線,愛知県,名古屋市,電源(コンセント / USB),WiFi（ブース内 or 施設内）,スマホスタンド,エアコン（ブース内 or 施設内）,ソニー生命,GBP",35.1686578,136.8844091,114,https://telecube.jp/location/meitetsu-bussterminal/,,,,,,,,,,,,,
2990,みなと銀行姫路中央支店,ミナトギンコウ ヒメジチュウオウシテン,兵庫県姫路市南駅前町100 パラシオ第2ビル 1F,JR姫路駅南口　徒歩１分,※徒歩時間は施設までの時間であり、テレキューブまでの時間ではありませんのでご注意ください,,,,平日土日祝 8:00-20:00,１人用：１台,姫路駅,"・24時間連続換気ファン<br />
・WiFi<br />
・スマホスタンド<br />
※このブースは、ビルにて空調管理がされているため、エアコンを設置しておりません。<br />
<br />
※WiFiについて<br />
LTE回線を利用したベストエフォートでの提供となり、時間帯によっては十分な速度が出ない可能性がございます。大事な会議や面接でご利用の際には、代替通信手段のご用意をお願いいたします。","<iframe src=""https://www.google.com/maps/embed?pb=!1m18!1m12!1m3!1d3275.2159737644274!2d134.68746031523563!3d34.82566198040258!2m3!1f0!2f0!3f0!3m2!1i1024!2i768!4f13.1!3m3!1m2!1s0x3554e06d16573c0b%3A0x622c09281b8cc23b!2z44G_44Gq44Go6YqA6KGMIOWnq-i3r-S4reWkruaUr-W6lw!5e0!3m2!1sja!2sjp!4v1625115867871!5m2!1sja!2sjp"" width=""600"" height=""450"" style=""border:0;"" allowfullscreen="""" loading=""lazy""></iframe>",https://telecube.jp/wp/wp-content/uploads/2021/07/minato_bank_1f_2.jpg,https://telecube.jp/wp/wp-content/uploads/2021/07/minato_bank_1f_5.jpg,https://telecube.jp/wp/wp-content/uploads/2021/07/minato_bank_1f_4.jpg,https://telecube.jp/wp/wp-content/uploads/2021/07/download-1.png,平日,土曜日,日曜日,祝日,,,週末価格,"みなと銀行 姫路中央支店,ミナトギンコウ ヒメジチュウオウシテン,38-01,姫路駅,JR西日本,兵庫県,姫路市,電源(コンセント / USB),WiFi（ブース内 or 施設内）,スマホスタンド,ソニー生命,GBP",34.82565101,134.689648,113,https://telecube.jp/location/minatobank-himejichuo/,,,,,,,,,,,,,
2983,セブン‐イレブン ミューザ川崎フロアツー店,セブンイレブン ミューザカワサキフロアツーテン,神奈川県川崎市幸区大宮町1310番地 ミューザ川崎2F,JR川崎駅西口から徒歩3分,※徒歩時間は施設までの時間であり、テレキューブまでの時間ではありませんのでご注意ください,,,,平日土日祝 8:00-21:00,１人用：１台,川崎駅,"・24時間連続換気ファン<br />
・WiFi<br />
・スマホスタンド<br />
※このブースは、ビルにて空調管理がされているため、エアコンを設置しておりません。<br />
<br />
※WiFiについて<br />
LTE回線を利用したベストエフォートでの提供となり、時間帯によっては十分な速度が出ない可能性がございます。大事な会議や面接でご利用の際には、代替通信手段のご用意をお願いいたします。","<iframe src=""https://www.google.com/maps/embed?pb=!1m18!1m12!1m3!1d3246.9224565982913!2d139.6926648152546!3d35.53091388022959!2m3!1f0!2f0!3f0!3m2!1i1024!2i768!4f13.1!3m3!1m2!1s0x601861c9a3844c67%3A0xe4d5c8ec67c1851a!2z44K744OW44OzLeOCpOODrOODluODsyDjg5_jg6Xjg7zjgrblt53ltI7jg5Xjg63jgqLjg4Tjg7zlupc!5e0!3m2!1sja!2sjp!4v1625112459816!5m2!1sja!2sjp"" width=""600"" height=""450"" style=""border:0;"" allowfullscreen="""" loading=""lazy""></iframe>",https://telecube.jp/wp/wp-content/uploads/2021/07/iOS-の画像-1.jpg,https://telecube.jp/wp/wp-content/uploads/2021/07/iOS-の画像-5.jpg,,https://telecube.jp/wp/wp-content/uploads/2021/07/download.png,平日,土曜日,日曜日,祝日,夜21時まで,,週末価格,"セブン‐イレブン ミューザ川崎フロアツー店,セブンイレブン ミューザカワサキフロアツーテン,111-01,川崎駅,京急川崎駅,JR東日本,東海道線,京浜東北線,南武線,京浜急行電鉄,京急電鉄,本線,大師線,神奈川県,川崎市,電源(コンセント / USB),WiFi（ブース内 or 施設内）,スマホスタンド,広告掲載,GBP",35.53137062,139.6948936,111,https://telecube.jp/location/seven-eleven-muzakawasakifloor2/,,,,,,,,,,,,,
2956,セブン‐イレブン けやき広場前店,セブンイレブン ケヤキヒロバマエテン,埼玉県さいたま市中央区新都心9,JR京浜東北線・高崎線・宇都宮線「さいたま新都心駅」から徒歩4分,JR埼京線「北与野駅」から徒歩5分,※徒歩時間は施設までの時間であり、テレキューブまでの時間ではありませんのでご注意ください,,,平日土日祝 7:00-21:00,１人用：１台,さいたま新都心駅・北与野駅,"・24時間連続換気ファン<br />
・WiFi<br />
・スマホスタンド<br />
※このブースは、ビルにて空調管理がされているため、エアコンを設置しておりません。<br />
<br />
※WiFiについて<br />
LTE回線を利用したベストエフォートでの提供となり、時間帯によっては十分な速度が出ない可能性がございます。大事な会議や面接でご利用の際には、代替通信手段のご用意をお願いいたします。","<iframe src=""https://www.google.com/maps/embed?pb=!1m18!1m12!1m3!1d3232.2115000191816!2d139.62845241526463!3d35.8928353801454!2m3!1f0!2f0!3f0!3m2!1i1024!2i768!4f13.1!3m3!1m2!1s0x6018c118706e7a6f%3A0x4c067de3f351e0be!2z44K744OW44OzLeOCpOODrOODluODsyDjgZHjgoTjgY3luoPloLTliY3lupc!5e0!3m2!1sja!2sjp!4v1624938968494!5m2!1sja!2sjp"" width=""600"" height=""450"" style=""border:0;"" allowfullscreen="""" loading=""lazy""></iframe>",https://telecube.jp/wp/wp-content/uploads/2021/06/IMG_0897_1.jpg,https://telecube.jp/wp/wp-content/uploads/2021/06/SEけやき広場前店_210629_9.jpg,https://telecube.jp/wp/wp-content/uploads/2021/06/SEけやき広場前店_210629_10.jpg,https://telecube.jp/wp/wp-content/uploads/2021/06/ダウンロード.png,平日,土曜日,日曜日,祝日,朝7時から,夜21時まで,週末価格,"セブン‐イレブン けやき広場前店,セブンイレブン ケヤキヒロバマエテン,106-01,さいたま新都心駅,北与野駅,JR東日本,宇都宮線,京浜東北線,高崎線,埼京線,埼玉県,さいたま市,電源(コンセント / USB),WiFi（ブース内 or 施設内）,スマホスタンド,広告掲載,GBP",35.8929958,139.6304655,110,https://telecube.jp/location/seven-eleven-keyakihirobamae/,,,,,,,,,,,,,
2776,アリオ葛西　1階,アリオカサイ,東京都江戸川区東葛西9-3-3,東京メトロ東西線「葛西駅」よりバスで約 8 分,※葛西駅より9番乗り場、葛西21系統「葛西臨海公園駅前行き」「コーシャハイム南葛西行き」で「東葛西九丁目」下車,※徒歩時間は施設までの時間であり、テレキューブまでの時間ではありませんのでご注意ください,,,平日土日祝 10:00-21:00,1人用：1台,葛西駅・東葛西九丁目,"・24時間連続換気ファン<br />
・WiFi<br />
・スマホスタンド<br />
※このブースは、ビルにて空調管理がされているため、エアコンを設置しておりません。<br />
<br />
※WiFiについて<br />
LTE回線を利用したベストエフォートでの提供となり、時間帯によっては十分な速度が出ない可能性がございます。大事な会議や面接でご利用の際には、代替通信手段のご用意をお願いいたします。<br />
","<iframe src=""https://www.google.com/maps/embed?pb=!1m16!1m12!1m3!1d3241.9906811252913!2d139.87970456511061!3d35.652601230200936!2m3!1f0!2f0!3f0!3m2!1i1024!2i768!4f13.1!2m1!1z44Ki44Oq44Kq6JGb6KW_!5e0!3m2!1sja!2sjp!4v1621215316624!5m2!1sja!2sjp"" width=""600"" height=""450"" style=""border:0;"" allowfullscreen="""" loading=""lazy""></iframe>",https://telecube.jp/wp/wp-content/uploads/2021/05/ario_kasai_1f_1.jpg,https://telecube.jp/wp/wp-content/uploads/2021/05/ario_kasai_1f_2.jpg,https://telecube.jp/wp/wp-content/uploads/2021/05/ario_kasai_1f_3.jpg,https://telecube.jp/wp/wp-content/uploads/2021/05/ario_kasai_1f.png,平日,土曜日,日曜日,祝日,夜21時まで,,週末価格,"アリオ葛西,アリオカサイ,103-01,葛西駅,東京メトロ,東西線,東京,江戸川区,電源(コンセント / USB),WiFi（ブース内 or 施設内）,スマホスタンド,GBP",35.65304142,139.881364,108,https://telecube.jp/location/ario_kasai_1f/,https://telecube.jp/wp/wp-content/uploads/2021/05/ario_kasai_1f_4.jpg,,,,,,,,,,,,
2756,JR西日本　大阪駅改札外,ジェイアールニシニホン オオサカエキ,大阪府大阪市北区梅田３丁目１−１,JR西日本「大阪駅」連絡橋口改札外,,,,,平日土日祝 7:00-21:00,1人用：3台,大阪駅,"・24時間連続稼働換気ファン<br />
・エアコン<br />
・WiFi<br />
・スマホスタンド<br />
<br />
※WiFiについて<br />
LTE回線を利用したベストエフォートでの提供となり、時間帯によっては十分な速度が出ない可能性がございます。大事な会議や面接でご利用の際には、代替通信手段のご用意をお願いいたします。","<iframe src=""https://www.google.com/maps/embed?pb=!1m18!1m12!1m3!1d3280.106828216202!2d135.4937619150831!3d34.702485380434034!2m3!1f0!2f0!3f0!3m2!1i1024!2i768!4f13.1!3m3!1m2!1s0x6000e68d95e3a70b%3A0x1baec822e859c84a!2z5aSn6Ziq6aeF!5e0!3m2!1sja!2sjp!4v1620778751305!5m2!1sja!2sjp"" width=""600"" height=""450"" style=""border:0;"" allowfullscreen="""" loading=""lazy""></iframe>",https://telecube.jp/wp/wp-content/uploads/2021/05/jrw_oosaka_1.jpg,https://telecube.jp/wp/wp-content/uploads/2021/05/jrw_oosaka_2.jpg,https://telecube.jp/wp/wp-content/uploads/2021/05/jrw_oosaka_3.jpg,https://telecube.jp/wp/wp-content/uploads/2021/05/jrw_oosaka.png,平日,土曜日,日曜日,祝日,朝7時から,夜21時まで,週末価格,"JR西日本 大阪駅,ジェイアールニシニホン オオサカエキ,105-01,105-02,105-03,大阪駅,JR西日本,大阪環状線,東海道本線,福知山線,宝塚線,大阪府,大阪市,電源(コンセント / USB),WiFi（ブース内 or 施設内）,スマホスタンド,エアコン（ブース内 or 施設内）,ソニー生命,GBP",34.70231473,135.4956708,107,https://telecube.jp/location/jrw_oosaka/,,,,,,,,,,,,,
2698,JR西日本　新大阪駅在来線改札内,ジェイアールニシニホン シンオオサカエキ,大阪府大阪市淀川区西中島5-16-1,JR西日本　新大阪駅在来線　改札内,改札内のため、ご利用には乗車券または入場券の購入が必要となります。,,,,平日土日祝 7:00-21:00,1人用：2台,新大阪駅,"・24時間連続換気ファン<br />
・エアコン<br />
・WiFi<br />
・スマホスタンド<br />
<br />
※WiFiについて<br />
LTE回線を利用したベストエフォートでの提供となり、時間帯によっては十分な速度が出ない可能性がございます。大事な会議や面接でご利用の際には、代替通信手段のご用意をお願いいたします。","<iframe src=""https://www.google.com/maps/embed?pb=!1m18!1m12!1m3!1d3278.8781454303803!2d135.49806601508405!3d34.73346578042602!2m3!1f0!2f0!3f0!3m2!1i1024!2i768!4f13.1!3m3!1m2!1s0x6000e4396c12ce49%3A0x3bd7c4e0bf1076cf!2z5paw5aSn6Ziq6aeF!5e0!3m2!1sja!2sjp!4v1619076343948!5m2!1sja!2sjp"" width=""600"" height=""450"" style=""border:0;"" allowfullscreen="""" loading=""lazy""></iframe>",https://telecube.jp/wp/wp-content/uploads/2021/04/jrw_shin_osaka-1.jpg,https://telecube.jp/wp/wp-content/uploads/2021/04/jrw_shin_osaka-2.jpg,https://telecube.jp/wp/wp-content/uploads/2021/04/jrw_shin_osaka-3.jpg,https://telecube.jp/wp/wp-content/uploads/2021/04/jrw_shinosaka_2.png,平日,土曜日,日曜日,祝日,朝7時から,夜21時まで,週末価格,"JR西日本 新大阪駅,ジェイアールニシニホン シンオオサカエキ,104-01,104-02,新大阪駅,JR西日本,東海道本線,おおさか東線,JR東海,大阪メトロ,御堂筋線,大阪府,大阪市,電源(コンセント / USB),WiFi（ブース内 or 施設内）,スマホスタンド,エアコン（ブース内 or 施設内）,GBP",34.73411266,135.5014424,106,https://telecube.jp/location/jrw_shinosaka/,,,,,,,,,,,,,
2599,太陽生命品川ビル 2階,タイヨウセイメイシナガワビル,東京都港区港南2-16-2,JR 「品川駅」 港南口より徒歩3分,※徒歩時間は施設までの時間であり、テレキューブまでの時間ではありませんのでご注意ください,,,,平日 8:00-20:00,1人用：2台,品川駅,"・24時間連続換気ファン<br />
・WiFi<br />
※このブースは、ビルにて空調管理がされているため、エアコンを設置しておりません。<br />
<br />
※WiFiについて<br />
LTE回線を利用したベストエフォートでの提供となり、時間帯によっては十分な速度が出ない可能性がございます。大事な会議や面接でご利用の際には、代替通信手段のご用意をお願いいたします。","<iframe src=""https://www.google.com/maps/embed?pb=!1m18!1m12!1m3!1d3243.0252843135836!2d139.73827201510986!3d35.62710318020698!2m3!1f0!2f0!3f0!3m2!1i1024!2i768!4f13.1!3m3!1m2!1s0x60188a5b19608ffb%3A0x408719655eba63b!2z5aSq6Zm955Sf5ZG95ZOB5bed44OT44Or!5e0!3m2!1sja!2sjp!4v1617741015622!5m2!1sja!2sjp"" width=""600"" height=""450"" style=""border:0;"" allowfullscreen="""" loading=""lazy""></iframe>",https://telecube.jp/wp/wp-content/uploads/2021/04/taiyo-seimei-shinagawa-bld-2f-1.jpg,https://telecube.jp/wp/wp-content/uploads/2021/04/taiyo-seimei-shinagawa-bld-2f-2.jpg,https://telecube.jp/wp/wp-content/uploads/2021/04/taiyo-seimei-shinagawa-bld-2f-3.jpg,https://telecube.jp/wp/wp-content/uploads/2021/04/taiyo-seimei-shinagawa-bld-2f.png,平日,,,,,,,"太陽生命品川ビル,タイヨウセイメイシナガワビル,86-01,86-02,品川駅,JR東日本,東海道線,常磐線,京浜東北線,山手線,横須賀線, 総武線,宇都宮線,高崎線,JR東海,京浜急行電鉄,京急電鉄,本線,東京,港区,電源(コンセント / USB),WiFi（ブース内 or 施設内）,ソニー生命,GBP",35.6271001,139.7406807,105,https://telecube.jp/location/taiyo-seimei-shinagawa-bld-2f/,https://telecube.jp/wp/wp-content/uploads/2021/04/taiyo-seimei-shinagawa-bld-2f-4.jpg,,,,,,,,,,,,
2583,コモレ四谷　２階,コモレヨツヤ,東京都新宿区四谷1-6-1,JR中央線・中央総武線「四ツ谷駅」四ツ谷口より徒歩2分,東京メトロ丸ノ内線・南北線「四ツ谷駅」3番出口より徒歩2分,※徒歩時間は施設までの時間であり、テレキューブまでの時間ではありませんのでご注意ください,,,平日 7:00-20:00,1人用：4台,四ツ谷駅,"・24時間連続換気ファン<br />
・WiFi<br />
・スマホスタンド<br />
※このブースは、ビルにて空調管理がされているため、エアコンを設置しておりません。<br />
<br />
※WiFiについて<br />
LTE回線を利用したベストエフォートでの提供となり、時間帯によっては十分な速度が出ない可能性がございます。大事な会議や面接でご利用の際には、代替通信手段のご用意をお願いいたします。","<iframe src=""https://www.google.com/maps/embed?pb=!1m18!1m12!1m3!1d3240.5717928341905!2d139.7267637151116!3d35.687544380192705!2m3!1f0!2f0!3f0!3m2!1i1024!2i768!4f13.1!3m3!1m2!1s0x60188dd928536705%3A0xd116a4ca1781aeb3!2z44Kz44Oi44Os5Zub6LC3!5e0!3m2!1sja!2sjp!4v1617578072164!5m2!1sja!2sjp"" width=""600"" height=""450"" style=""border:0;"" allowfullscreen="""" loading=""lazy""></iframe>",https://telecube.jp/wp/wp-content/uploads/2021/04/コモレ四谷1-1.jpg,https://telecube.jp/wp/wp-content/uploads/2021/04/コモレ四谷2.jpg,https://telecube.jp/wp/wp-content/uploads/2021/04/comore-yotsuya-2f-4.jpg,https://telecube.jp/wp/wp-content/uploads/2021/04/コモレ四谷フロア図2.png,平日,,,,朝7時から,,,"コモレ四谷,コモレヨツヤ,101-01,101-02,四ツ谷駅,JR東日本,中央線,総武線,東京メトロ,南北線,東京,新宿区,電源(コンセント / USB),WiFi（ブース内 or 施設内）,スマホスタンド,GBP",35.68724069,139.7292546,104,https://telecube.jp/location/comore-yotsuya-2f/,https://telecube.jp/wp/wp-content/uploads/2021/04/comore-yotsuya-2f-5.jpg,,,,,,,,,,,,
2565,大阪梅田ツインタワーズ・ノース (旧: 梅田阪急ビルオフィスタワー),オオサカウメダツインタワーズノース,大阪府大阪市北区角田町8-1,大阪メトロ　御堂筋線「梅田駅」11番出口・南改札より徒歩約3分,大阪メトロ　谷町線「東梅田駅」1番出口より徒歩約3分,阪神電鉄「大阪梅田駅」東口より徒歩約3分,阪急電鉄「大阪梅田駅」3階改札口より徒歩約5分,JR「大阪駅」御堂筋南口より徒歩約5分,平日土 7:00-21:00 / 日祝 7:00-15:00、16:00-21:00,1人用：2台,梅田駅・大阪梅田駅・東梅田駅・大阪駅,"・24時間連続換気ファン<br />
・WiFi<br />
・スマホスタンド<br />
※このブースは、ビルにて空調管理がされているため、エアコンを設置しておりません。<br />
<br />
※WiFiについて<br />
LTE回線を利用したベストエフォートでの提供となり、時間帯によっては十分な速度が出ない可能性がございます。大事な会議や面接でご利用の際には、代替通信手段のご用意をお願いいたします。","<iframe src=""https://www.google.com/maps/embed?pb=!1m16!1m12!1m3!1d3280.1025327256857!2d135.4967723650832!3d34.70259373043397!2m3!1f0!2f0!3f0!3m2!1i1024!2i768!4f13.1!2m1!1z5qKF55Sw6Ziq5oCl44OT44Or44Kq44OV44Kj44K544K_44Ov44O8!5e0!3m2!1sja!2sjp!4v1617298899456!5m2!1sja!2sjp"" width=""600"" height=""450"" style=""border:0;"" allowfullscreen="""" loading=""lazy""></iframe>",https://telecube.jp/wp/wp-content/uploads/2021/04/UmedaTwinNorth1.jpeg,https://telecube.jp/wp/wp-content/uploads/2021/04/UmedaTwinNorth2.jpeg,https://telecube.jp/wp/wp-content/uploads/2021/04/umeda-hankyu-bld-office-tower-15f-5.jpg,https://telecube.jp/wp/wp-content/uploads/2021/04/UmedaTwinNorthフロア図.png,平日,土曜日,日曜日,祝日,朝7時から,夜21時まで,週末価格,"大阪梅田ツインタワーズ・ノース,オオサカウメダツインタワーズノース,梅田阪急ビル オフィスタワー,ウメダハンキュウビル オフィスタワー,100-01,100-02,大阪駅,梅田駅,東梅田駅,大阪梅田駅,JR西日本,大阪環状線,宝塚線,東海道本線,福知山線,大阪メトロ,谷町線,御堂筋線,阪急電鉄,阪急電車,阪神電気鉄道,阪神電鉄,阪神電車,大阪府,大阪市,電源(コンセント / USB),WiFi（ブース内 or 施設内）,スマホスタンド,ソニー生命,GBP",34.7027918,135.4988402,101,https://telecube.jp/location/umeda-hankyu-bld-office-tower-15f/,https://telecube.jp/wp/wp-content/uploads/2021/04/UmedaTwinNorth3a.jpg,※徒歩時間は施設までの時間であり、テレキューブまでの時間ではありませんのでご注意ください,,,,,,,,,,,
2485,イトーヨーカドー船橋店　東館３・４F,イトーヨーカドー フナバシテン ヒガシカン, 千葉県船橋市本町７丁目６−１,JR東日本・東武鉄道「船橋駅」より徒歩3分,京成電鉄本線「京成船橋駅」より徒歩5分,※徒歩時間は施設までの時間であり、テレキューブまでの時間ではありませんのでご注意ください,,,平日土日祝 10:00-21:00,１人用：２台,船橋駅・京成船橋駅,"・24時間連続換気ファン<br />
・WiFi<br />
・スマホスタンド<br />
※このブースは、ビルにて空調管理がされているため、エアコンを設置しておりません。<br />
<br />
※WiFiについて<br />
LTE回線を利用したベストエフォートでの提供となり、時間帯によっては十分な速度が出ない可能性がございます。大事な会議や面接でご利用の際には、代替通信手段のご用意をお願いいたします。<br />
","<iframe src=""https://www.google.com/maps/embed?pb=!1m18!1m12!1m3!1d3239.9348511904427!2d139.9826185151121!3d35.703220780189206!2m3!1f0!2f0!3f0!3m2!1i1024!2i768!4f13.1!3m3!1m2!1s0x601880790d521dd5%3A0x774c0cf1463de528!2z44Kk44OI44O844Oo44O844Kr44OJ44O8IOiIueapi-W6lw!5e0!3m2!1sja!2sjp!4v1617145076839!5m2!1sja!2sjp"" width=""600"" height=""450"" style=""border:0;"" allowfullscreen="""" loading=""lazy""></iframe>",https://telecube.jp/wp/wp-content/uploads/2021/03/itoyokado-funabashi-3f4f-1.jpg,https://telecube.jp/wp/wp-content/uploads/2021/03/itoyokado-funabashi-3f4f-2.jpg,,https://telecube.jp/wp/wp-content/uploads/2021/03/IY_Funabashitenn_floormap.png,平日,土曜日,日曜日,祝日,夜21時まで,,週末価格,"イトーヨーカドー 船橋店 東館,イトーヨーカドー フナバシテン ヒガシカン,91-01,91-02,船橋駅,京成船橋駅,JR東日本,総武線,東武鉄道,野田線,東武アーバンパークライン,千葉県,船橋市,電源(コンセント / USB),WiFi（ブース内 or 施設内）,スマホスタンド,GBP",35.7032526,139.985046,102,https://telecube.jp/location/itoyokado-funabashi-3f4f/,,,,,,,,,,,,,
2479,セブン‐イレブン 市ヶ谷駅西店 ２階イートインコーナー,セブンイレブン イチガヤエキニシテン,東京都千代田区五番町2-9,JR総武線「市ケ谷駅」より徒歩2分,東京メトロ有楽町線・南北線「市ケ谷駅」より徒歩５分,都営地下鉄新宿線「市ヶ谷駅」より徒歩5分,※徒歩時間は施設までの時間であり、テレキューブまでの時間ではありませんのでご注意ください,,平日土日祝 7:00-21:00,１人用：１台,市ヶ谷駅,"・24時間連続換気ファン<br />
・WiFi<br />
・スマホスタンド<br />
※このブースは、ビルにて空調管理がされているため、エアコンを設置しておりません。<br />
<br />
※WiFiについて<br />
LTE回線を利用したベストエフォートでの提供となり、時間帯によっては十分な速度が出ない可能性がございます。大事な会議や面接でご利用の際には、代替通信手段のご用意をお願いいたします。","<iframe src=""https://www.google.com/maps/embed?pb=!1m18!1m12!1m3!1d3240.457520858163!2d139.73245071511172!3d35.690357280192245!2m3!1f0!2f0!3f0!3m2!1i1024!2i768!4f13.1!3m3!1m2!1s0x60188dc4c9765d6b%3A0x8f422abe834f7656!2z44K744OW44OzLeOCpOODrOODluODsyDluILjg7bosLfpp4Xopb_lupc!5e0!3m2!1sja!2sjp!4v1617144626639!5m2!1sja!2sjp"" width=""600"" height=""450"" style=""border:0;"" allowfullscreen="""" loading=""lazy""></iframe>",https://telecube.jp/wp/wp-content/uploads/2021/03/711_ichigayaekinishiten_3.jpg,https://telecube.jp/wp/wp-content/uploads/2021/03/711_ichigayaekinishiten_2.jpg,https://telecube.jp/wp/wp-content/uploads/2021/03/711_ichigayaekinishiten_5.jpg,https://telecube.jp/wp/wp-content/uploads/2021/03/seven-eleven-ichigayaekinishi-2f.png,平日,土曜日,日曜日,祝日,朝7時から,夜21時まで,週末価格,"セブン‐イレブン 市ヶ谷駅西店,セブンイレブン イチガヤエキニシテン,102-01,市ケ谷駅,JR東日本,中央線,総武線,東京メトロ,南北線,都営地下鉄,東京,千代田区,電源(コンセント / USB),WiFi（ブース内 or 施設内）,スマホスタンド,GBP",35.69035169,139.7346387,100,https://telecube.jp/location/seven-eleven-ichigayaekinishi-2f/,,,,,,,,,,,,,
2431,飯田橋駅東口ビル　1階,イイダバシエキヒガシグチビル,東京都千代田区飯田橋3-6-5,JR総武線「飯田橋駅」より徒歩3分,東京メトロ　東西線・有楽町線・南北線「飯田橋駅」より徒歩3分,都営地下鉄 大江戸線「飯田橋駅」より徒歩3分,※徒歩時間は施設までの時間であり、テレキューブまでの時間ではありませんのでご注意ください,,平日 9:00-21:00,1人用：1台,飯田橋駅,"・24時間連続換気ファン<br />
・WiFi<br />
・スマホスタンド<br />
※このブースは、ビルにて空調管理がされているため、エアコンを設置しておりません。<br />
<br />
※WiFiについて<br />
LTE回線を利用したベストエフォートでの提供となり、時間帯によっては十分な速度が出ない可能性がございます。大事な会議や面接でご利用の際には、代替通信手段のご用意をお願いいたします。<br />
","<iframe src=""https://www.google.com/maps/embed?pb=!1m18!1m12!1m3!1d3240.0003101530983!2d139.74445641511218!3d35.701609980189545!2m3!1f0!2f0!3f0!3m2!1i1024!2i768!4f13.1!3m3!1m2!1s0x60188d0446b1ed01%3A0x6f84b42d1b7fe70a!2z5p2x5Y-j44OT44Or!5e0!3m2!1sja!2sjp!4v1616537201983!5m2!1sja!2sjp"" width=""600"" height=""450"" style=""border:0;"" allowfullscreen="""" loading=""lazy""></iframe>",https://telecube.jp/wp/wp-content/uploads/2021/03/iidabashi-higashi-bld-1f-1.jpg,https://telecube.jp/wp/wp-content/uploads/2021/03/iidabashi-higashi-bld-1f-2.jpg,,https://telecube.jp/wp/wp-content/uploads/2021/03/iidabashi-higashi-bld-1f.png,平日,,,,夜21時まで,,,"飯田橋駅東口ビル,イイダバシエキヒガシグチビル,98-01,飯田橋駅,JR東日本,中央線,総武線,東京メトロ,南北線,東西線,都営地下鉄,大江戸線,東京,千代田区,電源(コンセント / USB),WiFi（ブース内 or 施設内）,スマホスタンド, GBP",35.70155772,139.7465915,99,https://telecube.jp/location/iidabashi-higashi-bld-1f/,,,,,,,,,,,,,
2401,ニッポン放送 本社ビル　1階,ニッポンホウソウ ホンシャビル,東京都千代田区有楽町１丁目９-３,東京メトロ有楽町線「有楽町駅」B1出口より徒歩1分,東京メトロ日比谷線・千代田線「日比谷駅」A8出口より徒歩1分,JR「有楽町駅」中央西口・日比谷口より徒歩3分,※徒歩時間は施設までの時間であり、テレキューブまでの時間ではありませんのでご注意ください,,平日 8:00-20:00,1人用：2台,有楽町駅・日比谷駅,"・24時間連続換気ファン<br />
・WiFi<br />
・スマホスタンド<br />
※このブースは、ビルにて空調管理がされているため、エアコンを設置しておりません。<br />
<br />
※WiFiについて<br />
LTE回線を利用したベストエフォートでの提供となり、時間帯によっては十分な速度が出ない可能性がございます。大事な会議や面接でご利用の際には、代替通信手段のご用意をお願いいたします。<br />
※館内のトイレは利用出来ませんので、ご注意ください。<br />
","<iframe src=""https://www.google.com/maps/embed?pb=!1m16!1m12!1m3!1d3241.073121657655!2d139.7585251151112!3d35.67520148019571!2m3!1f0!2f0!3f0!3m2!1i1024!2i768!4f13.1!2m1!1z44OL44OD44Od44Oz5pS-6YCB5pys56S-44OT44Or!5e0!3m2!1sja!2sjp!4v1616371783043!5m2!1sja!2sjp"" width=""600"" height=""450"" style=""border:0;"" allowfullscreen="""" loading=""lazy""></iframe>",https://telecube.jp/wp/wp-content/uploads/2021/03/nippon-bc-hq-1f-1.jpg,https://telecube.jp/wp/wp-content/uploads/2021/03/nippon-bc-hq-1f-2.jpg,https://telecube.jp/wp/wp-content/uploads/2021/03/nippon-bc-hq-1f-3.jpg,https://telecube.jp/wp/wp-content/uploads/2021/03/nippon-bc-hq-bld-1f.png,平日,,,,,,,"ニッポン放送 本社ビル,ニッポンホウソウ ホンシャビル,97-01,97-02,有楽町駅,日比谷駅,JR東日本,京浜東北線,山手線,東京メトロ,千代田線,都営地下鉄,東京,千代田区,電源(コンセント / USB),WiFi（ブース内 or 施設内）,スマホスタンド, GBP",35.67528548,139.7607217,98,https://telecube.jp/location/nippon-bc-hq-bld-1f/,,,,,,,,,,,,,
2381,JR西日本　尼崎駅　東改札外,ジェイアールニシニホン アマガサキエキ,兵庫県尼崎市潮江1-1-1,JR西日本　神戸線・東西線・宝塚線「尼崎駅」改札外,,,,,平日土日祝 7:00-21:00,1人用：1台,尼崎駅,"・24時間連続換気ファン<br />
・エアコン<br />
・WiFi<br />
・スマホスタンド<br />
<br />
※WiFiについて<br />
LTE回線を利用したベストエフォートでの提供となり、時間帯によっては十分な速度が出ない可能性がございます。大事な会議や面接でご利用の際には、代替通信手段のご用意をお願いいたします。","<iframe src=""https://www.google.com/maps/embed?pb=!1m18!1m12!1m3!1d3278.94235094778!2d135.42981391508397!3d34.73184748042636!2m3!1f0!2f0!3f0!3m2!1i1024!2i768!4f13.1!3m3!1m2!1s0x6000ef981a845ba9%3A0x2e6d9db23035a681!2z5bC85bSO6aeF!5e0!3m2!1sja!2sjp!4v1616080765790!5m2!1sja!2sjp"" width=""600"" height=""450"" style=""border:0;"" allowfullscreen="""" loading=""lazy""></iframe>",https://telecube.jp/wp/wp-content/uploads/2021/03/jrw-amagasaki-1.jpg,https://telecube.jp/wp/wp-content/uploads/2021/03/jrw-amagasaki-2.jpg,https://telecube.jp/wp/wp-content/uploads/2021/03/jrw-amagasaki-3.jpg,https://telecube.jp/wp/wp-content/uploads/2021/03/jrw-amagasaki.png,平日,土曜日,日曜日,祝日,朝7時から,夜21時まで,週末価格,"JR西日本 尼崎駅,ジェイアールニシニホン アマガサキエキ,96-01,尼崎駅,JR西日本,東海道本線,福知山線,宝塚線,東西線,兵庫県,尼崎市,電源(コンセント / USB),WiFi（ブース内 or 施設内）,スマホスタンド,エアコン（ブース内 or 施設内）, GBP",34.7318475,135.4320026,96,https://telecube.jp/location/jrw-amagasaki/,,,,,,,,,,,,,
2363,品川シーサイドパークタワー　1階　エントランスホール,シナガワシーサイドパークタワー,東京都品川区東品川４丁目１２−４,りんかい線「品川シーサイド駅 」より徒歩5分,京浜急行電鉄「青物横丁駅」より徒歩9分,※徒歩時間は施設までの時間であり、テレキューブまでの時間ではありませんのでご注意ください,,,平日土日祝 8:00-20:00,1人用：2台,品川シーサイド駅・青物横丁駅,"・24時間連続換気ファン<br />
・WiFi<br />
・スマホスタンド<br />
※このブースは、ビルにて空調管理がされているため、エアコンを設置しておりません。<br />
<br />
※WiFiについて<br />
LTE回線を利用したベストエフォートでの提供となり、時間帯によっては十分な速度が出ない可能性がございます。大事な会議や面接でご利用の際には、代替通信手段のご用意をお願いいたします。","<iframe src=""https://www.google.com/maps/embed?pb=!1m16!1m12!1m3!1d3243.7452549367235!2d139.7458004651094!3d35.60934998021108!2m3!1f0!2f0!3f0!3m2!1i1024!2i768!4f13.1!2m1!1z5ZOB5bed44K344O844K144Kk44OJ44OR44O844Kv44K_44Ov44O8!5e0!3m2!1sja!2sjp!4v1615819026772!5m2!1sja!2sjp"" width=""600"" height=""450"" style=""border:0;"" allowfullscreen="""" loading=""lazy""></iframe>",https://telecube.jp/wp/wp-content/uploads/2021/03/shinagawa-seaside-parktower-1f-1.jpg,https://telecube.jp/wp/wp-content/uploads/2021/03/shinagawa-seaside-parktower-1f-2.jpg,,https://telecube.jp/wp/wp-content/uploads/2021/03/shinagawa-seaside-parktower-1f.png,平日,土曜日,日曜日,祝日,,,週末価格,"品川シーサイドパークタワー,シナガワシーサイドパークタワー,93-01,93-02,品川シーサイド駅,青物横丁駅,りんかい線,京浜急行電鉄,京急電鉄,本線,東京,品川区,電源(コンセント / USB),WiFi（ブース内 or 施設内）,スマホスタンド, GBP",35.6102679,139.748099,97,https://telecube.jp/location/shinagawa-seaside-parktower-1f/,,,,,,,,,,,,,
2333,JR西日本　高槻駅改札外　北側通路,ジェイアールニシニホン タカツキエキ,大阪府高槻市白梅町1-1,JR西日本「高槻駅」より徒歩1分,,,,,平日土日祝 7:00-21:00,1人用：2台,高槻駅,"・24時間連続換気ファン<br />
・エアコン<br />
・WiFi<br />
・スマホスタンド<br />
<br />
※WiFiについて<br />
LTE回線を利用したベストエフォートでの提供となり、時間帯によっては十分な速度が出ない可能性がございます。大事な会議や面接でご利用の際には、代替通信手段のご用意をお願いいたします。","<iframe src=""https://www.google.com/maps/embed?pb=!1m18!1m12!1m3!1d3274.18135496306!2d135.61554991508754!3d34.85167018039603!2m3!1f0!2f0!3f0!3m2!1i1024!2i768!4f13.1!3m3!1m2!1s0x600102b7a565b8d1%3A0xed8e025b05763c0e!2z6auY5qe76aeF!5e0!3m2!1sja!2sjp!4v1615482652060!5m2!1sja!2sjp"" width=""600"" height=""450"" style=""border:0;"" allowfullscreen="""" loading=""lazy""></iframe>",https://telecube.jp/wp/wp-content/uploads/2021/03/jrw-takatsuki-north-1.jpg,https://telecube.jp/wp/wp-content/uploads/2021/03/jrw-takatsuki-north-2.jpg,https://telecube.jp/wp/wp-content/uploads/2021/03/jrw-takatsuki-north-3.jpg,https://telecube.jp/wp/wp-content/uploads/2021/03/jrw-takatsuki-north.png,平日,土曜日,日曜日,祝日,朝7時から,夜21時まで,週末価格,"JR西日本 高槻駅,ジェイアールニシニホン タカツキエキ,95-01,95-02,高槻駅,JR西日本,東海道本線,大阪府,高槻市,電源(コンセント / USB),WiFi（ブース内 or 施設内）,スマホスタンド,エアコン（ブース内 or 施設内）, GBP",34.852058,135.6179283,95,https://telecube.jp/location/jrw-takatsuki-north/,,,,,,,,,,,,,
2312,セブン‐イレブン 神田専大通り店,セブンイレブン カンダセンダイドオリテン,東京都千代田区神田神保町2-38-1,東京メトロ半蔵門線「神保町駅」A2出口より徒歩2分,JR「水道橋駅」より徒歩8分,,,,平日土日祝 7:00-21:00,1人用:1台,神保町駅・水道橋駅,"・24時間稼働換気ファン<br />
・WiFi<br />
・スマホスタンド<br />
※このブースは、ビルにて空調管理がされているため、エアコンを設置しておりません。<br />
<br />
※WiFiについて<br />
LTE回線を利用したベストエフォートでの提供となり、時間帯によっては十分な速度が出ない可能性がございます。大事な会議や面接でご利用の際には、代替通信手段のご用意をお願いいたします。","<iframe src=""https://www.google.com/maps/embed?pb=!1m18!1m12!1m3!1d3240.1645030249288!2d139.7524397151119!3d35.697569280190564!2m3!1f0!2f0!3f0!3m2!1i1024!2i768!4f13.1!3m3!1m2!1s0x60188c1501f5306f%3A0xb2f2f89e06fede69!2z44K744OW44OzLeOCpOODrOODluODsyDnpZ7nlLDlsILlpKfpgJrjgorlupc!5e0!3m2!1sja!2sjp!4v1614907819157!5m2!1sja!2sjp"" width=""600"" height=""450"" style=""border:0;"" allowfullscreen="""" loading=""lazy""></iframe>",https://telecube.jp/wp/wp-content/uploads/2021/03/seven-eleven-kandasendaidori-1.jpg,https://telecube.jp/wp/wp-content/uploads/2021/03/S__3874820_.jpg,https://telecube.jp/wp/wp-content/uploads/2021/03/seven-eleven-kandasendaidori-2-1.jpg,https://telecube.jp/wp/wp-content/uploads/2021/03/seven-eleven-kandasendaidori.png,平日,土曜日,日曜日,祝日,朝7時から,夜21時まで,週末価格,"セブン‐イレブン 神田専大通り店,セブンイレブン カンダセンダイドオリテン,92-01,神保町駅,水道橋駅,JR東日本,中央線,総武線,都営地下鉄,東京メトロ,半蔵門線,東京,千代田区,電源(コンセント / USB),WiFi（ブース内 or 施設内）,スマホスタンド,広告掲載,ソニー生命, GBP",35.69756101,139.7546457,92,https://telecube.jp/location/seven-eleven-kandasendaidori/,,,,,,,,,,,,,
2280,イトーヨーカドーあべの店　１階,イトーヨーカドー アベノテン,大阪府大阪市阿倍野区阿倍野筋１丁目６−１,大阪メトロ　御堂筋線・谷町線「天王寺駅」12号出口より直結。徒歩3分,JR環状線・阪和線・大和路線「天王寺駅」南口より徒歩4分,近鉄南大阪線「大阪阿部野橋駅」西改札より徒歩4分,阪堺電車上町線「天王寺駅前駅」徒歩3分,※徒歩時間は施設までの時間であり、テレキューブまでの時間ではありませんのでご注意ください,平日土日祝 10:00-21:00,１人用：２台,天王寺駅・大阪阿倍野橋駅・天王寺駅前駅,"・２４時間連続換気ファン<br />
・WiFi<br />
・スマホスタンド<br />
※このブースは、ビルにて空調管理がされているため、エアコンを設置しておりません。<br />
<br />
※WiFiについて<br />
LTE回線を利用したベストエフォートでの提供となり、時間帯によっては十分な速度が出ない可能性がございます。大事な会議や面接でご利用の際には、代替通信手段のご用意をお願いいたします。","<iframe src=""https://www.google.com/maps/embed?pb=!1m18!1m12!1m3!1d3282.4207602579563!2d135.50945021508153!3d34.64407538044903!2m3!1f0!2f0!3f0!3m2!1i1024!2i768!4f13.1!3m3!1m2!1s0x6000ddee04b8ee7d%3A0xa43a9c40426820d3!2z44Kk44OI44O844Oo44O844Kr44OJ44O8IOOBguOBueOBruW6lw!5e0!3m2!1sja!2sjp!4v1614808151939!5m2!1sja!2sjp"" width=""600"" height=""450"" style=""border:0;"" allowfullscreen="""" loading=""lazy""></iframe>",https://telecube.jp/wp/wp-content/uploads/2021/03/itoyokado-abeno-1f-1.jpg,https://telecube.jp/wp/wp-content/uploads/2021/03/itoyokado-abeno-1f-2.jpg,https://telecube.jp/wp/wp-content/uploads/2021/03/itoyokado-abeno-1f-3.jpg,https://telecube.jp/wp/wp-content/uploads/2021/03/itoyokado-abeno-1f.png,平日,土曜日,日曜日,祝日,夜21時まで,,週末価格,"イトーヨーカドー あべの店,イトーヨーカドー アベノテン,81-01,81-02,天王寺駅,大阪阿部野橋駅,天王寺駅前駅,JR西日本,関西本線,大阪環状線,阪和線,大阪メトロ,御堂筋線,谷町線,阪堺電車,阪堺電軌,上町線,近畿日本鉄道,近鉄,南大阪線,大阪府,大阪市,電源(コンセント / USB),WiFi（ブース内 or 施設内）,スマホスタンド, GBP",34.6446339,135.5113477,94,https://telecube.jp/location/itoyokado-abeno-1f/,https://telecube.jp/wp/wp-content/uploads/2021/03/itoyokado-abeno-1f-4.jpg,,,,,,,,,,,,
2278,流山おおたかの森　こかげテラス　１階,ナガレヤマオオタカノモリ コカゲテラス,千葉県流山市おおたかの森西1-1,つくばエクスプレス「流山おおたかの森駅]下車すぐ,東武アーバンパークライン「流山おおたかの森駅]下車すぐ,※徒歩時間は施設までの時間であり、テレキューブまでの時間ではありませんのでご注意ください,,,平日土日祝 7:00-20:00,1人用：２台,流山おおたかの森駅,"・24時間連続換気ファン<br />
・WiFi<br />
・スマホスタンド<br />
※このブースは、ビルにて空調管理がされているため、エアコンを設置しておりません。<br />
<br />
※WiFiについて<br />
LTE回線を利用したベストエフォートでの提供となり、時間帯によっては十分な速度が出ない可能性がございます。大事な会議や面接でご利用の際には、代替通信手段のご用意をお願いいたします。","<iframe src=""https://www.google.com/maps/embed?pb=!1m18!1m12!1m3!1d3233.071355393775!2d139.92281951511697!3d35.8717681801502!2m3!1f0!2f0!3f0!3m2!1i1024!2i768!4f13.1!3m3!1m2!1s0x60189b795a64e74f%3A0x8ebb061ea87f1160!2z5rWB5bGx44GK44GK44Gf44GL44Gu5qOu77yz44O777yjIOOBk-OBi-OBkuODhuODqeOCuQ!5e0!3m2!1sja!2sjp!4v1614807761162!5m2!1sja!2sjp"" width=""600"" height=""450"" style=""border:0;"" allowfullscreen="""" loading=""lazy""></iframe>",https://telecube.jp/wp/wp-content/uploads/2021/03/nagaeyama-otakanomori-1f-1.jpg,https://telecube.jp/wp/wp-content/uploads/2021/03/nagaeyama-otakanomori-1f-2.jpg,https://telecube.jp/wp/wp-content/uploads/2021/03/nagaeyama-otakanomori-1f-3.jpg,https://telecube.jp/wp/wp-content/uploads/2021/03/nagaeyama-otakanomori-1f.png,平日,土曜日,日曜日,祝日,朝7時から,,週末価格,"流山おおたかの森 こかげテラス,ナガレヤマオオタカノモリ コカゲテラス,90-01,90-02,流山おおたかの森駅,つくばエクスプレス,TX,東武鉄道,野田線,東武アーバンパークライン,千葉県,流山市,電源(コンセント / USB),WiFi（ブース内 or 施設内）,スマホスタンド, GBP",35.87172296,139.925141,93,https://telecube.jp/location/nagaeyama-otakanomori-1f/,https://telecube.jp/wp/wp-content/uploads/2021/03/nagaeyama-otakanomori-1f-4.jpg,,,,,,,,,,,,
2238,つくばエクスプレス　守谷駅　TXアベニュー守谷　2階,ツクバエクスプレス ティーエックスアベニューモリヤ,茨城県守谷市中央3丁目2,くばエクスプレス「守谷駅」改札正面「TXアベニュー守谷」フードコート内,,,,,平日土日祝 7:00-21:00,1人用：1台,守谷駅,"・24時間連続換気ファン<br />
・WiFi<br />
・スマホスタンド<br />
※このブースは、ビルにて空調管理がされているため、エアコンを設置しておりません。<br />
<br />
※WiFiについて<br />
LTE回線を利用したベストエフォートでの提供となり、時間帯によっては十分な速度が出ない可能性がございます。大事な会議や面接でご利用の際には、代替通信手段のご用意をお願いいたします。<br />
","<iframe src=""https://www.google.com/maps/embed?pb=!1m18!1m12!1m3!1d3229.8594015763642!2d139.99023565054614!3d35.950409222672604!2m3!1f0!2f0!3f0!3m2!1i1024!2i768!4f13.1!3m3!1m2!1s0x60189e45ed9e4d15%3A0x4950741372ce0e54!2zVFjjgqLjg5njg4vjg6Xjg7zlrojosLc!5e0!3m2!1sja!2sjp!4v1614550232888!5m2!1sja!2sjp"" width=""600"" height=""450"" style=""border:0;"" allowfullscreen="""" loading=""lazy""></iframe>",https://telecube.jp/wp/wp-content/uploads/2021/03/tx-avenue-moriya-2f-1.jpg,https://telecube.jp/wp/wp-content/uploads/2021/03/tx-avenue-moriya-2f-2.jpg,https://telecube.jp/wp/wp-content/uploads/2021/03/tx-avenue-moriya-2f-3.jpg,https://telecube.jp/wp/wp-content/uploads/2021/03/tx-avenue-moriya-2f.png,平日,土曜日,日曜日,祝日,朝7時から,夜21時まで,週末価格,"つくばエクスプレス TXアベニュー守谷,ツクバエクスプレス ティーエックスアベニューモリヤ,89-01,守谷駅,つくばエクスプレス,TX,関東鉄道,関鉄,常総線,茨城県,守谷市,電源(コンセント / USB),WiFi（ブース内 or 施設内）,スマホスタンド, GBP",35.9496822,139.9937461,91,https://telecube.jp/location/tx-avenue-moriya-2f/,,,,,,,,,,,,,
2227,つくばエクスプレス　秋葉原駅　地下1階,ツクバエクスプレス アキハバラエキ,東京都千代田区神田佐久間町１丁目６番１０号,つくばエクスプレス「秋葉原駅」改札からA3出口方面すぐ,,,,,平日土日祝 7:00-21:00,1人用：1台,秋葉原駅,"・24時間連続換気ファン<br />
・エアコン<br />
・WiFi<br />
・スマホスタンド<br />
<br />
※WiFiについて<br />
LTE回線を利用したベストエフォートでの提供となり、時間帯によっては十分な速度が出ない可能性がございます。大事な会議や面接でご利用の際には、代替通信手段のご用意をお願いいたします。","<iframe src=""https://www.google.com/maps/embed?pb=!1m16!1m12!1m3!1d3240.131338233205!2d139.77145621511193!3d35.69838548019032!2m3!1f0!2f0!3f0!3m2!1i1024!2i768!4f13.1!2m1!1z44Gk44GP44Gw44Ko44Kv44K544OX44Os44K544CA56eL6JGJ5Y6f6aeF!5e0!3m2!1sja!2sjp!4v1614549629368!5m2!1sja!2sjp"" width=""600"" height=""450"" style=""border:0;"" allowfullscreen="""" loading=""lazy""></iframe>",https://telecube.jp/wp/wp-content/uploads/2021/03/tx-akihabara-b1f-1.jpg,https://telecube.jp/wp/wp-content/uploads/2021/03/tx-akihabara-b1f-2.jpg,https://telecube.jp/wp/wp-content/uploads/2021/03/tx-akihabara-b1f-3.jpg,https://telecube.jp/wp/wp-content/uploads/2021/03/tx-akihabara-b1f.png,平日,土曜日,日曜日,祝日,朝7時から,夜21時まで,週末価格,"つくばエクスプレス 秋葉原駅,ツクバエクスプレス アキハバラエキ,88-01,秋葉原駅,JR東日本,京浜東北線,山手線,総武線,中央線,東京メトロ,つくばエクスプレス,TX,東京,千代田区,電源(コンセント / USB),WiFi（ブース内 or 施設内）,スマホスタンド,エアコン（ブース内 or 施設内）, GBP",35.6978698,139.7736772,90,https://telecube.jp/location/tx-akihabara-b1f/,https://telecube.jp/wp/wp-content/uploads/2021/03/tx-akihabara-b1f-4.jpg,,,,,,,https://telecube.jp/wp/wp-content/uploads/2021/03/tx-akihabara-b1f-5.jpg,https://telecube.jp/wp/wp-content/uploads/2021/03/tx-akihabara-b1f-6.jpg,,,,
2204,名古屋東宝ビル　１階,ナゴヤトウホウビル,愛知県名古屋市中区栄１丁目２−７,名古屋市営地下鉄　東山線・鶴舞線「伏見駅」7番出口より徒歩4分,※徒歩時間は施設までの時間であり、テレキューブまでの時間ではありませんのでご注意ください,,,,平日土日祝 8:00-20:00,１人用：１台,伏見駅,"・24時間稼働換気ファン<br />
・WiFi<br />
・スマホスタンド<br />
※このブースは、ビルにて空調管理がされているため、エアコンを設置しておりません。<br />
<br />
※WiFiについて<br />
LTE回線を利用したベストエフォートでの提供となり、時間帯によっては十分な速度が出ない可能性がございます。大事な会議や面接でご利用の際には、代替通信手段のご用意をお願いいたします。","<iframe src=""https://www.google.com/maps/embed?pb=!1m18!1m12!1m3!1d3261.5562522117048!2d136.8910239150965!3d35.167686080317246!2m3!1f0!2f0!3f0!3m2!1i1024!2i768!4f13.1!3m3!1m2!1s0x6003772800bc2dfd%3A0x8c46931711b3a5db!2z44CSNDYwLTAwMDgg5oSb55-l55yM5ZCN5Y-k5bGL5biC5Lit5Yy65qCE77yR5LiB55uu77yS4oiS77yXIOWQjeWPpOWxi-adseWuneODk-ODqw!5e0!3m2!1sja!2sjp!4v1614186028947!5m2!1sja!2sjp"" width=""600"" height=""450"" style=""border:0;"" allowfullscreen="""" loading=""lazy""></iframe>",https://telecube.jp/wp/wp-content/uploads/2021/02/nagoya-toho-bld-1f-1.jpg,https://telecube.jp/wp/wp-content/uploads/2021/02/nagoya-toho-bld-1f-2.jpg,https://telecube.jp/wp/wp-content/uploads/2021/02/nagoya-toho-bld-1f-3.jpg,https://telecube.jp/wp/wp-content/uploads/2021/02/nagoya-toho-bld-1f.png,平日,土曜日,日曜日,祝日,,,週末価格,"名古屋東宝ビル,ナゴヤトウホウビル,87-01,伏見駅,名古屋市営地下鉄,東山線,鶴舞線,愛知県,名古屋市,電源(コンセント / USB),WiFi（ブース内 or 施設内）,スマホスタンド,ソニー生命, GBP",35.1676734,136.8931811,89,https://telecube.jp/location/nagoya-toho-bld-1f/,https://telecube.jp/wp/wp-content/uploads/2021/02/nagoya-toho-bld-1f-4.jpg,,,,,,,,,,,,
2189,アクアシティお台場　３階,アクアシティオダイバ,東京都港区台場1-7-1,ゆりかもめ「台場駅」より徒歩1分,りんかい線「東京テレポート駅」より徒歩6分,※徒歩時間は施設までの時間であり、テレキューブまでの時間ではありませんのでご注意ください,,,平日 11:00-19:00 / 土日祝 11:00-20:00,１人用：２台,台場駅・東京テレポート駅,"・24時間稼働ファン<br />
・WiFi<br />
・スマホスタンド<br />
※このブースは、ビルにて空調管理がされているため、エアコンを設置しておりません。<br />
<br />
※WiFiについて<br />
LTE回線を利用したベストエフォートでの提供となり、時間帯によっては十分な速度が出ない可能性がございます。大事な会議や面接でご利用の際には、代替通信手段のご用意をお願いいたします。","<iframe src=""https://www.google.com/maps/embed?pb=!1m18!1m12!1m3!1d3242.999187370848!2d139.7713282505376!3d35.62774654041429!2m3!1f0!2f0!3f0!3m2!1i1024!2i768!4f13.1!3m3!1m2!1s0x601889f63b5bc72f%3A0x1eeca49238395cca!2z44CSMTM1LTAwOTEg5p2x5Lqs6YO95riv5Yy65Y-w5aC077yR5LiB55uu77yX4oiS77yR!5e0!3m2!1sja!2sjp!4v1614121191604!5m2!1sja!2sjp"" width=""600"" height=""450"" style=""border:0;"" allowfullscreen="""" loading=""lazy""></iframe>",https://telecube.jp/wp/wp-content/uploads/2021/02/aquacity-odaiba-3f-1.jpg,https://telecube.jp/wp/wp-content/uploads/2021/02/aquacity-odaiba-3f-2.jpg,https://telecube.jp/wp/wp-content/uploads/2021/02/aquacity-odaiba-3f-3.jpg,https://telecube.jp/wp/wp-content/uploads/2021/02/aquacity-odaiba-3f.png,平日,土曜日,日曜日,祝日,,,週末価格,"アクアシティお台場,アクアシティオダイバ,71-01,71-02,AQUA CiTY ODAIBA,アクアシティーオダイバ,台場駅,東京テレポート駅,ゆりかもめ,りんかい線,東京,港区,電源(コンセント / USB),WiFi（ブース内 or 施設内）,スマホスタンド,広告掲載, GBP",35.6277422,139.7735223,88,https://telecube.jp/location/aquacity-odaiba-3f/,https://telecube.jp/wp/wp-content/uploads/2021/02/aquacity-odaiba-3f-4.jpg,,,,,,,,,,,,
2174,二子玉川ライズ　オフィス棟　１階,フタコタマガワライズ オフィストウ,東京都世田谷区玉川二丁目21-1,東急田園都市線「二子玉川駅」徒歩1分,※徒歩時間は施設までの時間であり、テレキューブまでの時間ではありませんのでご注意ください,,,,平日土日祝 8:00-20:00,1人用：2台,二子玉川駅,"・24時間稼働換気ファン<br />
・WiFi<br />
・スマホスタンド<br />
※このブースは、ビルにて空調管理がされているため、エアコンを設置しておりません。<br />
<br />
※WiFiについて<br />
LTE回線を利用したベストエフォートでの提供となり、時間帯によっては十分な速度が出ない可能性がございます。大事な会議や面接でご利用の際には、代替通信手段のご用意をお願いいたします。","<iframe src=""https://www.google.com/maps/embed?pb=!1m18!1m12!1m3!1d3243.647942546146!2d139.62604571510943!3d35.61174998021051!2m3!1f0!2f0!3f0!3m2!1i1024!2i768!4f13.1!3m3!1m2!1s0x6018f43fdf955555%3A0x7d8ca1a1c8966b96!2z5LqM5a2Q546J5bed44Op44Kk44K644O744K344On44OD44OU44Oz44Kw44K744Oz44K_44O8!5e0!3m2!1sja!2sjp!4v1613605772707!5m2!1sja!2sjp"" width=""600"" height=""450"" frameborder=""0"" style=""border:0;"" allowfullscreen="""" aria-hidden=""false"" tabindex=""0""></iframe>",https://telecube.jp/wp/wp-content/uploads/2021/02/futakotamagawa-rize-1f-1.jpg,https://telecube.jp/wp/wp-content/uploads/2021/02/RISE1.jpg,https://telecube.jp/wp/wp-content/uploads/2021/02/RISE2.jpg,https://telecube.jp/wp/wp-content/uploads/2021/02/二子玉川RIZEフロア図.jpg,平日,土曜日,日曜日,祝日,,,週末価格,"二子玉川ライズ オフィス棟,フタコタマガワライズ オフィストウ,48-01,48-02,にこたまライズ,ニコタマライズ,二子玉川駅,東急電鉄,田園都市線,東京,世田谷区,電源(コンセント / USB),WiFi（ブース内 or 施設内）,スマホスタンド, GBP",35.61192036,139.627845,87,https://telecube.jp/location/futakotamagawa-rise-1f/,https://telecube.jp/wp/wp-content/uploads/2021/02/futakotamagawa-rize-1f-5.jpg,,,,,,,https://telecube.jp/wp/wp-content/uploads/2021/02/futakotamagawa-rize-1f-4.jpg,,,,,
2118,MARK IS みなとみらい 地下4階,マークイズ ミナトミライ,神奈川県横浜市西区みなとみらい３丁目５−１,みなとみらい線 「みなとみらい駅」より 徒歩1分,JR・横浜市営地下鉄「桜木町駅」 より徒歩8分,※徒歩時間は施設までの時間であり、テレキューブまでの時間ではありませんのでご注意ください,,,平日土日祝 7:00-21:00,1人用：2台,桜木町駅・みなとみらい駅,"・24時間連続換気ファン<br />
・WiFi<br />
・スマホスタンド<br />
※このブースは、ビルにて空調管理がされているため、エアコンを設置しておりません。<br />
<br />
※WiFiについて<br />
LTE回線を利用したベストエフォートでの提供となり、時間帯によっては十分な速度が出ない可能性がございます。大事な会議や面接でご利用の際には、代替通信手段のご用意をお願いいたします。<br />
","<iframe src=""https://www.google.com/maps/embed?pb=!1m18!1m12!1m3!1d812.4764456077595!2d139.6319703292308!3d35.45712689876546!2m3!1f0!2f0!3f0!3m2!1i1024!2i768!4f13.1!3m3!1m2!1s0x60185c42cdead9db%3A0xd1e112f8c4059ceb!2zTUFSSyBJUyDjgb_jgarjgajjgb_jgonjgYQ!5e0!3m2!1sja!2sjp!4v1634262752014!5m2!1sja!2sjp"" width=""800"" height=""600"" style=""border:0;"" allowfullscreen="""" loading=""lazy""></iframe>",https://telecube.jp/wp/wp-content/uploads/2021/02/mark-is-minatomirai-b4f-1.jpg,https://telecube.jp/wp/wp-content/uploads/2021/02/mark-is-minatomirai-b4f-5.jpg,https://telecube.jp/wp/wp-content/uploads/2021/02/mark-is-minatomirai-b4f-3.jpg,https://telecube.jp/wp/wp-content/uploads/2021/02/Mark-is-minatomirai-b4f.png,平日,土曜日,日曜日,祝日,朝7時から,夜21時まで,週末価格,"MARK IS みなとみらい,マークイズ ミナトミライ,85-01,85-02,桜木町駅,みなとみらい駅,JR東日本,根岸線,京浜東北線,ブルーライン,神奈川県,横浜市,電源(コンセント / USB),WiFi（ブース内 or 施設内）,スマホスタンド,広告掲載,ソニー生命, GBP",35.4571449,139.6323796,84,https://telecube.jp/location/mark-is-minatomirai-b4f/,,,,,,,,,,,,,
2116,イトーヨーカドー多摩センター店　4階,イトーヨーカドー タマセンターテン,東京都多摩市落合1-44,京王相模原線「京王多摩センター駅」徒歩2分,小田急多摩線「小田急多摩センター駅」徒歩２分,多摩都市モノレール「多摩センター駅」徒歩2分,※徒歩時間は施設までの時間であり、テレキューブまでの時間ではありませんのでご注意ください,,平日土日祝 10:00-20:00,1人用：2台,多摩センター駅・京王多摩センター駅・小田急多摩センター駅,"・24時間連続換気ファン<br />
・WiFi<br />
・スマホスタンド<br />
※このブースは、ビルにて空調管理がされているため、エアコンを設置しておりません。<br />
<br />
※WiFiについて<br />
LTE回線を利用したベストエフォートでの提供となり、時間帯によっては十分な速度が出ない可能性がございます。大事な会議や面接でご利用の際には、代替通信手段のご用意をお願いいたします。<br />
","<iframe src=""https://www.google.com/maps/embed?pb=!1m18!1m12!1m3!1d3243.1666085619163!2d139.42354331510964!3d35.62361898020771!2m3!1f0!2f0!3f0!3m2!1i1024!2i768!4f13.1!3m3!1m2!1s0x6018e33565c3a7d5%3A0x9ac7d0d7a5e27d40!2z44Kk44OI44O844Oo44O844Kr44OJ44O8IOWkmuaRqeOCu-ODs-OCv-ODvOW6lw!5e0!3m2!1sja!2sjp!4v1612675313071!5m2!1sja!2sjp"" width=""600"" height=""450"" frameborder=""0"" style=""border:0;"" allowfullscreen="""" aria-hidden=""false"" tabindex=""0""></iframe>",https://telecube.jp/wp/wp-content/uploads/2021/02/IY多摩センター2..jpeg,https://telecube.jp/wp/wp-content/uploads/2021/02/IY多摩センター1.jpeg,https://telecube.jp/wp/wp-content/uploads/2021/02/itoyokado-tama-centre-4f-4.jpg,https://telecube.jp/wp/wp-content/uploads/2021/02/IY多摩センターフロア図202211.png,平日,土曜日,日曜日,祝日,,,週末価格,"イトーヨーカドー 多摩センター店,イトーヨーカドー タマセンターテン,82-01,82-02,京王多摩センター駅,小田急多摩センター駅,多摩センター駅,京王電鉄,京王相模原線,小田急電鉄,多摩線,多摩都市モノレール線,多摩モノレール,東京,多摩市,電源(コンセント / USB),WiFi（ブース内 or 施設内）,スマホスタンド, GBP",35.6236343,139.4257126,83,https://telecube.jp/location/itoyokado-tama-centre-4f/,,,,,,,,,,,,,
1932,相鉄ライフ　三ツ境　2階,ソウテツライフ ミツキョウ,神奈川県横浜市瀬谷区三ツ境2番地19,相鉄「三ツ境駅」改札口より徒歩1分,※徒歩時間は施設までの時間であり、テレキューブまでの時間ではありませんのでご注意ください,,,,平日土日祝 8:00-21:00,1人用：1台,三ツ境駅,"・24時間連続換気ファン<br />
・WiFi<br />
・スマホスタンド<br />
※このブースは、ビルにて空調管理がされているため、エアコンを設置しておりません。<br />
<br />
※WiFiについて<br />
LTE回線を利用したベストエフォートでの提供となり、時間帯によっては十分な速度が出ない可能性がございます。大事な会議や面接でご利用の際には、代替通信手段のご用意をお願いいたします。","<iframe src=""https://www.google.com/maps/embed?pb=!1m16!1m12!1m3!1d3249.469486769737!2d139.5009695147222!3d35.46792618024448!2m3!1f0!2f0!3f0!3m2!1i1024!2i768!4f13.1!2m1!1z55u46YmE44Op44Kk44OV5LiJ44OE5aKD!5e0!3m2!1sja!2sjp!4v1609714994375!5m2!1sja!2sjp"" width=""600"" height=""450"" frameborder=""0"" style=""border:0;"" allowfullscreen="""" aria-hidden=""false"" tabindex=""0""></iframe>",https://telecube.jp/wp/wp-content/uploads/2021/01/sotetsu-life-mitsukyo-2f-1.jpg,https://telecube.jp/wp/wp-content/uploads/2021/01/sotetsu-life-mitsukyo-2f-2.jpg,https://telecube.jp/wp/wp-content/uploads/2021/01/sotetsu-life-mitsukyo-2f-3.jpg,https://telecube.jp/wp/wp-content/uploads/2021/01/sotetsu-life-mitsukyo-2f.png,平日,土曜日,日曜日,祝日,夜21時まで,,週末価格,"相鉄ライフ 三ツ境,ソウテツライフ ミツキョウ,80-01,三ツ境駅,相模鉄道,相鉄線,本線,神奈川県,横浜市,電源(コンセント / USB),WiFi（ブース内 or 施設内）,スマホスタンド, GBP",35.4679385,139.5031068,80,https://telecube.jp/location/sotetsu-life-mitsukyo-2f/,https://telecube.jp/wp/wp-content/uploads/2021/01/sotetsu-life-mitsukyo-2f-5.jpg,,,,,,,https://telecube.jp/wp/wp-content/uploads/2021/01/sotetsu-life-mitsukyo-2f-6.jpg,,,,,
1922,相鉄　FUTAMATA RIVER LIBRARY 6階,ソウテツ フタマタ リバー ライブラリー,神奈川県横浜市旭区二俣川2丁目50番地14,相鉄「二俣川駅」改札口より徒歩2分,※徒歩時間は施設までの時間であり、テレキューブまでの時間ではありませんのでご注意ください,,,,平日土日祝 8:00-21:00,1人用：1台,二俣川駅,"・24時間連続換気ファン<br />
・WiFi<br />
・スマホスタンド<br />
<br />
※WiFiについて<br />
LTE回線を利用したベストエフォートでの提供となり、時間帯によっては十分な速度が出ない可能性がございます。大事な会議や面接でご利用の際には、代替通信手段のご用意をお願いいたします。","<iframe src=""https://www.google.com/maps/embed?pb=!1m18!1m12!1m3!1d3249.660013256777!2d139.530269114722!3d35.46321058024569!2m3!1f0!2f0!3f0!3m2!1i1024!2i768!4f13.1!3m3!1m2!1s0x60185993987ea30d%3A0xa253092d2271e4b6!2sFUTAMATA%20RIVER%20LIBRARY!5e0!3m2!1sja!2sjp!4v1609714105634!5m2!1sja!2sjp"" width=""600"" height=""450"" frameborder=""0"" style=""border:0;"" allowfullscreen="""" aria-hidden=""false"" tabindex=""0""></iframe>",https://telecube.jp/wp/wp-content/uploads/2021/01/sotetsu-futamata-river-library-6f-1.jpg,https://telecube.jp/wp/wp-content/uploads/2021/01/sotetsu-futamata-river-library-6f-2.jpg,https://telecube.jp/wp/wp-content/uploads/2021/01/sotetsu-futamata-river-library-6f-3.jpg,https://telecube.jp/wp/wp-content/uploads/2021/01/sotetsu-futamata-river-library-6f.png,平日,土曜日,日曜日,祝日,夜21時まで,,週末価格,"相鉄 FUTAMATA RIVER LIBRARY,ソウテツ フタマタ リバー ライブラリー,79-01,二俣川駅,相模鉄道,相鉄線,本線,いずみ野線,神奈川県,横浜市,電源(コンセント / USB),WiFi（ブース内 or 施設内）,スマホスタンド, GBP",35.4629185,139.5322119,82,https://telecube.jp/location/sotetsu-futamata-river-library-6f/,https://telecube.jp/wp/wp-content/uploads/2021/01/sotetsu-futamata-river-library-6f-4.jpg,,,,,,,https://telecube.jp/wp/wp-content/uploads/2021/01/sotetsu-futamata-river-library-6f-5.jpg,,,,,
1910,相鉄　二俣川ジョイナステラス2　2階,ソウテツ フタマタガワジョイナステラスツー,神奈川県横浜市旭区二俣川2丁目50番地14,相鉄「二俣川駅」改札口より徒歩1分,※徒歩時間は施設までの時間であり、テレキューブまでの時間ではありませんのでご注意ください,,,,平日土日祝 8:00-21:00　※年末年始休業：2021/12/30～2022/1/2,1人用：1台,二俣川駅,"・24時間連続換気ファン<br />
・WiFi<br />
・スマホスタンド<br />
※このブースは、ビルにて空調管理がされているため、エアコンを設置しておりません。<br />
<br />
※WiFiについて<br />
LTE回線を利用したベストエフォートでの提供となり、時間帯によっては十分な速度が出ない可能性がございます。大事な会議や面接でご利用の際には、代替通信手段のご用意をお願いいたします。<br />
","<iframe src=""https://www.google.com/maps/embed?pb=!1m18!1m12!1m3!1d3249.6547085823136!2d139.53043486472188!3d35.46334188024564!2m3!1f0!2f0!3f0!3m2!1i1024!2i768!4f13.1!3m3!1m2!1s0x6018583b80649f47%3A0xa82fab7df450e79a!2z44K444On44Kk44OK44K544OG44Op44K55LqM5L-j5bed!5e0!3m2!1sja!2sjp!4v1609700359525!5m2!1sja!2sjp"" width=""600"" height=""450"" frameborder=""0"" style=""border:0;"" allowfullscreen="""" aria-hidden=""false"" tabindex=""0""></iframe>",https://telecube.jp/wp/wp-content/uploads/2021/01/sotetsu-joinus-terrace2-2f-1.jpg,https://telecube.jp/wp/wp-content/uploads/2021/01/sotetsu-joinus-terrace2-2f-2.jpg,https://telecube.jp/wp/wp-content/uploads/2021/01/sotetsu-joinus-terrace2-2f-3.jpg,https://telecube.jp/wp/wp-content/uploads/2021/01/sotetsu-joinus-terrace2-2f.png,平日,土曜日,日曜日,祝日,夜21時まで,,週末価格,"相鉄 二俣川ジョイナステラス２,ソウテツ フタマタガワジョイナステラスツー,77-01,JOINUS TERRACE 二俣川,ジョイナステラス フタマタガワ,二俣川駅,相模鉄道,相鉄線,本線,いずみ野線,神奈川県,横浜市,電源(コンセント / USB),WiFi（ブース内 or 施設内）,スマホスタンド, GBP",35.4630515,139.5325155,79,https://telecube.jp/location/sotetsu-joinus-terrace2-2f/,,,,,,,,,,,,,
1901,相鉄ライフ二俣川　3階,ソウテツライフ フタマタガワ,神奈川県横浜市旭区二俣川１丁目３−２,相鉄「二俣川駅」改札口より徒歩1分,※徒歩時間は施設までの時間であり、テレキューブまでの時間ではありませんのでご注意ください,,,,平日土日祝 10:00-20:00　※年末年始休業：2021/12/30～2022/1/2,1人用：1台,二俣川駅,"・24時間連続換気ファン<br />
・エアコン<br />
・WiFi<br />
・スマホスタンド<br />
<br />
※WiFiについて<br />
LTE回線を利用したベストエフォートでの提供となり、時間帯によっては十分な速度が出ない可能性がございます。大事な会議や面接でご利用の際には、代替通信手段のご用意をお願いいたします。","<iframe src=""https://www.google.com/maps/embed?pb=!1m18!1m12!1m3!1d3249.6245851415665!2d139.530504314722!3d35.46408748024549!2m3!1f0!2f0!3f0!3m2!1i1024!2i768!4f13.1!3m3!1m2!1s0x601859de058731c1%3A0x3fab2a0762b04899!2z55u46YmE44Op44Kk44OVIOS6jOS_o-W3nQ!5e0!3m2!1sja!2sjp!4v1609699338335!5m2!1sja!2sjp"" width=""600"" height=""450"" frameborder=""0"" style=""border:0;"" allowfullscreen="""" aria-hidden=""false"" tabindex=""0""></iframe>",https://telecube.jp/wp/wp-content/uploads/2021/01/sotetsu-life-futamatagawa-3f-1.jpg,https://telecube.jp/wp/wp-content/uploads/2021/01/sotetsu-life-futamatagawa-3f-2.jpg,https://telecube.jp/wp/wp-content/uploads/2021/01/sotetsu-life-futamatagawa-3f-3.jpg,https://telecube.jp/wp/wp-content/uploads/2021/01/sotetsu-life-futamatagawa-3f.png,平日,土曜日,日曜日,祝日,,,週末価格,"相鉄ライフ 二俣川,ソウテツライフ フタマタガワ,78-01,二俣川駅,相模鉄道,相鉄線,本線,いずみ野線,神奈川県,横浜市,電源(コンセント / USB),WiFi（ブース内 or 施設内）,スマホスタンド,エアコン（ブース内 or 施設内）, GBP",35.4640605,139.5326068,81,https://telecube.jp/location/sotetsu-life-futamatagawa-3f/,,,,,,,,,,,,,
1880,トリトンスクエアX棟　2階,トリトンスクエア オフィスタワー エックストウ,東京都中央区晴海1-8-16,都営地下鉄大江戸線「勝どき駅」より徒歩4分,※徒歩時間は施設までの時間であり、テレキューブまでの時間ではありませんのでご注意ください,,,,平日土 7:00-20:00,1人用：2台,勝どき駅,"・24時間連続換気ファン<br />
・WiFi<br />
・スマホスタンド<br />
※このブースは、ビルにて空調管理がされているため、エアコンを設置しておりません。<br />
<br />
※WiFiについて<br />
LTE回線を利用したベストエフォートでの提供となり、時間帯によっては十分な速度が出ない可能性がございます。大事な会議や面接でご利用の際には、代替通信手段のご用意をお願いいたします。<br />
","<iframe src=""https://www.google.com/maps/embed?pb=!1m16!1m12!1m3!1d3241.8167590173716!2d139.7804004647285!3d35.656886030200056!2m3!1f0!2f0!3f0!3m2!1i1024!2i768!4f13.1!2m1!1z44OI44Oq44OI44Oz44K544Kv44Ko44Ki44CAWOajnw!5e0!3m2!1sja!2sjp!4v1609695796151!5m2!1sja!2sjp"" width=""600"" height=""450"" frameborder=""0"" style=""border:0;"" allowfullscreen="""" aria-hidden=""false"" tabindex=""0""></iframe>",https://telecube.jp/wp/wp-content/uploads/2021/01/triton-square-x-2f-1.jpg,https://telecube.jp/wp/wp-content/uploads/2021/01/triton-square-x-2f-2.jpg,https://telecube.jp/wp/wp-content/uploads/2021/01/triton-square-x-2f-3.jpg,https://telecube.jp/wp/wp-content/uploads/2021/01/triton-square-x-2f.png,平日,土曜日,,,朝7時から,,週末価格,"トリトンスクエア オフィスタワー Ｘ棟,トリトンスクエア オフィスタワー エックストウ,75-01,75-02,晴海アイランド トリトンスクエア,ハルミアイランド トリトンスクエア,勝どき駅,都営地下鉄,大江戸線,東京,中央区,電源(コンセント / USB),WiFi（ブース内 or 施設内）,スマホスタンド, GBP",35.65642596,139.7824381,76,https://telecube.jp/location/triton-square-x-2f/,https://telecube.jp/wp/wp-content/uploads/2021/01/triton-square-x-2f-4.jpg,,,,,,,https://telecube.jp/wp/wp-content/uploads/2021/01/triton-square-x-2f-5.jpg,,,,,
1864,イトーヨーカドー立場店　2階,イトーヨーカドー タテバテン,神奈川県横浜市泉区中田西1-1-15,横浜市営地下鉄ブルーライン「立場駅」より徒歩１分,※徒歩時間は施設までの時間であり、テレキューブまでの時間ではありませんのでご注意ください,,,,平日土日祝 9:00-21:00,1人用：2台,立場駅,"・24時間連続換気ファン<br />
・WiFi<br />
・スマホスタンド<br />
※このブースは、ビルにて空調管理がされているため、エアコンを設置しておりません。<br />
<br />
※WiFiについて<br />
LTE回線を利用したベストエフォートでの提供となり、時間帯によっては十分な速度が出ない可能性がございます。大事な会議や面接でご利用の際には、代替通信手段のご用意をお願いいたします。<br />
","<iframe src=""https://www.google.com/maps/embed?pb=!1m18!1m12!1m3!1d3251.671228934158!2d139.49849421472013!3d35.41339898025765!2m3!1f0!2f0!3f0!3m2!1i1024!2i768!4f13.1!3m3!1m2!1s0x601850e9cfc84b2f%3A0x1db429c2e2c31c4b!2z44Kk44OI44O844Oo44O844Kr44OJ44O8IOeri-WgtOW6lw!5e0!3m2!1sja!2sjp!4v1609263399589!5m2!1sja!2sjp"" width=""600"" height=""450"" frameborder=""0"" style=""border:0;"" allowfullscreen="""" aria-hidden=""false"" tabindex=""0""></iframe>",https://telecube.jp/wp/wp-content/uploads/2020/12/itoyokado-tateba-2f-1.jpg,https://telecube.jp/wp/wp-content/uploads/2020/12/itoyokado-tateba-2f-2.jpg,https://telecube.jp/wp/wp-content/uploads/2020/12/itoyokado-tateba-2f-3.jpg,https://telecube.jp/wp/wp-content/uploads/2020/12/itoyokado-tateba-2f.png,平日,土曜日,日曜日,祝日,夜21時まで,,週末価格,"イトーヨーカドー 立場店,イトーヨーカドー タテバテン,83-01,83-02,立場駅,ブルーライン,神奈川県,横浜市,電源(コンセント / USB),WiFi（ブース内 or 施設内）,スマホスタンド, GBP",35.4131326,139.5004829,77,https://telecube.jp/location/itoyokado-tateba-2f/,https://telecube.jp/wp/wp-content/uploads/2020/12/itoyokado-tateba-2f-4.jpg,,,,,,,https://telecube.jp/wp/wp-content/uploads/2020/12/itoyokado-tateba-2f-5.jpg,https://telecube.jp/wp/wp-content/uploads/2020/12/itoyokado-tateba-2f-6.jpg,,,,
1852,セブン‐イレブン 飯田橋升本ビル店,セブンイレブン イイダバシマスモトビルテン,東京都新宿区揚場町1-21,東京メトロ　南北線・東西線・有楽町線「飯田橋駅」より徒歩3分,都営地下鉄　大江戸線「飯田橋駅」より徒歩3分,JR中央・総武線「飯田橋駅」から徒歩4分,,,平日土日祝 7:00-21:00,1人用：1台,飯田橋駅,"・24時間連続換気ファン<br />
・WiFi<br />
・スマホスタンド<br />
※このブースは、店舗にて空調管理がされているため、エアコンを設置しておりません。<br />
<br />
※WiFiについて<br />
LTE回線を利用したベストエフォートでの提供となり、時間帯によっては十分な速度が出ない可能性がございます。大事な会議や面接でご利用の際には、代替通信手段のご用意をお願いいたします。","<iframe src=""https://www.google.com/maps/embed?pb=!1m18!1m12!1m3!1d3239.9990219675306!2d139.74105681473003!3d35.70164168018952!2m3!1f0!2f0!3f0!3m2!1i1024!2i768!4f13.1!3m3!1m2!1s0x60188c44de7b4fc1%3A0x5bcc324e93a7a8ec!2z44K744OW44OzLeOCpOODrOODluODsyDpo6_nlLDmqYvljYfmnKzjg5Pjg6vlupc!5e0!3m2!1sja!2sjp!4v1609221082521!5m2!1sja!2sjp"" width=""600"" height=""450"" frameborder=""0"" style=""border:0;"" allowfullscreen="""" aria-hidden=""false"" tabindex=""0""></iframe>",https://telecube.jp/wp/wp-content/uploads/2020/12/seven-eleven-iidabashi-masumoto-bld-1f-1.jpg,https://telecube.jp/wp/wp-content/uploads/2020/12/seven-eleven-iidabashi-masumoto-bld-1f-2.jpg,https://telecube.jp/wp/wp-content/uploads/2020/12/seven-eleven-iidabashi-masumoto-bld-1f-3.jpg,https://telecube.jp/wp/wp-content/uploads/2020/12/seven-eleven-iidabashi-masumoto-bld..png,平日,土曜日,日曜日,祝日,朝7時から,夜21時まで,週末価格,"セブン‐イレブン 飯田橋升本ビル店,セブンイレブン イイダバシマスモトビルテン,84-01,飯田橋駅,JR東日本,中央線,総武線,東京メトロ,南北線,東西線,都営地下鉄,大江戸線,東京,新宿区,電源(コンセント / USB),WiFi（ブース内 or 施設内）,スマホスタンド,広告掲載, GBP",35.7018333,139.7432938,78,https://telecube.jp/location/seven-eleven-iidabashi-masumoto-bld-1f/,https://telecube.jp/wp/wp-content/uploads/2020/12/seven-eleven-iidabashi-masumoto-bld-1f-4.jpg,,,,,,,https://telecube.jp/wp/wp-content/uploads/2020/12/seven-eleven-iidabashi-masumoto-bld-1f-5.jpg,https://telecube.jp/wp/wp-content/uploads/2020/12/seven-eleven-iidabashi-masumoto-bld-1f-6.jpg,,,,
1832,TWIN21 1階,ツインニジュウイチ,大阪府大阪市中央区城見2丁目1-61,JR「京橋駅」より徒歩6分,京阪電鉄「京橋駅」より徒歩5分,※徒歩時間は施設までの時間であり、テレキューブまでの時間ではありませんのでご注意ください,,,平日土日祝 8:00-21:00,1人用：2台,京橋駅,"・24時間連続換気ファン<br />
・WIFi<br />
・スマホスタンド<br />
※このブースは、ビルにて空調管理がされているため、エアコンを設置しておりません。<br />
<br />
※WiFiについて<br />
LTE回線を利用したベストエフォートでの提供となり、時間帯によっては十分な速度が出ない可能性がございます。大事な会議や面接でご利用の際には、代替通信手段のご用意をお願いいたします。","<iframe src=""https://www.google.com/maps/embed?pb=!1m18!1m12!1m3!1d3280.479434710818!2d135.5289797146961!3d34.69308558043638!2m3!1f0!2f0!3f0!3m2!1i1024!2i768!4f13.1!3m3!1m2!1s0x6000e0d130ddc8e3%3A0x9bc1bf9e3ac9dd57!2sTWIN21!5e0!3m2!1sja!2sjp!4v1609088622130!5m2!1sja!2sjp"" width=""600"" height=""450"" frameborder=""0"" style=""border:0;"" allowfullscreen="""" aria-hidden=""false"" tabindex=""0""></iframe>",https://telecube.jp/wp/wp-content/uploads/2020/12/Twin21-1f-1.jpg,https://telecube.jp/wp/wp-content/uploads/2020/12/Twin21-1f-2.jpg,https://telecube.jp/wp/wp-content/uploads/2020/12/Twin21-1f-3.jpg,https://telecube.jp/wp/wp-content/uploads/2020/12/Twin21-1f.png,平日,土曜日,日曜日,祝日,夜21時まで,,週末価格,"TWIN21,ツインニジュウイチ,73-01,73-02,大阪ビジネスパーク,オオサカビジネスパーク,大阪ビジネスパーク駅,京橋駅,JR西日本,大阪環状線,片町線,学研都市線,東西線,大阪メトロ,長堀鶴見緑地線,京阪電気鉄道,京阪電鉄,大阪府,大阪市,電源(コンセント / USB),WiFi（ブース内 or 施設内）, GBP",34.69254525,135.5313777,75,https://telecube.jp/location/twin21-1f/,https://telecube.jp/wp/wp-content/uploads/2020/12/Twin21-1f-4.jpg,,,,,,,,,,,,
1761,山王グランドビル　1階,サンノウグランドビル,東京都千代田区永田町２－１４－２,東京メトロ銀座線、丸ノ内線「赤坂見附駅」より徒歩１分,東京メトロ半蔵門線、有楽町線、南北線「永田町駅」より徒歩３分,※徒歩時間は施設までの時間であり、テレキューブまでの時間ではありませんのでご注意ください,,,平日 8:00-21:00 / 土 8:00-15:00,1人用：2台,赤坂見附駅・永田町駅,"・24時間連続換気ファン<br />
・WiFi<br />
※このブースは、ビルにて空調管理がされているため、エアコンを設置しておりません。<br />
<br />
※WiFiについて<br />
LTE回線を利用したベストエフォートでの提供となり、時間帯によっては十分な速度が出ない可能性がございます。大事な会議や面接でご利用の際には、代替通信手段のご用意をお願いいたします。","<iframe src=""https://www.google.com/maps/embed?pb=!1m18!1m12!1m3!1d3241.0207655422946!2d139.73611011472906!3d35.676490680195414!2m3!1f0!2f0!3f0!3m2!1i1024!2i768!4f13.1!3m3!1m2!1s0x60188c78c2e0af59%3A0x601e6833ebaea792!2z44CSMTAwLTAwMTQg5p2x5Lqs6YO95Y2D5Luj55Sw5Yy65rC455Sw55S677yS5LiB55uu77yR77yU4oiS77ySIOWxseeOi-OCsOODqeODs-ODieODk-ODqw!5e0!3m2!1sja!2sjp!4v1607276521797!5m2!1sja!2sjp"" width=""600"" height=""450"" frameborder=""0"" style=""border:0;"" allowfullscreen="""" aria-hidden=""false"" tabindex=""0""></iframe>",https://telecube.jp/wp/wp-content/uploads/2020/12/sanno-grand-bld-1f-1.jpg,https://telecube.jp/wp/wp-content/uploads/2020/12/sanno-grand-bld-1f-2.jpg,https://telecube.jp/wp/wp-content/uploads/2020/12/sanno-grand-bld-1f-3.jpg,https://telecube.jp/wp/wp-content/uploads/2020/12/sanno-grand-bld-1f.png,平日,土曜日,,,夜21時まで,,週末価格,"山王グランドビル,サンノウグランドビル,64-01,64-02,赤坂見附駅,永田町駅,東京メトロ,半蔵門線,南北線,東京,千代田区,電源(コンセント / USB),WiFi（ブース内 or 施設内）, GBP",35.6764465,139.7382184,73,https://telecube.jp/location/sanno-grand-bld-1f/,https://telecube.jp/wp/wp-content/uploads/2020/12/sanno-grand-bld-1f-4.jpg,,,,,,,,,,,,
1756,毎日インテシオ,マイニチインテシオ,大阪府大阪市北区梅田3-4-5,JR大阪駅 桜橋口 徒歩8分,JR福島駅 徒歩5分,※徒歩時間は施設までの時間であり、テレキューブまでの時間ではありませんのでご注意ください,,,平日土日祝 8:00-21:00,1人用：1台,大阪駅・福島駅,"・24時間連続換気ファン<br />
・WIFi<br />
・スマホスタンド<br />
※このブースは、ビルにて空調管理がされているため、エアコンを設置しておりません。<br />
<br />
※WiFiについて<br />
LTE回線を利用したベストエフォートでの提供となり、時間帯によっては十分な速度が出ない可能性がございます。大事な会議や面接でご利用の際には、代替通信手段のご用意をお願いいたします。","<iframe src=""https://www.google.com/maps/embed?pb=!1m18!1m12!1m3!1d3280.271162058994!2d135.48812981469615!3d34.69833998043508!2m3!1f0!2f0!3f0!3m2!1i1024!2i768!4f13.1!3m3!1m2!1s0x6000e68b1a4b8f8b%3A0x8f55f64b97baf656!2z5q-O5pel44Kk44Oz44OG44K344Kq!5e0!3m2!1sja!2sjp!4v1607064697369!5m2!1sja!2sjp"" width=""600"" height=""450"" frameborder=""0"" style=""border:0;"" allowfullscreen="""" aria-hidden=""false"" tabindex=""0""></iframe>",https://telecube.jp/wp/wp-content/uploads/2020/12/mainichi-intecio-2f-1.jpg,https://telecube.jp/wp/wp-content/uploads/2020/12/mainichi-intecio-2f-2.jpg,https://telecube.jp/wp/wp-content/uploads/2020/12/mainichi-intecio-2f-3.jpg,https://telecube.jp/wp/wp-content/uploads/2020/12/mainichi-intecio-2f.png,平日,土曜日,日曜日,祝日,夜21時まで,,週末価格,"毎日インテシオ,マイニチインテシオ,76-01,大阪駅,福島駅,新福島駅,JR西日本,大阪環状線,東西線,東海道本線,福知山線,宝塚線,阪神電気鉄道,阪神電鉄,阪神電車,大阪府,大阪市,電源(コンセント / USB),WiFi（ブース内 or 施設内）, GBP",34.69834,135.4903185,72,https://telecube.jp/location/mainichi-intecio-2f/,https://telecube.jp/wp/wp-content/uploads/2020/12/mainichi-intecio-2f-4.jpg,,,,,,,https://telecube.jp/wp/wp-content/uploads/2020/12/mainichi-intecio-2f-6.jpg,,,,,
1748,ポンテポルタ千住 3階,ポンテポルタセンジュ,東京都足立区千住橋戸町1番地13,京成本線 千住大橋駅　徒歩１分,※徒歩時間は施設までの時間であり、テレキューブまでの時間ではありませんのでご注意ください,,,,平日土日祝 10:00-21:00,1人用：2台,千住大橋駅,"・24時間連続換気ファン<br />
・WiFi<br />
・スマホスタンド<br />
※このブースは、ビルにて空調管理がされているため、エアコンを設置しておりません。<br />
<br />
※WiFiについて<br />
LTE回線を利用したベストエフォートでの提供となり、時間帯によっては十分な速度が出ない可能性がございます。大事な会議や面接でご利用の際には、代替通信手段のご用意をお願いいたします。","<iframe src=""https://www.google.com/maps/embed?pb=!1m18!1m12!1m3!1d3238.349364003235!2d139.79336051473146!3d35.74221688018014!2m3!1f0!2f0!3f0!3m2!1i1024!2i768!4f13.1!3m3!1m2!1s0x60188e5d18fabab7%3A0x478b6d46fe03ba82!2z44Od44Oz44OG44Od44Or44K_IOWNg-S9jw!5e0!3m2!1sja!2sjp!4v1607035196314!5m2!1sja!2sjp"" width=""600"" height=""450"" frameborder=""0"" style=""border:0;"" allowfullscreen="""" aria-hidden=""false"" tabindex=""0""></iframe>",https://telecube.jp/wp/wp-content/uploads/2020/12/ponteporta-3f-1.jpg,https://telecube.jp/wp/wp-content/uploads/2020/12/ponteporta-3f-2.jpg,https://telecube.jp/wp/wp-content/uploads/2020/12/ponteporta-3f-3.jpg,https://telecube.jp/wp/wp-content/uploads/2020/12/ponteporta-3f.png,平日,土曜日,日曜日,祝日,夜21時まで,,週末価格,"ポンテポルタ千住,ポンテポルタセンジュ,69-01,69-02,千住大橋駅,京成電鉄,本線,東京,足立区,電源(コンセント / USB),WiFi（ブース内 or 施設内）,スマホスタンド, GBP",35.7425311,139.7953256,71,https://telecube.jp/location/ponteporta-3f/,,,,,,,,,,,,,
1737,鉄鋼ビル　地下1階,テッコウビルディング,東京都千代田区丸の内1丁目8番2号,JR東京駅　八重洲北口　徒歩2分,JR東京駅　日本橋口　徒歩2分,東京メトロ　東西線、丸の内線、半蔵門線、千代田線、都営三田線　大手町駅 B10出口直結,東京メトロ　東西線、銀座線　日本橋口　A3出口より　徒歩3分,都営浅草線　日本橋口　A3出口より　徒歩3分,平日土日祝 7:00-21:00,1人用：2台,東京駅・大手町駅,"・24時間連続換気ファン<br />
・WiFi<br />
※このブースは、ビルにて空調管理がされているため、エアコンを設置しておりません。<br />
<br />
※WiFiについて<br />
LTE回線を利用したベストエフォートでの提供となり、時間帯によっては十分な速度が出ない可能性がございます。大事な会議や面接でご利用の際には、代替通信手段のご用意をお願いいたします。","<iframe src=""https://www.google.com/maps/embed?pb=!1m18!1m12!1m3!1d3240.7510885035454!2d139.76805111472936!3d35.68313048019386!2m3!1f0!2f0!3f0!3m2!1i1024!2i768!4f13.1!3m3!1m2!1s0x60188bfe800fd241%3A0x1f4f8b9bf30e7cdb!2z5p2x5Lqs6YO95Y2D5Luj55Sw5Yy6IOmJg-mLvOODk-ODq-ODh-OCpOODs-OCsA!5e0!3m2!1sja!2sjp!4v1606957949573!5m2!1sja!2sjp"" width=""600"" height=""450"" frameborder=""0"" style=""border:0;"" allowfullscreen="""" aria-hidden=""false"" tabindex=""0""></iframe>",https://telecube.jp/wp/wp-content/uploads/2020/12/tekko-bld-b1f-2.jpg,https://telecube.jp/wp/wp-content/uploads/2020/12/tekko-bld-b1f-3.jpg,https://telecube.jp/wp/wp-content/uploads/2020/12/tekko-bld-b1f-4.jpg,https://telecube.jp/wp/wp-content/uploads/2020/12/tekkobuilding_gain_new_floormap.png,平日,土曜日,日曜日,祝日,朝7時から,夜21時まで,週末価格,"鉃鋼ビルディング,テッコウビルディング,鉄鋼ビルディング,72-01,東京駅,大手町駅,日本橋駅,JR東日本,山手線,京浜東北線,中央線,東海道線,横須賀線,総武線,京葉線,東京メトロ,東西線,千代田線,半蔵門線,都営地下鉄,東京,千代田区,電源(コンセント / USB),WiFi（ブース内 or 施設内）,スマホスタンド,ソニー生命, GBP",35.6823037,139.7697832,69,https://telecube.jp/location/tekko-bld-b1f/,https://telecube.jp/wp/wp-content/uploads/2020/12/tekko-bld-b1f-5.jpg,※徒歩時間は施設までの時間であり、テレキューブまでの時間ではありませんのでご注意ください,,,,,,https://telecube.jp/wp/wp-content/uploads/2020/12/tekkobuilding_gain.jpg,,,,,
1726,d garden東梅田店（ドコモショップ東梅田店 ） ,ディー ガーデン ヒガシウメダテン,大阪府大阪市北区曾根崎2-12-7　清和梅田ビルB1階,谷町線「東梅田」駅の2番出口直結,※徒歩時間は施設までの時間であり、テレキューブまでの時間ではありませんのでご注意ください,,,,平日土日祝 10:00-19:00,1人用：2台,東梅田駅,"・24時間連続換気ファン<br />
・WiFi (ショップ提供)<br />
・スマホスタンド<br />
※このブースは、ビルにて空調管理がされているため、エアコンを設置しておりません。<br />
<br />
※WiFiについて<br />
WiFiはショップにて提供されております。利用についてはショップにお問い合わせください。","<iframe src=""https://www.google.com/maps/embed?pb=!1m18!1m12!1m3!1d3280.1555704086563!2d135.4976440146964!3d34.70125588043432!2m3!1f0!2f0!3f0!3m2!1i1024!2i768!4f13.1!3m3!1m2!1s0x6000e6eccd580381%3A0x774659ca29fbbc36!2z44CSNTMwLTAwNTcg5aSn6Ziq5bqc5aSn6Ziq5biC5YyX5Yy65pu-5qC55bSO77yS5LiB55uu77yR77yS4oiS77yX!5e0!3m2!1sja!2sjp!4v1606757884066!5m2!1sja!2sjp"" width=""600"" height=""450"" frameborder=""0"" style=""border:0;"" allowfullscreen="""" aria-hidden=""false"" tabindex=""0""></iframe>",https://telecube.jp/wp/wp-content/uploads/2020/12/d-garden-higashi-umeda-1.jpg,https://telecube.jp/wp/wp-content/uploads/2020/12/d-garden-higashi-umeda-2.jpg,,https://telecube.jp/wp/wp-content/uploads/2020/12/dgarden_Higashi.Umada_.png,平日,土曜日,日曜日,祝日,,,週末価格,"d garden 東梅田店,ディー ガーデン ヒガシウメダテン,70-01,70-02,ドコモショップ 東梅田店,ドコモショップ ヒガシウメダテン,東梅田駅,大阪メトロ,谷町線,大阪府,大阪市,電源(コンセント / USB),WiFi（ブース内 or 施設内）,スマホスタンド, GBP",34.7012408,135.4997842,70,https://telecube.jp/location/d-garden-higashi-umeda/,,,,,,,,,,,,,
1706,二番町センタービル　1階,ニバンチョウセンタービル,東京都千代田区二番町5-25,東京メトロ有楽町線「麹町駅」より徒歩２分,※徒歩時間は施設までの時間であり、テレキューブまでの時間ではありませんのでご注意ください,,,,平日 8:00-19:00,1人用：2台,麴町駅,"・24時間連続換気ファン<br />
・WiFi<br />
・スマホスタンド<br />
※このブースは、ビルにて空調管理がされているため、エアコンを設置しておりません。<br />
<br />
※WiFiについて<br />
LTE回線を利用したベストエフォートでの提供となり、時間帯によっては十分な速度が出ない可能性がございます。大事な会議や面接でご利用の際には、代替通信手段のご用意をお願いいたします。","<iframe src=""https://www.google.com/maps/embed?pb=!1m18!1m12!1m3!1d3240.6584188597094!2d139.73403451472942!3d35.68541188019335!2m3!1f0!2f0!3f0!3m2!1i1024!2i768!4f13.1!3m3!1m2!1s0x60188c639dd513e5%3A0x85a911efdd611d49!2z44CSMTAyLTAwODQg5p2x5Lqs6YO95Y2D5Luj55Sw5Yy65LqM55Wq55S677yV4oiS77yS77yVIOS6jOeVqueUuuOCu-ODs-OCv-ODvOODk-ODqw!5e0!3m2!1sja!2sjp!4v1605568145190!5m2!1sja!2sjp"" width=""600"" height=""450"" frameborder=""0"" style=""border:0;"" allowfullscreen="""" aria-hidden=""false"" tabindex=""0""></iframe>",https://telecube.jp/wp/wp-content/uploads/2020/11/nibancho-centre-bld-1f-1.jpg,https://telecube.jp/wp/wp-content/uploads/2020/11/nibancho-centre-bld-1f-2.jpg,https://telecube.jp/wp/wp-content/uploads/2020/11/nibancho-centre-bld-1f-3.jpg,https://telecube.jp/wp/wp-content/uploads/2020/11/nibancho-centre-bld-1f.png,平日,,,,,,,"二番町センタービル,ニバンチョウセンタービル,68-01,68-02,麹町駅,東京メトロ,東京,千代田区,電源(コンセント / USB),WiFi（ブース内 or 施設内）,スマホスタンド, GBP",35.68579181,139.7360387,68,https://telecube.jp/location/nibancho-centre-bld-1f/,https://telecube.jp/wp/wp-content/uploads/2020/11/nibancho-centre-bld-1f-4.jpg,,,,,,,,,,,,
1669,赤坂パークビル　２階,アカサカパークビル,東京都港区赤坂５丁目２−２０,東京メトロ千代田線「赤坂駅」より徒歩５分,東京メトロ丸ノ内線、銀座線「赤坂見附駅」より徒歩１０分  ,※徒歩時間は施設までの時間であり、テレキューブまでの時間ではありませんのでご注意ください,,,平日土日祝 8:00-21:00,1人用：1台,赤坂見附駅・赤坂駅,"・24時間連続換気ファン<br />
・WiFi<br />
※このブースは、ビルにて空調管理がされているため、エアコンを設置しておりません。<br />
<br />
※WiFiについて<br />
LTE回線を利用したベストエフォートでの提供となり、時間帯によっては十分な速度が出ない可能性がございます。大事な会議や面接でご利用の際には、代替通信手段のご用意をお願いいたします。","<iframe src=""https://www.google.com/maps/embed?pb=!1m18!1m12!1m3!1d3241.1946244075625!2d139.73116081472898!3d35.67220948019643!2m3!1f0!2f0!3f0!3m2!1i1024!2i768!4f13.1!3m3!1m2!1s0x60188b8075143d9f%3A0xdcf582e66fbf745f!2z6LWk5Z2C44OR44O844Kv44OT44Or!5e0!3m2!1sja!2sjp!4v1604873863199!5m2!1sja!2sjp"" width=""600"" height=""450"" frameborder=""0"" style=""border:0;"" allowfullscreen="""" aria-hidden=""false"" tabindex=""0""></iframe>",https://telecube.jp/wp/wp-content/uploads/2020/11/akasaka-park-bld-2f-1.jpg,,,https://telecube.jp/wp/wp-content/uploads/2020/11/akasaka-park-bld-2f.png,平日,土曜日,日曜日,祝日,夜21時まで,,週末価格,"赤坂パークビル,アカサカパークビル,44-01,赤坂駅,赤坂見附駅,東京メトロ,千代田線,東京,港区,電源(コンセント / USB),WiFi（ブース内 or 施設内）, GBP",35.6722095,139.7333495,66,https://telecube.jp/location/akasaka-park-bld-2f/,,,,,,,,,,,,,
1627,TIXTOWER UENO　3階,ティックスタワー ウエノ,東京都台東区東上野4-8-1,東京メトロ日比谷・銀座線「上野駅」より徒歩3分,JR「上野駅」（入谷口）より徒歩2分,※徒歩時間は施設までの時間であり、テレキューブまでの時間ではありませんのでご注意ください,,,平日 8:00-20:00,1人用：2台,上野駅,"・24時間稼働換気ファン<br />
・WiFi<br />
・スマホスタンド<br />
※このブースは、ビルにて空調管理がされているため、エアコンを設置しておりません。<br />
<br />
※WiFiについて<br />
LTE回線を利用したベストエフォートでの提供となり、時間帯によっては十分な速度が出ない可能性がございます。大事な会議や面接でご利用の際には、代替通信手段のご用意をお願いいたします。","<iframe src=""https://www.google.com/maps/embed?pb=!1m18!1m12!1m3!1d3239.5301662866727!2d139.7771575147304!3d35.713177780186896!2m3!1f0!2f0!3f0!3m2!1i1024!2i768!4f13.1!3m3!1m2!1s0x60188e996af5c045%3A0x8f1a4e9712b1b230!2z44CSMTEwLTAwMTUg5p2x5Lqs6YO95Y-w5p2x5Yy65p2x5LiK6YeO77yU5LiB55uu77yY4oiS77yRIOODhuOCo-ODg-OCr-OCueOCv-ODr-ODvOS4iumHjg!5e0!3m2!1sja!2sjp!4v1603151922753!5m2!1sja!2sjp"" width=""600"" height=""450"" frameborder=""0"" style=""border:0;"" allowfullscreen="""" aria-hidden=""false"" tabindex=""0""></iframe>",https://telecube.jp/wp/wp-content/uploads/2020/10/tixtower-ueno-3f-1.jpg,https://telecube.jp/wp/wp-content/uploads/2020/10/tixtower-ueno-3f-2.jpg,https://telecube.jp/wp/wp-content/uploads/2020/10/tixtower-ueno-3f-3.jpg,https://telecube.jp/wp/wp-content/uploads/2020/10/TIXTOWER-UENO.png,平日,,,,,,,"TIXTOWER UENO,ティックスタワー ウエノ,60-01,60-02,上野駅,JR東日本,山手線,京浜東北線 ,常磐線,宇都宮線,高崎線,東京メトロ,東京,台東区,電源(コンセント / USB),WiFi（ブース内 or 施設内）,スマホスタンド, GBP",35.71344026,139.7793832,63,https://telecube.jp/location/tixtower-ueno-3f/,https://telecube.jp/wp/wp-content/uploads/2020/10/tixtower-ueno-3f-5.jpg,,,,,,,,,,,,
1549,新大手町ビル　１階,シンオオテマチビルヂング,東京都千代田区大手町２丁目２−１,東京メトロ各線　大手町駅B3出口直結,※徒歩時間は施設までの時間であり、テレキューブまでの時間ではありませんのでご注意ください,,,,平日 8:00-21:00 / 土8:00-18:00,1人用：2台,大手町駅・東京駅,"・24時間連続換気<br />
・WiFi<br />
・スマホスタンド<br />
・WEB-MTG用LED照明（2号機のみ）<br />
・モニター（HDMI対応）（2号機のみ）<br />
※このブースは、ビルにて空調管理がされているため、エアコンを設置しておりません。<br />
<br />
※WiFiについて<br />
LTE回線を利用したベストエフォートでの提供となり、時間帯によっては十分な速度が出ない可能性がございます。大事な会議や面接でご利用の際には、代替通信手段のご用意をお願いいたします。","<iframe src=""https://www.google.com/maps/embed?pb=!1m18!1m12!1m3!1d991.8721736432863!2d139.76662684329284!3d35.68509319725142!2m3!1f0!2f0!3f0!3m2!1i1024!2i768!4f13.1!3m3!1m2!1s0x60188bf8cf593ccb%3A0x204f5a366827648a!2z44CSMTAwLTAwMDQg5p2x5Lqs6YO95Y2D5Luj55Sw5Yy65aSn5omL55S677yS5LiB55uu77yS4oiS77yRIOaWsOWkp-aJi-eUuuODk-ODq-ODguODs-OCsA!5e0!3m2!1sja!2sjp!4v1623419187859!5m2!1sja!2sjp"" width=""600"" height=""450"" style=""border:0;"" allowfullscreen="""" loading=""lazy""></iframe>",https://telecube.jp/wp/wp-content/uploads/2020/10/Shin-otemachi-bld-1f-1.jpg,https://telecube.jp/wp/wp-content/uploads/2020/10/Shin-otemachi-bld-1f-2.jpg,https://telecube.jp/wp/wp-content/uploads/2020/10/Shin-otemachi-bld-1f-3.jpg,https://telecube.jp/wp/wp-content/uploads/2020/10/shin-otemachi-bld-1f.png,平日,土曜日,,,夜21時まで,,週末価格,"新大手町ビルヂング,シンオオテマチビルヂング,58-01,58-02,大手町駅,東京メトロ,東西線,千代田線,半蔵門線,東京,千代田区,電源(コンセント / USB),WiFi（ブース内 or 施設内）,スマホスタンド,WEB会議照明,広告掲載,ソニー生命, GBP",35.6849169,139.7671082,61,https://telecube.jp/location/shin-otemachi-bld-1f/,,,,,,,,,,,,,
1546,クイーンズタワー　A棟2階,クイーンズタワー エートウ,神奈川県横浜市西区みなとみらい２－３－１,ＪＲ、東急東横線、市営地下鉄「桜木町駅」より徒歩８分,みなとみらい線「みなとみらい駅」直結,※徒歩時間は施設までの時間であり、テレキューブまでの時間ではありませんのでご注意ください,,,平日土日祝 8:00-21:00,1人用：2台,桜木町駅・みなとみらい駅,"・24時間連続換気<br />
・WiFi<br />
・スマホスタンド<br />
※このブースは、ビルにて空調管理がされているため、エアコンを設置しておりません。<br />
<br />
※WiFiについて<br />
LTE回線を利用したベストエフォートでの提供となり、時間帯によっては十分な速度が出ない可能性がございます。大事な会議や面接でご利用の際には、代替通信手段のご用意をお願いいたします。","<iframe src=""https://www.google.com/maps/embed?pb=!1m18!1m12!1m3!1d3249.9589584163878!2d139.63094721472157!3d35.45581048024754!2m3!1f0!2f0!3f0!3m2!1i1024!2i768!4f13.1!3m3!1m2!1s0x60185c5cf81dc003%3A0xbc2103dc176a2d2!2z44Kv44Kk44O844Oz44K644K_44Ov44O8QQ!5e0!3m2!1sja!2sjp!4v1602028998634!5m2!1sja!2sjp"" width=""600"" height=""450"" frameborder=""0"" style=""border:0;"" allowfullscreen="""" aria-hidden=""false"" tabindex=""0""></iframe>",https://telecube.jp/wp/wp-content/uploads/2020/10/queentower-a-2f-4.jpg,https://telecube.jp/wp/wp-content/uploads/2020/10/queentower-a-2f-1.jpg,https://telecube.jp/wp/wp-content/uploads/2020/10/queentower-a-2f-2.jpg,https://telecube.jp/wp/wp-content/uploads/2020/10/queenstower-a-2f.png,平日,土曜日,日曜日,祝日,夜21時まで,,週末価格,"クイーンズタワー A棟,クイーンズタワー エートウ,62-01,62-02,クイーンズスクエア横浜,クイーンズスクエアヨコハマ,桜木町駅,みなとみらい駅,JR東日本,根岸線,京浜東北線,ブルーライン,神奈川県,横浜市,電源(コンセント / USB),WiFi（ブース内 or 施設内）,スマホスタンド,エアコン（ブース内 or 施設内）,ソニー生命, GBP",35.4556698,139.6330625,62,https://telecube.jp/location/queenstower-a-2f/,https://telecube.jp/wp/wp-content/uploads/2020/10/queentower-a-2f-3.jpg,,,,,,,https://telecube.jp/wp/wp-content/uploads/2020/10/queentower-a-2f-5.jpg,https://telecube.jp/wp/wp-content/uploads/2020/10/queentower-a-2f-6.jpg,,,,
1492,二番町ガーデン　2階　エントランス,ニバンチョウガーデン,東京都千代田区二番町８－８,ＪＲ、東京メトロ丸ノ内線・南北線「四ツ谷駅」より徒歩４分,※徒歩時間は施設までの時間であり、テレキューブまでの時間ではありませんのでご注意ください,,,,平日 8:00-19:00　※セブン＆アイHLDGS特別休日は営業無し,1人用：2台,四ツ谷駅,"・24時間稼働換気ファン<br />
・エアコン<br />
・WiFi<br />
<br />
※WiFiについて<br />
LTE回線を利用したベストエフォートでの提供となり、時間帯によっては十分な速度が出ない可能性がございます。大事な会議や面接でご利用の際には、代替通信手段のご用意をお願いいたします。","<iframe src=""https://www.google.com/maps/embed?pb=!1m18!1m12!1m3!1d3240.6408584108412!2d139.73185711472948!3d35.68584418019321!2m3!1f0!2f0!3f0!3m2!1i1024!2i768!4f13.1!3m3!1m2!1s0x60188c6237b6a519%3A0x3ea04472a511e5ff!2z44CSMTAyLTAwODQg5p2x5Lqs6YO95Y2D5Luj55Sw5Yy65LqM55Wq55S677yY4oiS77yY!5e0!3m2!1sja!2sjp!4v1600899328101!5m2!1sja!2sjp"" width=""600"" height=""450"" frameborder=""0"" style=""border:0;"" allowfullscreen="""" aria-hidden=""false"" tabindex=""0""></iframe>",https://telecube.jp/wp/wp-content/uploads/2020/09/nibancho-garden-2f-3.jpg,https://telecube.jp/wp/wp-content/uploads/2020/09/nibancho-garden-2f-2.jpg,https://telecube.jp/wp/wp-content/uploads/2020/09/nibancho-garden-2f-1.jpg,https://telecube.jp/wp/wp-content/uploads/2020/09/nibancho-garden-2f.png,平日,,,,,,,"二番町ガーデン,ニバンチョウガーデン,57-01,57-02,四ツ谷駅,麹町駅,JR東日本,中央線,総武線,東京メトロ,南北線,東京,千代田区,電源(コンセント / USB),WiFi（ブース内 or 施設内）,エアコン（ブース内 or 施設内）, GBP",35.6858442,139.7340458,60,https://telecube.jp/location/nibancho-garden-2f/,,,,,,,,,,,,,
1482,日比谷マリンビル　Ｂ２階,ヒビヤマリンビル,東京都千代田区有楽町１丁目５−１,東京メトロ　日比谷線、千代田線日比谷駅　Ａ９出口　徒歩１分,都営地下鉄　日比谷駅　Ａ９出口　徒歩１分,東京メトロ　有楽町線有楽町駅　Ａ９出口　徒歩３分,ＪＲ　有楽町駅　徒歩５分,※徒歩時間は施設までの時間であり、テレキューブまでの時間ではありませんのでご注意ください,平日土日祝 8:00-21:00,1人用：2台,日比谷駅・有楽町駅,"・24時間稼働換気ファン<br />
・エアコン<br />
・WiFi<br />
<br />
※WiFiについて<br />
LTE回線を利用したベストエフォートでの提供となり、時間帯によっては十分な速度が出ない可能性がございます。大事な会議や面接でご利用の際には、代替通信手段のご用意をお願いいたします。","<iframe src=""https://www.google.com/maps/embed?pb=!1m18!1m12!1m3!1d3241.1022392649215!2d139.75750961472914!3d35.67448448019585!2m3!1f0!2f0!3f0!3m2!1i1024!2i768!4f13.1!3m3!1m2!1s0x60188bf1d6b68461%3A0x85bc0bd6c2ac90a9!2z44CSMTAwLTAwMDYg5p2x5Lqs6YO95Y2D5Luj55Sw5Yy65pyJ5qW955S677yR5LiB55uu77yV4oiS77yR!5e0!3m2!1sja!2sjp!4v1600375255283!5m2!1sja!2sjp"" width=""600"" height=""450"" frameborder=""0"" style=""border:0;"" allowfullscreen="""" aria-hidden=""false"" tabindex=""0""></iframe>",https://telecube.jp/wp/wp-content/uploads/2020/09/hibiya-marine-b2f-1.jpg,https://telecube.jp/wp/wp-content/uploads/2020/09/hibiya-marine-b2f-2.jpg,https://telecube.jp/wp/wp-content/uploads/2020/09/hibiya-marine-b2f-3.jpg,https://telecube.jp/wp/wp-content/uploads/2020/09/hibiya-marine-bld-B2f.png,平日,土曜日,日曜日,祝日,夜21時まで,,週末価格,"日比谷マリンビル,ヒビヤマリンビル,55-01,55-02,日比谷駅,銀座駅,有楽町駅,JR東日本,山手線,京浜東北線,東京メトロ,千代田線,都営地下鉄,東京,千代田区,電源(コンセント / USB),WiFi（ブース内 or 施設内）,エアコン（ブース内 or 施設内）, GBP",35.6744845,139.7596983,59,https://telecube.jp/location/hibiya-marine-bld-b2f/,,,,,,,,,,,,,
1448,東京流通センター　センタービル　1階,トウキョウリュウツウセンター センタービル,東京都大田区平和島6-1-1,東京モノレール　流通センター　徒歩１分,※徒歩時間は施設までの時間であり、テレキューブまでの時間ではありませんのでご注意ください,,,,平日土日祝 8:00-21:00,1人用：2台,流通センター駅・羽田,"・24時間稼働換気ファン<br />
・WiFi<br />
※このブースは、ビルにて空調管理がされているため、エアコンを設置しておりません。 <br />
<br />
※WiFiについて<br />
LTE回線を利用したベストエフォートでの提供となり、時間帯によっては十分な速度が出ない可能性がございます。大事な会議や面接でご利用の際には、代替通信手段のご用意をお願いいたします。","<iframe src=""https://www.google.com/maps/embed?pb=!1m18!1m12!1m3!1d3244.888942007795!2d139.74601001472587!3d35.581132880217716!2m3!1f0!2f0!3f0!3m2!1i1024!2i768!4f13.1!3m3!1m2!1s0x601861bc6d4c1369%3A0xc58a8dc36e920fb0!2z44CSMTQzLTAwMDYg5p2x5Lqs6YO95aSn55Sw5Yy65bmz5ZKM5bO277yW5LiB55uu77yRIOadseS6rOa1gemAmuOCu-ODs-OCv-ODvCDjgrvjg7Pjgr_jg7zjg5Pjg6s!5e0!3m2!1sja!2sjp!4v1599169523758!5m2!1sja!2sjp"" width=""600"" height=""450"" frameborder=""0"" style=""border:0;"" allowfullscreen="""" aria-hidden=""false"" tabindex=""0""></iframe>",https://telecube.jp/wp/wp-content/uploads/2020/09/tokyo-ryuutsuu-centre-1f-3.jpg,https://telecube.jp/wp/wp-content/uploads/2020/09/tokyo-ryuutsuu-centre-1f-2.jpg,https://telecube.jp/wp/wp-content/uploads/2020/09/tokyo-ryuutsuu-centre-1f-1.jpg,https://telecube.jp/wp/wp-content/uploads/2020/09/tokyo-ryuutsuu-centre-1f.png,平日,土曜日,日曜日,祝日,夜21時まで,,週末価格,"東京流通センター センタービル,トウキョウリュウツウセンター センタービル,56-01,56-02,流通センター駅,東京モノレール,羽田空港線,東京,大田区,電源(コンセント / USB),WiFi（ブース内 or 施設内）, GBP",35.58133865,139.7480818,57,https://telecube.jp/location/tokyo-ryuutsuu-centre-1f/,,,,,,,,,,,,,
1408,京成電鉄　京成幕張本郷駅　改札内　,ケイセイデンテツ ケイセイマクハリホンゴウエキ,千葉県千葉市花見川区幕張本郷1-1-3,京成電鉄　京成幕張本郷駅　改札内,改札内のため、ご利用には乗車券または入場券の購入が必要となります。,,,,平日土日祝 8:00-21:00,1人用：2台,京成幕張本郷駅,"・24時間稼働換気ファン<br />
・エアコン<br />
・WiFi<br />
・スマホスタンド<br />
<br />
※WiFiについて<br />
LTE回線を利用したベストエフォートでの提供となり、時間帯によっては十分な速度が出ない可能性がございます。大事な会議や面接でご利用の際には、代替通信手段のご用意をお願いいたします。","<iframe src=""https://www.google.com/maps/embed?pb=!1m18!1m12!1m3!1d3241.1854713999523!2d140.0401218147289!3d35.67243488019635!2m3!1f0!2f0!3f0!3m2!1i1024!2i768!4f13.1!3m3!1m2!1s0x602281b92efcc7b1%3A0xe9598afc29a81630!2z44CSMjYyLTAwMzMg5Y2D6JGJ55yM5Y2D6JGJ5biC6Iqx6KaL5bed5Yy65bmV5by15pys6YO377yR5LiB55uu77yR4oiS77yT!5e0!3m2!1sja!2sjp!4v1597952549584!5m2!1sja!2sjp"" width=""600"" height=""450"" frameborder=""0"" style=""border:0;"" allowfullscreen="""" aria-hidden=""false"" tabindex=""0""></iframe>",https://telecube.jp/wp/wp-content/uploads/2020/08/keisei-makuharihongo-5.jpg,https://telecube.jp/wp/wp-content/uploads/2020/08/keisei-makuharihongo-4.jpg,https://telecube.jp/wp/wp-content/uploads/2020/08/keisei-makuharihongo-1.jpg,https://telecube.jp/wp/wp-content/uploads/2020/08/keisei-makuharihongo.png,平日,土曜日,日曜日,祝日,夜21時まで,,週末価格,"京成電鉄 京成幕張本郷駅,ケイセイデンテツ ケイセイマクハリホンゴウエキ,52-01,52-02,京成幕張本郷駅,JR東日本,総武線,京成電鉄,千葉線,千葉県,千葉市,電源(コンセント / USB),WiFi（ブース内 or 施設内）,スマホスタンド,エアコン（ブース内 or 施設内）, GBP",35.6724349,140.0423105,56,https://telecube.jp/location/keisei-makuharihongo/,https://telecube.jp/wp/wp-content/uploads/2020/08/keisei-makuharihongo-2.jpg,,,,,,,https://telecube.jp/wp/wp-content/uploads/2020/08/keisei-makuharihongo-3.jpg,,,,,
1405,京成電鉄　日暮里駅　改札内,ケイセイデンテツ ニッポリエキ,東京都荒川区西日暮里2-19-1,京成電鉄　日暮里駅改札内,改札内のため、ご利用には乗車券または入場券の購入が必要となります。,,,,平日土日祝 8:00-21:00,1人用：2台,日暮里駅,"・24時間稼働換気ファン<br />
・エアコン<br />
・WiFi<br />
・スマホスタンド<br />
<br />
※WiFiについて<br />
LTE回線を利用したベストエフォートでの提供となり、時間帯によっては十分な速度が出ない可能性がございます。大事な会議や面接でご利用の際には、代替通信手段のご用意をお願いいたします。","<iframe src=""https://www.google.com/maps/embed?pb=!1m18!1m12!1m3!1d3851.7740818579146!2d139.76896813904585!3d35.727619896193076!2m3!1f0!2f0!3f0!3m2!1i1024!2i768!4f13.1!3m3!1m2!1s0x60188dd575100fd3%3A0xf48a885df640f2c!2z44CSMTE2LTAwMTMg5p2x5Lqs6YO96I2S5bed5Yy66KW_5pel5pqu6YeM77yS5LiB55uu77yR77yZ4oiS77yR!5e0!3m2!1sja!2sjp!4v1597951755337!5m2!1sja!2sjp"" width=""600"" height=""450"" frameborder=""0"" style=""border:0;"" allowfullscreen="""" aria-hidden=""false"" tabindex=""0""></iframe>",https://telecube.jp/wp/wp-content/uploads/2020/08/keisei-nippori-1.jpg,https://telecube.jp/wp/wp-content/uploads/2020/08/keisei-nippori-2.jpg,,https://telecube.jp/wp/wp-content/uploads/2020/08/keisei-nippori.png,平日,土曜日,日曜日,祝日,夜21時まで,,週末価格,"京成電鉄 日暮里駅,ケイセイデンテツ ニッポリエキ,51-01,51-02,日暮里駅,JR東日本,京浜東北線,山手線,常磐線,京成電鉄,本線,日暮里・舎人ライナー,東京,荒川区,電源(コンセント / USB),WiFi（ブース内 or 施設内）,スマホスタンド,エアコン（ブース内 or 施設内）, GBP",35.7279344,139.7707191,55,https://telecube.jp/location/keisei-nippori/,,,,,,,,,,,,,
1399,京成電鉄　京成船橋駅　2階東口改札外,ケイセイデンテツ ケイセイフナバシエキ,千葉県船橋市本町1-5-1,京成船橋駅　2階東口改札外,,,,,平日土日祝 8:00-21:00,1人用：1台,京成船橋駅,"・24時間稼働換気ファン<br />
・エアコン<br />
・WiFi<br />
・スマホスタンド<br />
<br />
※WiFiについて<br />
LTE回線を利用したベストエフォートでの提供となり、時間帯によっては十分な速度が出ない可能性がございます。大事な会議や面接でご利用の際には、代替通信手段のご用意をお願いいたします。","<iframe src=""https://www.google.com/maps/embed?pb=!1m18!1m12!1m3!1d3240.06151611142!2d139.98334381472998!3d35.70010378018993!2m3!1f0!2f0!3f0!3m2!1i1024!2i768!4f13.1!3m3!1m2!1s0x601880787f0f6411%3A0x70614f1c5add766f!2z44CSMjczLTAwMDUg5Y2D6JGJ55yM6Ii55qmL5biC5pys55S677yR5LiB55uu77yV4oiS77yR!5e0!3m2!1sja!2sjp!4v1597950792889!5m2!1sja!2sjp"" width=""600"" height=""450"" frameborder=""0"" style=""border:0;"" allowfullscreen="""" aria-hidden=""false"" tabindex=""0""></iframe>",https://telecube.jp/wp/wp-content/uploads/2020/08/keisei-funabashi-1.jpg,https://telecube.jp/wp/wp-content/uploads/2020/08/keisei-funabashi-2.jpg,https://telecube.jp/wp/wp-content/uploads/2020/08/keisei-funabashi.jpg,https://telecube.jp/wp/wp-content/uploads/2020/08/京成船橋駅.png,平日,土曜日,日曜日,祝日,夜21時まで,,週末価格,"京成電鉄 京成船橋駅,ケイセイデンテツ ケイセイフナバシエキ,32-01,京成船橋駅,船橋駅,JR東日本,総武線,京成電鉄,本線,東武鉄道,野田線,東武アーバンパークライン,千葉県,船橋市,電源(コンセント / USB),WiFi（ブース内 or 施設内）,スマホスタンド,エアコン（ブース内 or 施設内）, GBP",35.7001038,139.9855325,41,https://telecube.jp/location/keisei-funabashi/,,,,,,,,,,,,,
1380,東宝日比谷ビル（日比谷シャンテ）１階,トウホウヒビヤビル,東京都千代田区有楽町一丁目２番2号,東京メトロ日比谷線・千代田線、都営地下鉄三田線「日比谷駅」A11出口直結徒歩2分,東京メトロ銀座線・丸ノ内線「銀座駅」C1出口より徒歩5分,東京メトロ有楽町線「有楽町駅」より徒歩6分,JR山手線・京浜東北線「有楽町駅」日比谷口より徒歩5分,※徒歩時間は施設までの時間であり、テレキューブまでの時間ではありませんのでご注意ください,平日 8:00-19:00,1人用：1台,日比谷駅・銀座駅・有楽町駅,"・24時間稼働換気ファン<br />
・WiFi<br />
・エアコン<br />
<br />
※WiFiについて<br />
LTE回線を利用したベストエフォートでの提供となり、時間帯によっては十分な速度が出ない可能性がございます。大事な会議や面接でご利用の際には、代替通信手段のご用意をお願いいたします。","<iframe src=""https://www.google.com/maps/embed?pb=!1m18!1m12!1m3!1d3241.1573136077263!2d139.75768851472915!3d35.67312828019615!2m3!1f0!2f0!3f0!3m2!1i1024!2i768!4f13.1!3m3!1m2!1s0x60188bee4afe3ed9%3A0x370cfe81f516e039!2z5pel5q-U6LC344K344Oj44Oz44OG!5e0!3m2!1sja!2sjp!4v1596577211491!5m2!1sja!2sjp"" width=""600"" height=""450"" frameborder=""0"" style=""border:0;"" allowfullscreen="""" aria-hidden=""false"" tabindex=""0""></iframe>",https://telecube.jp/wp/wp-content/uploads/2020/08/toho-hibiya-bls-1f-1.jpg,https://telecube.jp/wp/wp-content/uploads/2020/08/toho-hibiya-bls-1f-2.jpg,,https://telecube.jp/wp/wp-content/uploads/2020/08/toho-hibiya-bld-1f.png,平日,,,,,,,"東宝日比谷ビル,トウホウヒビヤビル,日比谷シャンテ,ヒビヤシャンテ,53-01,日比谷駅,銀座駅,有楽町駅,JR東日本,山手線,京浜東北線,東京メトロ,千代田線,都営地下鉄,東京,千代田区,電源(コンセント / USB),WiFi（ブース内 or 施設内）,エアコン（ブース内 or 施設内）, GBP",35.6730856,139.7598571,54,https://telecube.jp/location/toho-hibiya-bild-1f/,,,,,,,,,,,,,
1373,サンシャイン60ビル　１階　オフィスロビー,サンシャインロクジュウビル,東京都豊島区東池袋３丁目－１,東京メトロ有楽町線　東池袋駅 6・7番出口より徒歩3分,東京メトロ丸の内線・有楽町線・副都心線　池袋駅 35番出口より徒歩8分,JR・西武池袋線・東武東上線 池袋駅 35番出口より徒歩8分,※徒歩時間は施設までの時間であり、テレキューブまでの時間ではありませんのでご注意ください,,平日土日祝日 8:00-21:00,1人用：2台,池袋駅・東池袋駅,"・24時間稼働換気ファン<br />
・WiFi<br />
・スマホスタンド<br />
※このブースは、ビルにて空調管理がされているため、エアコンを設置しておりません。 <br />
<br />
※WiFiについて<br />
LTE回線を利用したベストエフォートでの提供となり、時間帯によっては十分な速度が出ない可能性がございます。大事な会議や面接でご利用の際には、代替通信手段のご用意をお願いいたします。","<iframe src=""https://www.google.com/maps/embed?pb=!1m18!1m12!1m3!1d3238.870662180581!2d139.715954214731!3d35.72939928018308!2m3!1f0!2f0!3f0!3m2!1i1024!2i768!4f13.1!3m3!1m2!1s0x60188d6f170337b7%3A0x69463b52f59bc3d5!2z44CSMTcwLTAwMTMg5p2x5Lqs6YO96LGK5bO25Yy65p2x5rGg6KKL77yT5LiB55uu77yR4oiS77yV!5e0!3m2!1sja!2sjp!4v1596602237147!5m2!1sja!2sjp"" width=""600"" height=""450"" frameborder=""0"" style=""border:0;"" allowfullscreen="""" aria-hidden=""false"" tabindex=""0""></iframe>",https://telecube.jp/wp/wp-content/uploads/2020/08/sunshine-60-bld-1f-2.jpg,https://telecube.jp/wp/wp-content/uploads/2020/08/sunshine-60-bld-1f-3.jpg,https://telecube.jp/wp/wp-content/uploads/2020/08/sunshine-60-bld-1f-1.jpg,https://telecube.jp/wp/wp-content/uploads/2020/08/sunshine-60-bld-1f.png,平日,土曜日,日曜日,祝日,夜21時まで,,週末価格,"サンシャイン６０ビル,サンシャインロクジュウビル,45-01,45-02,東池袋駅,池袋駅,JR東日本,山手線,埼京線,東京メトロ,副都心線,西武鉄道,東武鉄道,東上線,東京,豊島区,電源(コンセント / USB),WiFi（ブース内 or 施設内）,スマホスタンド, GBP",35.72923774,139.7181714,53,https://telecube.jp/location/sunshine-60-bld-1f/,,,,,,,,,,,,,
1303,大名古屋ビルヂング　1階,ダイナゴヤビルヂング,愛知県名古屋市中村区名駅３丁目２８-12,JR/近鉄/名鉄 名古屋駅 徒歩３分　,各地下鉄 名古屋駅 徒歩１分,※徒歩時間は施設までの時間であり、テレキューブまでの時間ではありませんのでご注意ください,,,平日 8:00-21:00,1人用：2台,名古屋駅,"・24時間稼働換気ファン<br />
・WiFi<br />
・スマホスタンド<br />
※このブースは、ビルにて空調管理がされているため、エアコンを設置しておりません。<br />
<br />
※WiFiについて<br />
LTE回線を利用したベストエフォートでの提供となり、時間帯によっては十分な速度が出ない可能性がございます。大事な会議や面接でご利用の際には、代替通信手段のご用意をお願いいたします。","<iframe src=""https://www.google.com/maps/embed?pb=!1m18!1m12!1m3!1d3261.383417466618!2d136.88233961471212!3d35.17199508031611!2m3!1f0!2f0!3f0!3m2!1i1024!2i768!4f13.1!3m3!1m2!1s0x600376dd44211455%3A0xc8fa3bffeadf8d26!2z44CSNDUwLTAwMDIg5oSb55-l55yM5ZCN5Y-k5bGL5biC5Lit5p2R5Yy65ZCN6aeF77yT5LiB55uu77yS77yY4oiS77yR77yS!5e0!3m2!1sja!2sjp!4v1593987841705!5m2!1sja!2sjp"" width=""600"" height=""450"" frameborder=""0"" style=""border:0;"" allowfullscreen="""" aria-hidden=""false"" tabindex=""0""></iframe>",https://telecube.jp/wp/wp-content/uploads/2020/07/dainagoya-bld-1f-1.jpg,https://telecube.jp/wp/wp-content/uploads/2020/07/dainagoya-bld-1f-3.jpg,https://telecube.jp/wp/wp-content/uploads/2020/07/dainagoya-bld-1f-6.jpg,https://telecube.jp/wp/wp-content/uploads/2020/07/dainagoya-bld-1f.png,平日,,,,夜21時まで,,,"大名古屋ビルヂング,ダイナゴヤビルヂング,42-01,42-02,名古屋駅,名鉄名古屋駅,近鉄名古屋駅,JR東海,東海道本線,中央本線,関西本線,名古屋鉄道,名鉄,近畿日本鉄道,名古屋市営地下鉄,東山線,桜通線,名古屋臨海高速鉄道,あおなみ線,愛知県,名古屋市,電源(コンセント / USB),WiFi（ブース内 or 施設内）,スマホスタンド,ソニー生命, GBP",35.1719958,136.8846299,49,https://telecube.jp/location/dainagoya-bld-1f/,https://telecube.jp/wp/wp-content/uploads/2020/07/dainagoya-bld-1f-5.jpg,,,,,,,,,,,,
1272,Haneda Innovation City 地下1階　Zone K,ハネダ イノベーション シティー,東京都大田区羽田空港1丁目1-4,京浜急行電鉄空港線　天空橋駅直結,東京モノレール　天空橋駅直結,※徒歩時間は施設までの時間であり、テレキューブまでの時間ではありませんのでご注意ください,,,平日土日祝 8:00~21:00,1人用：4台,天空橋駅,"・24時間稼働換気ファン<br />
・WiFi<br />
・スマホスタンド<br />
※このブースは、ビルにて空調管理がされているため、エアコンを設置しておりません。<br />
<br />
※WiFiについて<br />
LTE回線を利用したベストエフォートでの提供となり、時間帯によっては十分な速度が出ない可能性がございます。大事な会議や面接でご利用の際には、代替通信手段のご用意をお願いいたします。","<iframe src=""https://www.google.com/maps/embed?pb=!1m18!1m12!1m3!1d3246.210560753839!2d139.75345406148756!3d35.548501630342024!2m3!1f0!2f0!3f0!3m2!1i1024!2i768!4f13.1!3m3!1m2!1s0x601861b952a30a87%3A0x5117968b0b05e9f6!2z44Ki44O844OG44Kj44K544OI44OT44Os44OD44K4IOe-veeUsOOCpOODjuODmeODvOOCt-ODp-ODs-OCt-ODhuOCow!5e0!3m2!1sja!2sjp!4v1593400338252!5m2!1sja!2sjp"" width=""600"" height=""450"" frameborder=""0"" style=""border:0;"" allowfullscreen="""" aria-hidden=""false"" tabindex=""0""></iframe>",https://telecube.jp/wp/wp-content/uploads/2020/07/iOS-の画像-97.jpg,https://telecube.jp/wp/wp-content/uploads/2020/07/iOS-の画像-96.jpg,https://telecube.jp/wp/wp-content/uploads/2020/07/iOS-の画像-98.jpg,https://telecube.jp/wp/wp-content/uploads/2020/07/0708_HANEDA-INNOVATION-CITY-1.png,平日,土曜日,日曜日,祝日,夜21時まで,,週末価格,"HANEDA INNOVATION CITY,ハネダ イノベーション シティー,41-01,41-02,羽田イノベーションシティ,天空橋駅,京浜急行電鉄,京急電鉄,空港線,東京モノレール,羽田空港線,東京,大田区,電源(コンセント / USB),WiFi（ブース内 or 施設内）, GBP",35.54820049,139.7550205,47,https://telecube.jp/location/haneda-inovation-city/,,,,,,,,,,,,,
1247,イトーヨーカドー　藤沢店3階,イトーヨーカドー フジサワテン,神奈川県藤沢市鵠沼石上1-10-1,JR東海道線「藤沢駅」南口より徒歩8分,小田急江ノ島線「藤沢駅」南口より徒歩8分,江ノ島電鉄「藤沢駅」より徒歩8分,※徒歩時間は施設までの時間であり、テレキューブまでの時間ではありませんのでご注意ください,,平日土日祝 10:00-20:00,1人用：2台,藤沢駅,"・24時間稼働換気ファン、エアコン<br />
・WiFi<br />
・スマホスタンド<br />
<br />
※WiFiについて<br />
LTE回線を利用したベストエフォートでの提供となり、時間帯によっては十分な速度が出ない可能性がございます。大事な会議や面接でご利用の際には、代替通信手段のご用意をお願いいたします。","<iframe src=""https://www.google.com/maps/embed?pb=!1m18!1m12!1m3!1d3254.8214295917287!2d139.4871628147177!3d35.335255580276446!2m3!1f0!2f0!3f0!3m2!1i1024!2i768!4f13.1!3m3!1m2!1s0x60184fb56e37061f%3A0x6e4c1ff48a9c2823!2z44Kk44Os44OW44Oz44Kr44OD44OIIOOCpOODiOODvOODqOODvOOCq-ODieODvOiXpOayouW6lw!5e0!3m2!1sja!2sjp!4v1592766290479!5m2!1sja!2sjp"" width=""600"" height=""450"" frameborder=""0"" style=""border:0;"" allowfullscreen="""" aria-hidden=""false"" tabindex=""0""></iframe>",https://telecube.jp/wp/wp-content/uploads/2020/06/itoyokado-fujisawa-3f-1.jpg,https://telecube.jp/wp/wp-content/uploads/2020/06/itoyokado-fujisawa-3f-2.jpg,https://telecube.jp/wp/wp-content/uploads/2020/06/itoyokado-fujisawa-3f-3.jpg,https://telecube.jp/wp/wp-content/uploads/2020/06/itoyokado-fujisawa-3f.png,平日,土曜日,日曜日,祝日,,,週末価格,"イトーヨーカドー 藤沢店,イトーヨーカドー フジサワテン,49-01,49-02,藤沢駅,JR東日本,東海道線,小田急電鉄,江ノ島線,江ノ島電鉄,江ノ電,神奈川県,藤沢市,電源(コンセント / USB),WiFi（ブース内 or 施設内）,スマホスタンド,エアコン（ブース内 or 施設内）, GBP",35.3349856,139.4890347,45,https://telecube.jp/location/itoyokado-fujisawa-3f/,https://telecube.jp/wp/wp-content/uploads/2020/06/itoyokado-fujisawa-3f-4.jpg,,,,,,,,,,,,
1183,東京ビルディング　トキア地下1階,トウキョウビルディング トキア,東京都千代田区丸の内２丁目７−３,JR東京駅　丸の内南口より徒歩1分,JR 有楽町駅　徒歩5分,東京メトロ丸の内線　東京駅徒歩3分,東京メトロ有楽町線　有楽町駅徒歩5分,東京メトロ千代田線　二重橋前駅徒歩5分,平日土日祝 8:00-21:00,1人用：1台,東京駅・有楽町駅・二重橋前駅,"・24時間稼働換気ファン<br />
・WiFi<br />
・モニター（HDMI対応）<br />
・LED照明<br />
・スマホスタンド<br />
※このブースは、ビルにて空調管理がされているため、エアコンを設置しておりません。<br />
<br />
※WiFiについて<br />
LTE回線を利用したベストエフォートでの提供となり、時間帯によっては十分な速度が出ない可能性がございます。大事な会議や面接でご利用の際には、代替通信手段のご用意をお願いいたします。","<iframe src=""https://www.google.com/maps/embed?pb=!1m18!1m12!1m3!1d3240.9393528283435!2d139.76278841472924!3d35.67849528019502!2m3!1f0!2f0!3f0!3m2!1i1024!2i768!4f13.1!3m3!1m2!1s0x60188bfb031c758d%3A0xa695eb43d67d9e9d!2z5p2x5Lqs44OT44OrIOODiOOCreOCog!5e0!3m2!1sja!2sjp!4v1592160031820!5m2!1sja!2sjp"" width=""600"" height=""450"" frameborder=""0"" style=""border:0;"" allowfullscreen="""" aria-hidden=""false"" tabindex=""0""></iframe>",https://telecube.jp/wp/wp-content/uploads/2020/06/tokyo-build-tokia-b1-3.jpg,https://telecube.jp/wp/wp-content/uploads/2020/06/tokyo-build-tokia-b1-1.jpg,,https://telecube.jp/wp/wp-content/uploads/2020/06/東京ビルTOKIA2.png,平日,土曜日,日曜日,祝日,夜21時まで,,週末価格,"東京ビルディング TOKIA,トウキョウビルディング トキア,37-01,東京ビルディング トキア,東京駅,有楽町駅,二重橋前駅,JR東日本,山手線,京浜東北線,中央線,東海道線,横須賀線,総武線,京葉線,東京メトロ,千代田線,東京,千代田区,電源(コンセント / USB),WiFi（ブース内 or 施設内）,モニター(HDMI),スマホスタンド,WEB会議照明,広告掲載, GBP",35.6786068,139.7649357,46,https://telecube.jp/location/tokyo-build-tokia-b1/,,※徒歩時間は施設までの時間であり、テレキューブまでの時間ではありませんのでご注意ください,,,,,,,,,,,
1167,イトーヨーカドー　武蔵境店東館　１階,イトーヨーカドー ムサシサカイテン,東京都武蔵野市境南町2-2-20,JR中央線「武蔵境駅」南口より徒歩2分,西武鉄道多摩川線「武蔵境駅」南口より徒歩2分,※徒歩時間は施設までの時間であり、テレキューブまでの時間ではありませんのでご注意ください,,,平日土日祝 10:00-21:00,1人用：3台,武蔵境駅・イトーヨーカドー,"・24時間稼働換気ファン<br />
・WiFi<br />
・スマホスタンド<br />
※このブースは、ビルにて空調管理がされているため、エアコンを設置しておりません。<br />
<br />
※WiFiについて<br />
LTE回線を利用したベストエフォートでの提供となり、時間帯によっては十分な速度が出ない可能性がございます。大事な会議や面接でご利用の際には、代替通信手段のご用意をお願いいたします。","<iframe src=""https://www.google.com/maps/embed?pb=!1m18!1m12!1m3!1d3240.0251227706963!2d139.54363341525936!3d35.700999380189714!2m3!1f0!2f0!3f0!3m2!1i1024!2i768!4f13.1!3m3!1m2!1s0x6018ef98e20b0c53%3A0x8e81a7589d577ec0!2z44Kk44OI44O844Oo44O844Kr44OJ44O8IOatpuiUteWig-W6lw!5e0!3m2!1sja!2sjp!4v1661828813401!5m2!1sja!2sjp"" width=""600"" height=""450"" style=""border:0;"" allowfullscreen="""" loading=""lazy"" referrerpolicy=""no-referrer-when-downgrade""></iframe>",https://telecube.jp/wp/wp-content/uploads/2020/06/IY_Mukaisakaitenn.jpg,https://telecube.jp/wp/wp-content/uploads/2020/06/IY_Mukaisakaitenn_1.jpg,,https://telecube.jp/wp/wp-content/uploads/2020/06/IY_Mukaisakaitenn_floormap_20220318.png,平日,土曜日,日曜日,祝日,夜21時まで,,週末価格,"イトーヨーカドー 武蔵境店,イトーヨーカドー ムサシサカイテン,40-01,40-02,武蔵境駅,JR東日本,中央線,西武鉄道,多摩川線,東京,武蔵野市,電源(コンセント / USB),WiFi（ブース内 or 施設内）,スマホスタンド, GBP",35.70091,139.54586,44,https://telecube.jp/location/itoyokado-musashisakai-higashi-1f/,,,,,,,,,,,,,
1126,立川GREEN SPRINGS E1 2階,タチカワグリーンスプリングス,東京都立川市緑町３番1 E1,JR立川駅より徒歩約8分,多摩都市モノレール・立川北駅より徒歩約4分,※徒歩時間は施設までの時間であり、テレキューブまでの時間ではありませんのでご注意ください,,,平日土日祝 9:00-20:00,1人用：1台,立川駅・Green Springs,"・24時間稼働換気ファン<br />
・WiFi<br />
・スマホスタンド<br />
※このブースは、ビルにて空調管理がされているため、エアコンを設置しておりません。<br />
<br />
※WiFiについて<br />
LTE回線を利用したベストエフォートでの提供となり、時間帯によっては十分な速度が出ない可能性がございます。大事な会議や面接でご利用の際には、代替通信手段のご用意をお願いいたします。","<iframe src=""https://www.google.com/maps/embed?pb=!1m18!1m12!1m3!1d3239.916547580611!2d139.4096318147301!3d35.70367118018896!2m3!1f0!2f0!3f0!3m2!1i1024!2i768!4f13.1!3m3!1m2!1s0x6018e1744fc9b5e1%3A0xdbef50adb5c819bc!2sGREEN%20SPRINGS!5e0!3m2!1sja!2sjp!4v1591046894459!5m2!1sja!2sjp"" width=""600"" height=""450"" frameborder=""0"" style=""border:0;"" allowfullscreen="""" aria-hidden=""false"" tabindex=""0""></iframe>",https://telecube.jp/wp/wp-content/uploads/2020/06/Tachihi-Green-Springs-E1-2f-2.jpg,https://telecube.jp/wp/wp-content/uploads/2020/06/Tachihi-Green-Springs-E1-2f-3.jpg,,https://telecube.jp/wp/wp-content/uploads/2020/06/Tachihi-green-springs-E1-2F.png,平日,土曜日,日曜日,祝日,,,週末価格,"立川GREEN SPRINGS,タチカワグリーンスプリングス,30-01,立川駅,立川北駅,JR東日本,中央線,青梅線,南武線,多摩都市モノレール,東京,立川市,電源(コンセント / USB),WiFi（ブース内 or 施設内）,スマホスタンド, GBP",35.7028103,139.4120005,36,https://telecube.jp/location/tachihi-green-springs-e1-2f/,,,,,,,,,,,,,
1101,大手町フィナンシャルシティグランキューブ 1階,オオテマチフィナンシャルシティグランキューブ,東京都千代田区大手町一丁目9番2号,東京メトロ東西線・千代田線・半蔵門線・丸ノ内線 大手町駅C1出口直結,都営三田線大手町駅C1出口直結,東京メトロ 丸ノ内線「大手町駅」A3出口 徒歩1分,JR「東京駅」徒歩10分,※徒歩時間は施設までの時間であり、テレキューブまでの時間ではありませんのでご注意ください,平日 7:00-21:00,1人用：2台,大手町駅・東京駅,"・24時間稼働換気ファン<br />
・WiFi<br />
※このブースは、ビルにて空調管理がされているため、エアコンを設置しておりません。<br />
<br />
※WiFiについて<br />
LTE回線を利用したベストエフォートでの提供となり、時間帯によっては十分な速度が出ない可能性がございます。大事な会議や面接でご利用の際には、代替通信手段のご用意をお願いいたします。","<iframe src=""https://www.google.com/maps/embed?pb=!1m18!1m12!1m3!1d3240.540053884641!2d139.76222061472956!3d35.68832568019268!2m3!1f0!2f0!3f0!3m2!1i1024!2i768!4f13.1!3m3!1m2!1s0x60188c064e1bcb43%3A0x967aaaf8302b0bcc!2z44CSMTAwLTAwMDQg5p2x5Lqs6YO95Y2D5Luj55Sw5Yy65aSn5omL55S677yR5LiB55uu77yZIOWkp-aJi-eUuuODleOCo-ODiuODs-OCt-ODo-ODq-OCt-ODhuOCoyDjgrDjg6njg7Pjgq3jg6Xjg7zjg5Y!5e0!3m2!1sja!2sjp!4v1590695333467!5m2!1sja!2sjp"" width=""600"" height=""450"" frameborder=""0"" style=""border:0;"" allowfullscreen="""" aria-hidden=""false"" tabindex=""0""></iframe>",https://telecube.jp/wp/wp-content/uploads/2020/05/Otemachi_Financialcity_Grandcube_1.jpg,https://telecube.jp/wp/wp-content/uploads/2020/05/Otemachi_Financialcity_Grandcube.jpg,https://telecube.jp/wp/wp-content/uploads/2020/05/Otemachi_Financialcity_Grandcube_2.jpg,https://telecube.jp/wp/wp-content/uploads/2020/05/Otemachi_Financialcity_Grandcube_floormap_20220318.png,平日,,,,朝7時から,夜21時まで,,"大手町フィナンシャルシティグランキューブ,オオテマチフィナンシャルシティグランキューブ,24-01,東京駅,大手町駅,JR東日本,山手線,京浜東北線,中央線,東海道線,横須賀線,総武線,京葉線,東京メトロ,東西線,千代田線,半蔵門線,都営地下鉄,東京,千代田区,電源(コンセント / USB),WiFi（ブース内 or 施設内）,ソニー生命, GBP",35.6887808,139.764566,42,https://telecube.jp/location/ootemachi-financialsity-grand-cube-1f/,https://telecube.jp/wp/wp-content/uploads/2020/05/Otemachi_Financialcity_Grandcube_3.jpg,,,,,,,,,,,,
1082,三田国際ビル　1階,ミタコクサイビル,東京都港区三田1-4-28,都営地下鉄大江戸線「赤羽橋駅」より徒歩３分,都営地下鉄三田線「芝公園駅」より徒歩７分,ＪＲ「田町駅」より徒歩１０分,※徒歩時間は施設までの時間であり、テレキューブまでの時間ではありませんのでご注意ください,,平日 8:00-21:00 / 土 8:00-17:00,1人用：3台,赤羽橋・田町・芝公園前・三田,"・24時間稼働換気ファン<br />
・WiFi<br />
※このブースは、ビルにて空調管理がされているため、エアコンを設置しておりません。<br />
<br />
※WiFiについて<br />
LTE回線を利用したベストエフォートでの提供となり、時間帯によっては十分な速度が出ない可能性がございます。大事な会議や面接でご利用の際には、代替通信手段のご用意をお願いいたします。","<iframe src=""https://www.google.com/maps/embed?pb=!1m14!1m12!1m3!1d3241.989773975006!2d139.74219151472832!3d35.65262358020086!2m3!1f0!2f0!3f0!3m2!1i1024!2i768!4f13.1!5e0!3m2!1sja!2sjp!4v1590520413971!5m2!1sja!2sjp"" width=""600"" height=""450"" frameborder=""0"" style=""border:0;"" allowfullscreen="""" aria-hidden=""false"" tabindex=""0""></iframe>",https://telecube.jp/wp/wp-content/uploads/2020/05/mita-kokusai-1f-4.jpg,https://telecube.jp/wp/wp-content/uploads/2020/05/mita-kokusai-1f-2.jpg,https://telecube.jp/wp/wp-content/uploads/2020/05/mita-kokusai-1f-5.jpg,https://telecube.jp/wp/wp-content/uploads/2020/05/mitakokusai_1f_floormap_20220427.png,平日,土曜日,,,夜21時まで,,週末価格,"三田国際ビル,ミタコクサイビル,34-01,34-02,34-03,三田国際ビルヂング,ミタコクサイビルヂング,
赤羽橋駅,芝公園駅,田町駅,JR東日本,山手線,京浜東北線,都営地下鉄,大江戸線,
東京,港区,
電源(コンセント / USB),WiFi（ブース内 or 施設内）, 
GBP",35.6526236,139.7443802,43,https://telecube.jp/location/mita-kokusai-1f/,https://telecube.jp/wp/wp-content/uploads/2020/05/mitakokusai_1f_1.jpg,,,,,,,https://telecube.jp/wp/wp-content/uploads/2020/05/mitakokusai_1f.jpg,,,,,
1012,豊洲プライムスクエア 1階,トヨスプライムスクエア,東京都江東区豊洲5-6-36,東京メトロ有楽町線 豊洲駅(6)a番出口より徒歩3分,※徒歩時間は施設までの時間であり、テレキューブまでの時間ではありませんのでご注意ください,,,,平日土日祝 8:00-20:00,1人用：2台,豊洲駅,"・24時間稼働換気ファン<br />
・WiFi<br />
・スマホスタンド<br />
※このブースは、ビルにて空調管理がされているため、エアコンを設置しておりません。<br />
<br />
※WiFiについて<br />
LTE回線を利用したベストエフォートでの提供となり、時間帯によっては十分な速度が出ない可能性がございます。大事な会議や面接でご利用の際には、代替通信手段のご用意をお願いいたします。","<iframe src=""https://www.google.com/maps/embed?pb=!1m18!1m12!1m3!1d810.5046303136156!2d139.79768458734904!3d35.65191531050682!2m3!1f0!2f0!3f0!3m2!1i1024!2i768!4f13.1!3m3!1m2!1s0x601889bca44d8267%3A0x783018db32a8a133!2z44CSMTM1LTAwNjEg5p2x5Lqs6YO95rGf5p2x5Yy66LGK5rSy77yV5LiB55uu77yW4oiS77yT77yW!5e0!3m2!1sja!2sjp!4v1588529577011!5m2!1sja!2sjp"" width=""600"" height=""450"" frameborder=""0"" style=""border:0;"" allowfullscreen="""" aria-hidden=""false"" tabindex=""0""></iframe>",https://telecube.jp/wp/wp-content/uploads/2020/05/ToyosuPriveSquare1.jpg,https://telecube.jp/wp/wp-content/uploads/2020/05/ToyosuPriveSquare2.jpg,,https://telecube.jp/wp/wp-content/uploads/2020/05/ToyosuPrimeSquareフロア図.png,平日,土曜日,日曜日,祝日,,,週末価格,"豊洲プライムスクエア,トヨスプライムスクエア,35-01,
豊洲駅,東京メトロ,ゆりかもめ,
東京,江東区,
電源(コンセント / USB),WiFi（ブース内 or 施設内）,スマホスタンド, 
GBP",35.6521175,139.7980635,39,https://telecube.jp/location/hulic-toyosu-prime-square-1f/,,,,,,,,,,,,,
1003,丸の内オアゾ B1F 連絡通路,マルノウチオアゾ,東京都千代田区丸の内1-6-4,JR東京駅丸の内北口地下通路より徒歩1分,東京メトロ丸ノ内線東京駅 直結,東京メトロ東西線大手町駅 直結,※徒歩時間は施設までの時間であり、テレキューブまでの時間ではありませんのでご注意ください,,平日土日祝 7:00-21:00,1人用：3台,東京駅・大手町・丸の内・オアゾ,"・24時間稼働換気ファン<br />
・WiFi<br />
・スマホスタンド　<br />
※このブースは、ビルにて空調管理がされているため、エアコンを設置しておりません。<br />
<br />
※WiFiについて<br />
LTE回線を利用したベストエフォートでの提供となり、時間帯によっては十分な速度が出ない可能性がございます。大事な会議や面接でご利用の際には、代替通信手段のご用意をお願いいたします。","<iframe src=""https://www.google.com/maps/embed?pb=!1m18!1m12!1m3!1d963.4787231434378!2d139.76556384569625!3d35.68332424964332!2m3!1f0!2f0!3f0!3m2!1i1024!2i768!4f13.1!3m3!1m2!1s0x60188bf91f52d58d%3A0x9755b0dbebff72a4!2z44CSMTAwLTAwMDUg5p2x5Lqs6YO95Y2D5Luj55Sw5Yy65Li444Gu5YaF77yR5LiB55uu77yW4oiS77yU!5e0!3m2!1sja!2sjp!4v1588528258837!5m2!1sja!2sjp"" width=""600"" height=""450"" frameborder=""0"" style=""border:0;"" allowfullscreen="""" aria-hidden=""false"" tabindex=""0""></iframe>",https://telecube.jp/wp/wp-content/uploads/2020/05/iOS-の画像-94.jpg,https://telecube.jp/wp/wp-content/uploads/2020/05/iOS-の画像-93.jpg,https://telecube.jp/wp/wp-content/uploads/2020/05/iOS-の画像-92.jpg,https://telecube.jp/wp/wp-content/uploads/2022/05/丸の内北口ビル・オアゾ.png,平日,土曜日,日曜日,祝日,朝7時から,夜21時まで,週末価格,"丸の内オアゾ,マルノウチオアゾ,36-01,36-02,東京駅,大手町駅,JR東日本,山手線,京浜東北線,中央線,東海道線,横須賀線,総武線,京葉線,東京メトロ,東西線,千代田線,半蔵門線,東京,千代田区,電源(コンセント / USB),WiFi（ブース内 or 施設内）,スマホスタンド,広告掲載,ソニー生命, GBP",35.6840165,139.7666454,37,https://telecube.jp/location/marunouchi-oazo-b1/,,,,,,,,,,,,,
968,渋谷クロスタワー　3階,シブヤクロスタワー,東京都渋谷区渋谷2-15-1,JR埼京線・山手線「渋谷駅」東口より徒歩7分,東京メトロ半蔵門線・副都心線「渋谷駅」B5出口より徒歩7分,東急東横線・田園都市線「渋谷駅」B5出口より徒歩7分,※徒歩時間は施設までの時間であり、テレキューブまでの時間ではありませんのでご注意ください,,平日土日祝 8:00-21:00,1人用：4台,渋谷駅,"・24時間稼働換気ファン<br />
・WiFi<br />
・スマホスタンド<br />
※このブースは、ビルにて空調管理がされているため、エアコンを設置しておりません。<br />
<br />
※WiFiについて<br />
LTE回線を利用したベストエフォートでの提供となり、時間帯によっては十分な速度が出ない可能性がございます。大事な会議や面接でご利用の際には、代替通信手段のご用意をお願いいたします。","<iframe src=""https://www.google.com/maps/embed?pb=!1m18!1m12!1m3!1d1620.8699259658213!2d139.70416365801785!3d35.658780595049855!2m3!1f0!2f0!3f0!3m2!1i1024!2i768!4f13.1!3m3!1m2!1s0x60188b5922d0156b%3A0x92074b1afa75464f!2z44CSMTUwLTAwMDIg5p2x5Lqs6YO95riL6LC35Yy65riL6LC377yS5LiB55uu77yR77yV4oiS77yRIOa4i-iwt-OCr-ODreOCueOCv-ODr-ODvA!5e0!3m2!1sja!2sjp!4v1586833575303!5m2!1sja!2sjp"" width=""600"" height=""450"" frameborder=""0"" style=""border:0;"" allowfullscreen="""" aria-hidden=""false"" tabindex=""0""></iframe>",https://telecube.jp/wp/wp-content/uploads/2020/05/iOS-の画像-5_.jpg,https://telecube.jp/wp/wp-content/uploads/2020/05/shibuya_cross_tower_1@0.3x.jpg,https://telecube.jp/wp/wp-content/uploads/2020/05/shibuya_cross_tower@0.3x.jpg,https://telecube.jp/wp/wp-content/uploads/2020/05/shibuya_cross_tower_floormap_20220329.png,平日,土曜日,日曜日,祝日,夜21時まで,,週末価格,"渋谷クロスタワー,シブヤクロスタワー,33-01,33-02,33-03,渋谷駅,JR東日本,山手線,埼京線,京王電鉄,井の頭線,東急東横線,東横線, 田園都市線,東京メトロ,半蔵門線,副都心線,東京,渋谷区,電源(コンセント / USB),WiFi（ブース内 or 施設内）,スマホスタンド, GBP",35.6587709,139.7053308,38,https://telecube.jp/location/shibuya-cross-tower-3f/,,,,,,,,,,,,,
921,丸の内二丁目ビル　1階,マルノウチニチョウメビル,東京都千代田区丸の内2-5-1,ＪＲ 東京駅 丸の内南口より徒歩3分 ,東京メトロ 二重橋前駅 4番出口より徒歩2分,※徒歩時間は施設までの時間であり、テレキューブまでの時間ではありませんのでご注意ください,,,平日 8:00-21:00,1人用：1台,東京駅・大手町・丸の内・二重橋駅,"・24時間稼働換気ファン<br />
・WiFi<br />
※このブースは、ビルにて空調管理がされているため、エアコンを設置しておりません。<br />
<br />
※WiFiについて<br />
LTE回線を利用したベストエフォートでの提供となり、時間帯によっては十分な速度が出ない可能性がございます。大事な会議や面接でご利用の際には、代替通信手段のご用意をお願いいたします。","<iframe src=""https://www.google.com/maps/embed?pb=!1m18!1m12!1m3!1d3240.8781018277123!2d139.7609928147568!3d35.68000338019456!2m3!1f0!2f0!3f0!3m2!1i1024!2i768!4f13.1!3m3!1m2!1s0x60188bfa033fac7f%3A0xb4e44c223c2485f6!2z44CSMTAwLTAwMDUg5p2x5Lqs6YO95Y2D5Luj55Sw5Yy65Li444Gu5YaF77yS5LiB55uu77yV4oiS77yR!5e0!3m2!1sja!2sjp!4v1586421566881!5m2!1sja!2sjp"" width=""600"" height=""450"" frameborder=""0"" style=""border:0;"" allowfullscreen="""" aria-hidden=""false"" tabindex=""0""></iframe>",https://telecube.jp/wp/wp-content/uploads/2020/04/marunouchi-2chome-1f-1.jpg,https://telecube.jp/wp/wp-content/uploads/2020/04/marunouchi-2chome-1f-2.jpg,https://telecube.jp/wp/wp-content/uploads/2020/04/marunouchi-2chome-1f-3.jpg,https://telecube.jp/wp/wp-content/uploads/2020/04/marunouchi-2chome-1f.png,平日,,,,夜21時まで,,,"丸の内二丁目ビル,マルノウチニチョウメビル,15-01,東京駅,二重橋前駅,JR東日本,山手線,京浜東北線,中央線,東海道線,横須賀線,総武線,京葉線,東京メトロ,千代田線,東京,千代田区,電源(コンセント / USB),WiFi（ブース内 or 施設内）, GBP",35.6800034,139.7631815,19,https://telecube.jp/location/marunouchi-2chome-1f/,https://telecube.jp/wp/wp-content/uploads/2020/04/丸の内二丁目ビル1.jpeg,,,,,,,,,,,,
879,銀座松竹スクエア　1階,ギンザショウチクスクエア,東京都中央区築地1-13-1,日比谷線・都営浅草線 「東銀座」 駅　徒歩2分,※徒歩時間は施設までの時間であり、テレキューブまでの時間ではありませんのでご注意ください,,,,平日土日祝 8:00-20:00,1人用：1台,銀座・東銀座・松竹・築地,"・24時間稼働換気ファン<br />
・WiFi<br />
※このブースは、ビルにて空調管理がされているため、エアコンを設置しておりません。<br />
<br />
※WiFiについて<br />
LTE回線を利用したベストエフォートでの提供となり、時間帯によっては十分な速度が出ない可能性がございます。大事な会議や面接でご利用の際には、代替通信手段のご用意をお願いいたします。","<iframe src=""https://www.google.com/maps/embed?pb=!1m18!1m12!1m3!1d3241.3496981315793!2d139.76722501475646!3d35.66839048019721!2m3!1f0!2f0!3f0!3m2!1i1024!2i768!4f13.1!3m3!1m2!1s0x60188bde3ca64baf%3A0xcd6c2f6f3290f506!2z44CSMTA0LTAwNDUg5p2x5Lqs6YO95Lit5aSu5Yy656-J5Zyw77yR5LiB55uu77yR77yT4oiS77yR!5e0!3m2!1sja!2sjp!4v1585547464734!5m2!1sja!2sjp"" width=""600"" height=""450"" frameborder=""0"" style=""border:0;"" allowfullscreen="""" aria-hidden=""false"" tabindex=""0""></iframe>",https://telecube.jp/wp/wp-content/uploads/2020/03/ginza-shochiku-square-1f-1-L.jpg,https://telecube.jp/wp/wp-content/uploads/2020/03/ginza-shochiku-square-1f-2-L.jpg,https://telecube.jp/wp/wp-content/uploads/2020/03/ginza-shochiku-square-1f-3-L.jpg,https://telecube.jp/wp/wp-content/uploads/2020/03/map_銀座松竹スクエア.png,平日,土曜日,日曜日,祝日,,,週末価格,"銀座松竹スクエア,ギンザショウチクスクエア,31-01,築地松竹ビル,ツキジショウチクビル,東銀座駅,東京メトロ,都営地下鉄,東京,中央区,電源(コンセント / USB),WiFi（ブース内 or 施設内）, GBP",35.6683905,139.7694137,35,https://telecube.jp/location/ginza-shochiku-square-1f/,,,,,,,,,,,,,
849,東武鉄道北千住駅 改札内 南側地下コンコース 地下1階,トウブテツドウ キタセンジュエキ ミナミガワチカ,東京都足立区千住旭町42-1,東武鉄道北千住駅改札内、南側地下,改札内のため、ご利用には乗車券または入場券の購入が必要となります。,,,,平日土日祝 7:00-21:00,1人用：2台,北千住駅・北千住,"・24時間稼働換気ファン<br />
・エアコン<br />
・WiFi<br />
・スマホスタンド<br />
<br />
※WiFiについて<br />
LTE回線を利用したベストエフォートでの提供となり、時間帯によっては十分な速度が出ない可能性がございます。大事な会議や面接でご利用の際には、代替通信手段のご用意をお願いいたします。","<iframe src=""https://www.google.com/maps/embed?pb=!1m18!1m12!1m3!1d3238.0459159529755!2d139.80315461475917!3d35.74967618017836!2m3!1f0!2f0!3f0!3m2!1i1024!2i768!4f13.1!3m3!1m2!1s0x60188e4fa6644e8d%3A0x6bc4e612ab55d171!2z5YyX5Y2D5L2P6aeF!5e0!3m2!1sja!2sjp!4v1585290199678!5m2!1sja!2sjp"" width=""600"" height=""450"" frameborder=""0"" style=""border:0;"" allowfullscreen="""" aria-hidden=""false"" tabindex=""0""></iframe>",https://telecube.jp/wp/wp-content/uploads/2020/03/kitasenju-2-1.jpeg,https://telecube.jp/wp/wp-content/uploads/2020/03/kitasenju-2-2.jpeg,https://telecube.jp/wp/wp-content/uploads/2020/03/kitasenju-2-3.jpeg,https://telecube.jp/wp/wp-content/uploads/2020/03/kitasenjyu-station-south-B1.png,平日,土曜日,日曜日,祝日,朝7時から,夜21時まで,週末価格,"東武鉄道 北千住駅 南側地下,トウブテツドウ キタセンジュエキ ミナミガワチカ,22-02,22-03,北千住駅,JR東日本,常磐線,東京メトロ,千代田線,東武鉄道,伊勢崎線,つくばエクスプレス,TX,東京,足立区,電源(コンセント / USB),WiFi（ブース内 or 施設内）,スマホスタンド,エアコン（ブース内 or 施設内）, GBP",35.7495774,139.8053948,34,https://telecube.jp/location/kitasenjyu-station-south-b1/,,,,,,,,,,,,,
840,丸の内二重橋ビル　1階,マルノウチニジュウバシビル,東京都千代田区丸の内3-2-3,都営三田線「日比谷駅」直結,東京メトロ日比谷線・千代田線「日比谷駅」、千代田線「二重橋前駅」直結,※徒歩時間は施設までの時間であり、テレキューブまでの時間ではありませんのでご注意ください,,,平日 8:00-21:00,1人用：1台,東京駅・丸の内・二重橋・日比谷・二重橋駅・日比谷駅,"・24時間稼働換気ファン<br />
・WiFi<br />
※このブースは、ビルにて空調管理がされているため、エアコンを設置しておりません。<br />
<br />
※WiFiについて<br />
LTE回線を利用したベストエフォートでの提供となり、時間帯によっては十分な速度が出ない可能性がございます。大事な会議や面接でご利用の際には、代替通信手段のご用意をお願いいたします。","<iframe src=""https://www.google.com/maps/embed?pb=!1m16!1m12!1m3!1d3240.962811273509!2d139.75926776525867!3d35.67791768019512!2m3!1f0!2f0!3f0!3m2!1i1024!2i768!4f13.1!2m1!1z5Li444Gu5YaF5LqM6YeN5qmL44OT44Or!5e0!3m2!1sja!2sjp!4v1585288564593!5m2!1sja!2sjp"" width=""600"" height=""450"" frameborder=""0"" style=""border:0;"" allowfullscreen="""" aria-hidden=""false"" tabindex=""0""></iframe>",https://telecube.jp/wp/wp-content/uploads/2020/03/丸の内二重橋ビル1.jpeg,https://telecube.jp/wp/wp-content/uploads/2020/03/丸の内二重橋ビル2.jpeg,https://telecube.jp/wp/wp-content/uploads/2020/03/丸の内二重橋ビル3.jpeg,https://telecube.jp/wp/wp-content/uploads/2020/03/telecube_map_marunouchi-nijuubashi-bldg_1F_2001.png,平日,,,,夜21時まで,,,"丸の内二重橋ビル,マルノウチニジュウバシビル,23-01,日比谷駅,二重橋前駅,有楽町駅,JR東日本,京浜東北線,山手線,東京メトロ,千代田線,都営地下鉄,東京,千代田区,電源(コンセント / USB),WiFi（ブース内 or 施設内）,GBP",35.6777386,139.7617602,33,https://telecube.jp/location/marunouchi-nijuubashi/,,,,,,,,,,,,,
681,新大阪阪急ビル ３階,シンオオサカハンキュウビル,大阪府大阪市淀川区宮原1-1-1,JR「新大阪駅」北口 直結,※徒歩時間は施設までの時間であり、テレキューブまでの時間ではありませんのでご注意ください,,,,平日土日祝 7:00-21:00,1人用：2台,JR京都線新大阪駅,"・24時間稼働換気ファン<br />
・WiFi<br />
・スマホスタンド　<br />
※このブースは、ビルにて空調管理がされているため、エアコンを設置しておりません。<br />
<br />
※WiFiについて<br />
LTE回線を利用したベストエフォートでの提供となり、時間帯によっては十分な速度が出ない可能性がございます。大事な会議や面接でご利用の際には、代替通信手段のご用意をお願いいたします。","<iframe src=""https://www.google.com/maps/embed?pb=!1m18!1m12!1m3!1d3278.856030164045!2d135.4978901152331!3d34.73402318042585!2m3!1f0!2f0!3f0!3m2!1i1024!2i768!4f13.1!3m3!1m2!1s0x6000e4390ee39d3f%3A0xfa29db835618acc0!2z44CSNTMyLTAwMDMg5aSn6Ziq5bqc5aSn6Ziq5biC5reA5bed5Yy65a6u5Y6f77yR5LiB55uu77yR4oiS77yRIOaWsOWkp-mYqumYquaApeODk-ODqw!5e0!3m2!1sja!2sjp!4v1582592531010!5m2!1sja!2sjp"" width=""600"" height=""450"" frameborder=""0"" style=""border:0;"" allowfullscreen=""""></iframe>",https://telecube.jp/wp/wp-content/uploads/2020/03/新大阪.jpeg,,,https://telecube.jp/wp/wp-content/uploads/2020/03/map_新大阪阪急ビル.png,平日,土曜日,日曜日,祝日,朝7時から,夜21時まで,週末価格,"新大阪阪急ビル,シンオオサカハンキュウビル,27-01,27-02,新大阪駅,JR西日本,大阪メトロ,大阪市高速電気軌道,大阪府,大阪市,電源(コンセント / USB),WiFi（ブース内 or 施設内）,スマホスタンド, GBP",34.73379396,135.4996228,30,https://telecube.jp/location/shinosaka-hankyu-bldg-3f/,,,,,,,,,,,,,
679,阪急西宮ガーデンズ 本館１階,ハンキュウニシノミヤガーデンズ,兵庫県西宮市高松町14-2,阪急電車「西宮北口駅」東改札口から連絡デッキで約3分,※徒歩時間は施設までの時間であり、テレキューブまでの時間ではありませんのでご注意ください,,,,平日土日祝 10:00-21:00,1人用：1台,阪急電車西宮北口駅,"・24時間稼働換気ファン<br />
・WiFi<br />
・スマホスタンド<br />
※このブースは、ビルにて空調管理がされているため、エアコンを設置しておりません。<br />
<br />
※WiFiについて<br />
LTE回線を利用したベストエフォートでの提供となり、時間帯によっては十分な速度が出ない可能性がございます。大事な会議や面接でご利用の際には、代替通信手段のご用意をお願いいたします。","<iframe src=""https://www.google.com/maps/embed?pb=!1m18!1m12!1m3!1d1857.0597123035145!2d135.35856086874753!3d34.743897869217726!2m3!1f0!2f0!3f0!3m2!1i1024!2i768!4f13.1!3m3!1m2!1s0x6000f23f491e775f%3A0xeeec063d34eaa420!2z6Ziq5oCl6KW_5a6u44Ks44O844OH44Oz44K6!5e0!3m2!1sja!2sjp!4v1582590563619!5m2!1sja!2sjp"" width=""600"" height=""450"" frameborder=""0"" style=""border:0;"" allowfullscreen=""""></iframe>",https://telecube.jp/wp/wp-content/uploads/2020/03/Nishinomiya-gardens-1f-2-1.jpg,https://telecube.jp/wp/wp-content/uploads/2020/03/Nishinomiya-gardens-1f-1.jpg,,https://telecube.jp/wp/wp-content/uploads/2020/03/map_西宮ガーデンズ3.png,平日,土曜日,日曜日,祝日,夜21時まで,,週末価格,"阪急西宮ガーデンズ,ハンキュウニシノミヤガーデンズ,28-01,西宮北口駅,阪急電鉄,阪急電車,兵庫県,西宮市,電源(コンセント / USB),WiFi（ブース内 or 施設内）,スマホスタンド, GBP",34.74415891,135.3586532,29,https://telecube.jp/location/hankyu-nishinomiya-gardens-1f/,,,,,,,,,,,,,
677,阪急ターミナルビル １階エントランス,ハンキュウターミナルビル,大阪府大阪市北区芝田1-1-4,阪急電鉄「梅田駅」直結,※徒歩時間は施設までの時間であり、テレキューブまでの時間ではありませんのでご注意ください,,,,平日土日祝 7:00-21:00,1人用：2台,阪急電鉄梅田駅 JR大阪駅,"・24時間稼働換気ファン<br />
・エアコン<br />
・WiFi<br />
・スマホスタンド<br />
<br />
※WiFiについて<br />
LTE回線を利用したベストエフォートでの提供となり、時間帯によっては十分な速度が出ない可能性がございます。大事な会議や面接でご利用の際には、代替通信手段のご用意をお願いいたします。","<iframe src=""https://www.google.com/maps/embed?pb=!1m18!1m12!1m3!1d1100.9185144774463!2d135.49787313690626!3d34.704509879457206!2m3!1f0!2f0!3f0!3m2!1i1024!2i768!4f13.1!3m3!1m2!1s0x6000e692379046cb%3A0xcae0562714631d81!2z6Ziq5oCl44K_44O844Of44OK44Or44OT44Or!5e0!3m2!1sja!2sjp!4v1582590193287!5m2!1sja!2sjp"" width=""600"" height=""450"" frameborder=""0"" style=""border:0;"" allowfullscreen=""""></iframe>",https://telecube.jp/wp/wp-content/uploads/2020/03/hankyu-terminal-bld-1f-6.jpg,https://telecube.jp/wp/wp-content/uploads/2020/03/hankyu-terminal-bld-1f-7.jpg,https://telecube.jp/wp/wp-content/uploads/2020/03/hankyu-terminal-bld-1f-8.jpg,https://telecube.jp/wp/wp-content/uploads/2020/03/hankyu-terminal-bld-1f.png,平日,土曜日,日曜日,祝日,朝7時から,夜21時まで,週末価格,"阪急ターミナルビル,ハンキュウターミナルビル,26-01,26-02,大阪梅田駅,阪急電鉄,阪急電車,大阪府,大阪市,電源(コンセント / USB),WiFi（ブース内 or 施設内）,スマホスタンド,エアコン（ブース内 or 施設内）,ソニー生命, GBP",34.7043752,135.4987125,28,https://telecube.jp/location/hankyu-terminal-1f/,https://telecube.jp/wp/wp-content/uploads/2020/03/hankyu-terminal-bld-1f-9.jpg,,,,,,,,,,,,
674,エビスタ西宮 ３階,エビスタニシノミヤ,兵庫県西宮市田中町1-6,阪神電鉄「西宮駅」下車すぐ（えびす口改札）,※徒歩時間は施設までの時間であり、テレキューブまでの時間ではありませんのでご注意ください,,,,平日土日祝 10:00-21:00,1人用：1台,阪神電鉄西宮駅,"・24時間稼働換気ファン<br />
・エアコン<br />
・WiFi<br />
・スマホスタンド<br />
<br />
※WiFiについて<br />
LTE回線を利用したベストエフォートでの提供となり、時間帯によっては十分な速度が出ない可能性がございます。大事な会議や面接でご利用の際には、代替通信手段のご用意をお願いいたします。","<iframe src=""https://www.google.com/maps/embed?pb=!1m18!1m12!1m3!1d3278.744687012198!2d135.33595541530778!3d34.736829388789985!2m3!1f0!2f0!3f0!3m2!1i1024!2i768!4f13.1!3m3!1m2!1s0x6000f25f3f65284d%3A0xf1ba3d9c14e56e6a!2z44Ko44OT44K544K_6KW_5a6u!5e0!3m2!1sja!2sjp!4v1582588170759!5m2!1sja!2sjp"" width=""600"" height=""450"" frameborder=""0"" style=""border:0;"" allowfullscreen=""""></iframe>",https://telecube.jp/wp/wp-content/uploads/2020/03/エビスタ-1.jpeg,https://telecube.jp/wp/wp-content/uploads/2020/03/エビスタ２-1.jpeg,https://telecube.jp/wp/wp-content/uploads/2020/03/エビスタ３-1.jpeg,https://telecube.jp/wp/wp-content/uploads/2020/03/map_エビスタ西宮.png,平日,土曜日,日曜日,祝日,夜21時まで,,週末価格,"エビスタ西宮,エビスタニシノミヤ,29-01,西宮駅,阪神電気鉄道,阪神電鉄,阪神電車,兵庫県,西宮市,電源(コンセント / USB),WiFi（ブース内 or 施設内）,スマホスタンド,エアコン（ブース内 or 施設内）, GBP",34.7369042,135.3382742,31,https://telecube.jp/location/ebista-nishinomiya-3f/,https://telecube.jp/wp/wp-content/uploads/2020/03/エビスタ４-1.jpeg,,,,,,,,,,,,
671,ＪＰタワー ＫＩＴＴＥ １階,ジェイピータワーキッテ,東京都千代田区丸の内2-7-2 ＪＰタワー,JR山手線・中央線・京浜東北線・東海道線「東京駅」徒歩約1分,東京メトロ丸ノ内線「東京駅」地下道より直結,※徒歩時間は施設までの時間であり、テレキューブまでの時間ではありませんのでご注意ください,,,平日土日祝 7:00-21:00,1人用：2台,"JR東京駅,東京メトロ丸ノ内線東京駅","・24時間稼働換気ファン<br />
・WiFi<br />
※このブースは、ビルにて空調管理がされているため、エアコンを設置しておりません。<br />
<br />
※WiFiについて<br />
LTE回線を利用したベストエフォートでの提供となり、時間帯によっては十分な速度が出ない可能性がございます。大事な会議や面接でご利用の際には、代替通信手段のご用意をお願いいたします。","<iframe src=""https://www.google.com/maps/embed?pb=!1m18!1m12!1m3!1d1614.8225964871658!2d139.76366344196597!3d35.68051068488932!2m3!1f0!2f0!3f0!3m2!1i1024!2i768!4f13.1!3m3!1m2!1s0x60188bfa37ab7571%3A0xf96f6a64e0a83800!2zSlDjgr_jg6_jg7w!5e0!3m2!1sja!2sjp!4v1582588068068!5m2!1sja!2sjp"" width=""600"" height=""450"" frameborder=""0"" style=""border:0;"" allowfullscreen=""""></iframe>",https://telecube.jp/wp/wp-content/uploads/2020/03/JP0.jpeg,https://telecube.jp/wp/wp-content/uploads/2020/03/JP1.jpeg,https://telecube.jp/wp/wp-content/uploads/2020/03/JP2.jpeg,https://telecube.jp/wp/wp-content/uploads/2030/03/map_JPタワー.png,平日,土曜日,日曜日,祝日,朝7時から,夜21時まで,週末価格,"JPタワーKITTE,ジェイピータワーキッテ,25-01,25-02,東京駅,JR東日本,山手線,京浜東北線,中央線,東海道線,横須賀線,総武線,京葉線,東京メトロ,東京,千代田区,電源(コンセント / USB),WiFi（ブース内 or 施設内）, GBP",35.679959,139.7645933,32,https://telecube.jp/location/jp-tower-kitte-1f/,https://telecube.jp/wp/wp-content/uploads/2020/03/JP3.jpeg,,,,,,,https://telecube.jp/wp/wp-content/uploads/2020/03/JP4.jpeg,https://telecube.jp/wp/wp-content/uploads/2020/03/JP5.jpeg,https://telecube.jp/wp/wp-content/uploads/2020/03/JP6.jpeg,,,
542,豊洲フロント 1階,トヨスフロント,東京都江東区豊洲3-2-20,東京メトロ有楽町線「豊洲駅」1c出口方面 豊洲フロント出口,ゆりかもめ「豊洲駅」 徒歩3分,※徒歩時間は施設までの時間であり、テレキューブまでの時間ではありませんのでご注意ください,,,平日土日祝 8:00-21:00,1人用：1台,東京メトロ有楽町線 豊洲駅・ゆりかもめ 豊洲駅,"・24時間稼働換気ファン<br />
・WiFi<br />
・スマホスタンド<br />
※このブースは、ビルにて空調管理がされているため、エアコンを設置しておりません。<br />
<br />
※WiFiについて<br />
LTE回線を利用したベストエフォートでの提供となり、時間帯によっては十分な速度が出ない可能性がございます。大事な会議や面接でご利用の際には、代替通信手段のご用意をお願いいたします。","<iframe src=""https://www.google.com/maps/embed?pb=!1m18!1m12!1m3!1d1620.906831612969!2d139.79445235823772!3d35.65696229505!2m3!1f0!2f0!3f0!3m2!1i1024!2i768!4f13.1!3m3!1m2!1s0x601889a1836ae1d3%3A0xe136a96dfae2bbc9!2z6LGK5rSy44OV44Ot44Oz44OI!5e0!3m2!1sja!2sjp!4v1578371695216!5m2!1sja!2sjp"" width=""600"" height=""450"" frameborder=""0"" style=""border:0;"" allowfullscreen=""""></iframe>",https://telecube.jp/wp/wp-content/uploads/2020/01/1toyosu-front_0418.png,https://telecube.jp/wp/wp-content/uploads/2020/01/2toyosu-front_0419.png,https://telecube.jp/wp/wp-content/uploads/2020/01/3toyosu-front_0416.png,https://telecube.jp/wp/wp-content/uploads/2020/01/telecube_map_toyosu-front_1F_2001-02.png,平日,土曜日,日曜日,祝日,夜21時まで,,週末価格,"豊洲フロント,トヨスフロント,18-01,豊洲駅,東京メトロ,ゆりかもめ,東京,江東区,電源(コンセント / USB),WiFi（ブース内 or 施設内）,スマホスタンド, GBP",35.6568767,139.795662,22,https://telecube.jp/location/toyosu-front-1f/,https://telecube.jp/wp/wp-content/uploads/2020/01/4toyosu-front_0412.png,,,,,,,,,,,,
540,豊洲フォレシア １階（WEB会議センター）,トヨスフォレシア,東京都江東区豊洲3-2-24,東京メトロ有楽町線「豊洲駅」1c出口,ゆりかもめ「豊洲駅」徒歩4分,※徒歩時間は施設までの時間であり、テレキューブまでの時間ではありませんのでご注意ください,,,平日 8:00-20:00,1人用：8台,東京メトロ有楽町線 豊洲駅 / ゆりかもめ 豊洲駅,"・24時間稼働換気ファン<br />
・WiFi<br />
・WEB-MTG用LED照明<br />
・モニター（HDMI対応）<br />
※このブースは、ビルにて空調管理がされているため、エアコンを設置しておりません。<br />
<br />
※WiFiについて<br />
LTE回線を利用したベストエフォートでの提供となり、時間帯によっては十分な速度が出ない可能性がございます。大事な会議や面接でご利用の際には、代替通信手段のご用意をお願いいたします。","<iframe src=""https://www.google.com/maps/embed?pb=!1m18!1m12!1m3!1d1620.8983114682821!2d139.79376405679494!3d35.65738208019985!2m3!1f0!2f0!3f0!3m2!1i1024!2i768!4f13.1!3m3!1m2!1s0x601889a1bdb4c429%3A0x215245c69f220c65!2z6LGK5rSy44OV44Kp44Os44K344Ki!5e0!3m2!1sja!2sjp!4v1578371502477!5m2!1sja!2sjp"" width=""600"" height=""450"" frameborder=""0"" style=""border:0;"" allowfullscreen=""""></iframe>",https://telecube.jp/wp/wp-content/uploads/2020/01/IMG_2999.jpg,https://telecube.jp/wp/wp-content/uploads/2020/01/IMG_3003.jpg,https://telecube.jp/wp/wp-content/uploads/2020/01/IMG_3004.jpg,https://telecube.jp/wp/wp-content/uploads/2020/01/豊洲フォレシアフロア図202209.png,平日,,,,,,,"豊洲フォレシア,トヨスフォレシア,19-01,19-02,19-03,19-04,19-05,19-06,豊洲駅,東京メトロ,ゆりかもめ,東京,江東区,電源(コンセント / USB),WiFi（ブース内 or 施設内）,モニター(HDMI),スマホスタンド,WEB会議照明, GBP",35.6575871,139.7949702,23,https://telecube.jp/location/toyosu-foresia-1f/,,,,,,,,,,,,,
536,新宿フロントタワー　1階,シンジュクフロントタワー,東京都新宿区北新宿2-21-1,東京メトロ丸ノ内線「西新宿駅」1番出口 徒歩4分,東京メトロ丸ノ内線・都営大江戸線「中野坂上駅」A1出口 徒歩8分,※徒歩時間は施設までの時間であり、テレキューブまでの時間ではありませんのでご注意ください,,,平日 8:00-20:00,1人用：1台,東京メトロ丸ノ内線 西新宿駅 / 東京メトロ丸ノ内線 都営大江戸線 中野坂上駅,"・24時間稼働換気ファン　<br />
・WiFi<br />
※このブースは、ビルにて空調管理がされているため、エアコンを設置しておりません。<br />
<br />
※WiFiについて<br />
LTE回線を利用したベストエフォートでの提供となり、時間帯によっては十分な速度が出ない可能性がございます。大事な会議や面接でご利用の際には、代替通信手段のご用意をお願いいたします。","<iframe src=""https://www.google.com/maps/embed?pb=!1m18!1m12!1m3!1d1620.1123456285757!2d139.6883096567957!3d35.69608798019089!2m3!1f0!2f0!3f0!3m2!1i1024!2i768!4f13.1!3m3!1m2!1s0x6018f2d49bcca509%3A0x2407dbe7a5bbbbbf!2z5paw5a6_44OV44Ot44Oz44OI44K_44Ov44O8!5e0!3m2!1sja!2sjp!4v1578370840262!5m2!1sja!2sjp"" width=""600"" height=""450"" frameborder=""0"" style=""border:0;"" allowfullscreen=""""></iframe>",https://telecube.jp/wp/wp-content/uploads/2020/01/shinjuku-front-tower-1_0371.png,https://telecube.jp/wp/wp-content/uploads/2020/01/shinjuku-front-tower-2_0372.png,https://telecube.jp/wp/wp-content/uploads/2020/01/shinjuku-front-tower-3_0374.png,https://telecube.jp/wp/wp-content/uploads/2020/01/telecube_map_shinjuku-front-tower_1F_2001.png,平日,,,,,,,"新宿フロントタワー,シンジュクフロントタワー,20-01,西新宿駅,中野坂上駅,東京メトロ,都営地下鉄,大江戸線,東京,新宿区,電源(コンセント / USB),WiFi（ブース内 or 施設内）, GBP",35.696088,139.689404,26,https://telecube.jp/location/shinjuku-front-tower/,https://telecube.jp/wp/wp-content/uploads/2020/01/shinjuku-front-tower-4_0373.png,,,,,,,,,,,,
530,新宿イーストサイドスクエア 1階 Westオフィスエントランス,シンジュクイーストサイドスクエア,東京都新宿区新宿6-27-30,都営大江戸線 東京メトロ副都心線「東新宿駅」直結,東京メトロ丸ノ内線・副都心線・都営新宿線「新宿三丁目」駅E1出口より徒歩6分,※徒歩時間は施設までの時間であり、テレキューブまでの時間ではありませんのでご注意ください,,,平日 8:00-20:00,1人用：2台,都営大江戸線 東京メトロ副都心線 東新宿駅 / 東京メトロ丸ノ内線 副都心線 都営新宿線 新宿三丁目駅,"・24時間稼働換気ファン　<br />
・WiFi<br />
※このブースは、ビルにて空調管理がされているため、エアコンを設置しておりません。<br />
<br />
※WiFiについて<br />
LTE回線を利用したベストエフォートでの提供となり、時間帯によっては十分な速度が出ない可能性がございます。大事な会議や面接でご利用の際には、代替通信手段のご用意をお願いいたします。","<iframe src=""https://www.google.com/maps/embed?pb=!1m18!1m12!1m3!1d1620.0977060419232!2d139.70762205679577!3d35.696808580190776!2m3!1f0!2f0!3f0!3m2!1i1024!2i768!4f13.1!3m3!1m2!1s0x60188cdef9e5d305%3A0x73c4e8de6d670270!2z5paw5a6_44Kk44O844K544OI44K144Kk44OJ44K544Kv44Ko44Ki!5e0!3m2!1sja!2sjp!4v1578370617834!5m2!1sja!2sjp"" width=""600"" height=""450"" frameborder=""0"" style=""border:0;"" allowfullscreen=""""></iframe>",https://telecube.jp/wp/wp-content/uploads/2020/02/新宿ESS1.jpg,https://telecube.jp/wp/wp-content/uploads/2020/02/新宿ESS2.jpg.jpg,https://telecube.jp/wp/wp-content/uploads/2020/02/新宿ESS3.jpg.jpg,https://telecube.jp/wp/wp-content/uploads/2020/02/新宿イーストサイドスクエア.png,平日,,,,,,,"新宿イーストサイドスクエア,シンジュクイーストサイドスクエア,21-01,21-02,東新宿駅,新宿三丁目駅,東京メトロ,副都心線,都営地下鉄,大江戸線,東京,新宿区,電源(コンセント / USB),WiFi（ブース内 or 施設内）, GBP",35.6967564,139.7087547,27,https://telecube.jp/location/shinjuku-eastside-square-1f-west/,,,,,,,,,,,,,
528,北の丸スクエア１階,キタノマルスクエア,東京都千代田区九段北1-13-12,東京メトロ東西線・半蔵門線「 九段下駅」３b出口直結,都営地下鉄新宿線「九段下駅」３b出口直結,※徒歩時間は施設までの時間であり、テレキューブまでの時間ではありませんのでご注意ください,,,平日 8:00-20:00,1人用：2台,東京メトロ東西線 九段下駅・東京メトロ半蔵門線 九段下駅・都営地下鉄新宿線 九段下駅,"・24時間稼働換気ファン<br />
・WiFi<br />
※このブースは、ビルにて空調管理がされているため、エアコンを設置しておりません。<br />
<br />
※WiFiについて<br />
LTE回線を利用したベストエフォートでの提供となり、時間帯によっては十分な速度が出ない可能性がございます。大事な会議や面接でご利用の際には、代替通信手段のご用意をお願いいたします。","<iframe src=""https://www.google.com/maps/embed?pb=!1m18!1m12!1m3!1d3240.2375284003474!2d139.74840541561235!3d35.69577203678113!2m3!1f0!2f0!3f0!3m2!1i1024!2i768!4f13.1!3m3!1m2!1s0x60188d9cd44682df%3A0xc0b5b295e7538128!2z5YyX44Gu5Li444K544Kv44Ko44Ki!5e0!3m2!1sja!2sjp!4v1574843221108!5m2!1sja!2sjp"" width=""600"" height=""450"" frameborder=""0"" style=""border:0;"" allowfullscreen=""""></iframe>",https://telecube.jp/wp/wp-content/uploads/2019/12/iOS-の画像-116.jpg,https://telecube.jp/wp/wp-content/uploads/2019/12/iOS-の画像-113.jpg,https://telecube.jp/wp/wp-content/uploads/2019/12/iOS-の画像-109.jpg,https://telecube.jp/wp/wp-content/uploads/2019/12/KitanomaruSquare_Floormap_v3.png,平日,,,,,,,"北の丸スクエア,キタノマルスクエア,17-01,九段下駅,東京メトロ,東西線,半蔵門線,都営地下鉄,東京,千代田区,電源(コンセント / USB),WiFi（ブース内 or 施設内）,ソニー生命, GBP",35.6957428,139.7506155,25,https://telecube.jp/location/kitanomaru-square-1f/,,,,,,,,,,,東京都,千代田区,東京都-都心部
527,汐留ビルディング２階,シオドメビルディング,東京都港区海岸1-2-20 汐留ビルディング,JR・東京モノレール「浜松町駅」北口（新橋側出口）から徒歩2分,都営大江戸線・浅草線「大門駅」B1出口から徒歩3分,※徒歩時間は施設までの時間であり、テレキューブまでの時間ではありませんのでご注意ください,,,平日 8:00-21:00,1人用：1台,JR 浜松町駅・東京モノレール 浜松町駅・都営大江戸線 大門駅・都営浅草線 大門駅,"・24時間稼働換気ファン<br />
・WiFi<br />
※このブースは、ビルにて空調管理がされているため、エアコンを設置しておりません。<br />
<br />
※WiFiについて<br />
LTE回線を利用したベストエフォートでの提供となり、時間帯によっては十分な速度が出ない可能性がございます。大事な会議や面接でご利用の際には、代替通信手段のご用意をお願いいたします。","<iframe src=""https://www.google.com/maps/embed?pb=!1m18!1m12!1m3!1d1620.9064819205248!2d139.75902860082164!3d35.65697952438345!2m3!1f0!2f0!3f0!3m2!1i1024!2i768!4f13.1!3m3!1m2!1s0x60188bc5980c2059%3A0x2cd73cbae48a58e0!2z5rGQ55WZ44OT44Or44OH44Kj44Oz44Kw!5e0!3m2!1sja!2sjp!4v1574842974524!5m2!1sja!2sjp"" width=""600"" height=""450"" frameborder=""0"" style=""border:0;"" allowfullscreen=""""></iframe>",https://telecube.jp/wp/wp-content/uploads/2020/01/shiodome-bldg-2f-1_0291.png,https://telecube.jp/wp/wp-content/uploads/2020/01/shiodome-bldg-2f-3_0290.png,,https://telecube.jp/wp/wp-content/uploads/2019/12/telecube_map_shiodome-buildings_1911_v2.png,平日,,,,夜21時まで,,,"汐留ビルディング,シオドメビルディング,16-01,浜松町駅,大門駅,JR東日本,山手線,京浜東北線,東京モノレール,都営地下鉄,大江戸線,東京,港区,電源(コンセント / USB),WiFi（ブース内 or 施設内）, GBP",35.6567986,139.7595288,24,https://telecube.jp/location/shiodome-bldg-2f/,,,,,,,,,,,東京都,港区,東京都-都心部
507,東武鉄道 北千住駅 改札内２階北コンコース,トウブテツドウ キタセンジュエキ キタグチ,東京都足立区千住旭町42-1,東武鉄道北千住駅 北改札内,改札内のため、ご利用には乗車券または入場券の購入が必要となります。,,,,平日土日祝 7:00-21:00,1人用：1台,東武伊勢崎線（東武スカイツリーライン）北千住駅,"・24時間稼働換気ファン<br />
・エアコン<br />
・WiFi<br />
・スマホスタンド<br />
<br />
※WiFiについて<br />
LTE回線を利用したベストエフォートでの提供となり、時間帯によっては十分な速度が出ない可能性がございます。大事な会議や面接でご利用の際には、代替通信手段のご用意をお願いいたします。","<iframe src=""https://www.google.com/maps/embed?pb=!1m18!1m12!1m3!1d3238.0459159529764!2d139.80315461526067!3d35.74967618017835!2m3!1f0!2f0!3f0!3m2!1i1024!2i768!4f13.1!3m3!1m2!1s0x60188e4fa6644e8d%3A0x6bc4e612ab55d171!2z5YyX5Y2D5L2P6aeF!5e0!3m2!1sja!2sjp!4v1574842696572!5m2!1sja!2sjp"" width=""600"" height=""450"" frameborder=""0"" style=""border:0;"" allowfullscreen=""""></iframe>",https://telecube.jp/wp/wp-content/uploads/2019/12/kitasenju01_IMG_0330.png,https://telecube.jp/wp/wp-content/uploads/2019/12/kitasenju02_IMG_0331.png,https://telecube.jp/wp/wp-content/uploads/2019/12/kitasenju03_IMG_0332.png,https://telecube.jp/wp/wp-content/uploads/2019/12/telecube_map_kitasenju-station_1912-01.png,平日,土曜日,日曜日,祝日,朝7時から,夜21時まで,週末価格,"東武鉄道 北千住駅 北口,トウブテツドウ キタセンジュエキ キタグチ,22-01,北千住駅,JR東日本,常磐線,東京メトロ,千代田線,東武鉄道,伊勢崎線,つくばエクスプレス,TX,東京,足立区,電源(コンセント / USB),WiFi（ブース内 or 施設内）,スマホスタンド,エアコン（ブース内 or 施設内）, GBP",35.7495774,139.8053948,21,https://telecube.jp/location/kitasenju-2f/,,,,,,,,,,,東京都,足立区,東京都-23区北部
448,山王パークタワー 1階,サンノウパークタワー,東京都千代田区永田町2-11-1,東京メトロ銀座線・南北線「溜池山王駅」 7番出口直結,東京メトロ丸ノ内線・千代田線「国会議事堂前駅」7番出口直結,※徒歩時間は施設までの時間であり、テレキューブまでの時間ではありませんのでご注意ください,,,平日土 8:00-21:00,1人用：2台,西溜池山王駅・国会議事堂前駅,"・24時間稼働換気ファン　<br />
・WiFi<br />
※このブースは、ビルにて空調管理がされているため、エアコンを設置しておりません。<br />
<br />
※WiFiについて<br />
LTE回線を利用したベストエフォートでの提供となり、時間帯によっては十分な速度が出ない可能性がございます。大事な会議や面接でご利用の際には、代替通信手段のご用意をお願いいたします。","<iframe src=""https://www.google.com/maps/embed?pb=!1m18!1m12!1m3!1d1620.574037759528!2d139.73924195736353!3d35.673355770296254!2m3!1f0!2f0!3f0!3m2!1i1024!2i768!4f13.1!3m3!1m2!1s0x60188b864d02acd1%3A0x62d085252613e99f!2z5bGx546L44OR44O844Kv44K_44Ov44O8!5e0!3m2!1sja!2sjp!4v1571103805383!5m2!1sja!2sjp"" width=""600"" height=""450"" frameborder=""0"" style=""border:0;"" allowfullscreen=""""></iframe>",https://telecube.jp/wp/wp-content/uploads/2019/10/sanno_park_tower_slider01.png,https://telecube.jp/wp/wp-content/uploads/2019/10/sanno_park_tower_slider02.png,https://telecube.jp/wp/wp-content/uploads/2019/10/sanno_park_tower_slider03.png,https://telecube.jp/wp/wp-content/uploads/2019/10/telecube_map_sanno_park_tower_1910.png,平日,土曜日,,,夜21時まで,,週末価格,"山王パークタワー,サンノウパークタワー,14-01,14-02,溜池山王駅,国会議事堂前駅,東京メトロ,南北線,千代田線,東京,千代田区,電源(コンセント / USB),WiFi（ブース内 or 施設内）, GBP",35.6731479,139.7406938,18,https://telecube.jp/location/sanno-park-tower-1f/,https://telecube.jp/wp/wp-content/uploads/2019/10/sanno_park_tower_slider04.png,,,,,,,,,,東京都,千代田区,東京都-23区
418,小田急電鉄 町田駅 小田急百貨店エレベータ横,オダキュウデンテツ マチダエキ,東京都町田市原町田6-12-20,小田急電鉄 町田駅 小田急百貨店エレベータ横,,,,,平日土日祝 8:00-21:00,1人用：2台,町田駅,"・24時間稼働換気ファン<br />
・エアコン<br />
・WiFi<br />
・スマホスタンド<br />
<br />
※WiFiについて<br />
LTE回線を利用したベストエフォートでの提供となり、時間帯によっては十分な速度が出ない可能性がございます。大事な会議や面接でご利用の際には、代替通信手段のご用意をお願いいたします。","<iframe src=""https://www.google.com/maps/embed?pb=!1m18!1m12!1m3!1d103745.26256633479!2d139.5666491817277!3d35.65139953653322!2m3!1f0!2f0!3f0!3m2!1i1024!2i768!4f13.1!3m3!1m2!1s0x6018feb338675311%3A0x50d574e2e5a9a108!2z5bCP55Sw5oCl57eaIOeUuueUsOmnhQ!5e0!3m2!1sja!2sjp!4v1568356953907!5m2!1sja!2sjp"" width=""600"" height=""450"" frameborder=""0"" style=""border:0;"" allowfullscreen=""""></iframe>",https://telecube.jp/wp/wp-content/uploads/2019/09/machida_slider01.png,https://telecube.jp/wp/wp-content/uploads/2019/09/machida_slider02.png,https://telecube.jp/wp/wp-content/uploads/2019/09/machida_slider03.png,https://telecube.jp/wp/wp-content/uploads/2019/09/telecube_map_machida_1909.png,平日,土曜日,日曜日,祝日,夜21時まで,,週末価格,"小田急電鉄 町田駅,オダキュウデンテツ マチダエキ,13-01,13-02,町田駅,JR東日本,小田急電鉄,小田原線,東京,町田市,電源(コンセント / USB),WiFi（ブース内 or 施設内）,スマホスタンド,エアコン（ブース内 or 施設内）, GBP",35.54406309,139.4448088,17,https://telecube.jp/location/machida-2f/,,,,,,,,,,,東京都,町田市,東京都
415,"小田急電鉄 経堂駅　改札内 １,２番線エレベータ横",オダキュウデンテツ キョウドウエキ,東京都世田谷区経堂2-1-3,小田急電鉄 経堂駅 改札内,改札内のため、ご利用には乗車券または入場券の購入が必要となります。,,,,平日土日祝 8:00-21:00,1人用：2台,経堂駅,"・24時間稼働換気ファン<br />
・エアコン<br />
・WiFi<br />
・スマホスタンド<br />
<br />
※WiFiについて<br />
LTE回線を利用したベストエフォートでの提供となり、時間帯によっては十分な速度が出ない可能性がございます。大事な会議や面接でご利用の際には、代替通信手段のご用意をお願いいたします。","<iframe src=""https://www.google.com/maps/embed?pb=!1m18!1m12!1m3!1d3242.0444699937566!2d139.63450021525796!3d35.65127598020127!2m3!1f0!2f0!3f0!3m2!1i1024!2i768!4f13.1!3m3!1m2!1s0x6018f3963e5f12c3%3A0xda01a62e6034083!2z57WM5aCC6aeF!5e0!3m2!1sja!2sjp!4v1568355588305!5m2!1sja!2sjp"" width=""600"" height=""450"" frameborder=""0"" style=""border:0;"" allowfullscreen=""""></iframe>",https://telecube.jp/wp/wp-content/uploads/2019/09/kyoudou_slider01.png,https://telecube.jp/wp/wp-content/uploads/2019/09/kyoudou_slider02.png,https://telecube.jp/wp/wp-content/uploads/2019/09/kyoudou_slider03.png,https://telecube.jp/wp/wp-content/uploads/2019/09/telecube_map_kyodo_2001_ver6-1.png,平日,土曜日,日曜日,祝日,夜21時まで,,週末価格,"小田急電鉄 経堂駅,オダキュウデンテツ キョウドウエキ,12-01,12-02,経堂駅,小田急電鉄,小田原線,東京,世田谷区,電源(コンセント / USB),WiFi（ブース内 or 施設内）,スマホスタンド,エアコン（ブース内 or 施設内）, GBP",35.651342,139.6365618,16,https://telecube.jp/location/kyoudou-1f/,https://telecube.jp/wp/wp-content/uploads/2019/09/kyoudou_slider04.png,,,,,,,,,,東京都,世田谷区,東京都-23区
401,西武鉄道 所沢駅 改札内 コンコース,セイブテツドウ トコロザワエキ,埼玉県所沢市くすのき台1丁目14−5,西武新宿線 西武池袋線 所沢駅 改札内,改札内のため、ご利用には乗車券または入場券の購入が必要となります。,,,,平日土日祝 7:00-21:00,1人用：2台,所沢駅,"・24時間稼働換気ファン<br />
・エアコン<br />
・WiFi<br />
・スマホスタンド<br />
<br />
※WiFiについて<br />
LTE回線を利用したベストエフォートでの提供となり、時間帯によっては十分な速度が出ない可能性がございます。大事な会議や面接でご利用の際には、代替通信手段のご用意をお願いいたします。","<iframe src=""https://www.google.com/maps/embed?pb=!1m18!1m12!1m3!1d3236.542324733199!2d139.47103591526175!3d35.78661728016999!2m3!1f0!2f0!3f0!3m2!1i1024!2i768!4f13.1!3m3!1m2!1s0x6018e7623f95c7b1%3A0xbd03e3658140ea23!2z5omA5rKi6aeF!5e0!3m2!1sja!2sjp!4v1567577217464!5m2!1sja!2sjp"" width=""600"" height=""450"" frameborder=""0"" style=""border:0;"" allowfullscreen=""""></iframe>",https://telecube.jp/wp/wp-content/uploads/2019/09/tokorozwa_slider01.png,https://telecube.jp/wp/wp-content/uploads/2019/09/tokorozwa_slider02.png,https://telecube.jp/wp/wp-content/uploads/2019/09/tokorozwa_slider03.png,https://telecube.jp/wp/wp-content/uploads/2019/09/telecube_map_tokorozwa_1909.png,平日,土曜日,日曜日,祝日,朝7時から,夜21時まで,週末価格,"西武鉄道 所沢駅,セイブテツドウ トコロザワエキ,11-01,11-02,所沢駅,西武鉄道,埼玉県,所沢市,電源(コンセント / USB),WiFi（ブース内 or 施設内）,スマホスタンド,エアコン（ブース内 or 施設内）,広告掲載, GBP",35.7865698,139.4741063,15,https://telecube.jp/location/seibu_tokorozawa/,,,,,,,,,,,埼玉県,所沢市,埼玉県
397,西武鉄道 高田馬場駅 改札内 3階橋上コンコース,セイブテツドウ タカダノババエキ,東京都新宿区高田馬場1丁目35−2,西武新宿線 高田馬場駅 改札内,改札内のため、ご利用には乗車券または入場券の購入が必要となります。,,,,平日土日祝 7:00-21:00,1人用：1台,高田馬場駅,"・24時間稼働換気ファン<br />
・エアコン<br />
・WiFi<br />
・スマホスタンド<br />
<br />
※WiFiについて<br />
LTE回線を利用したベストエフォートでの提供となり、時間帯によっては十分な速度が出ない可能性がございます。大事な会議や面接でご利用の際には、代替通信手段のご用意をお願いいたします。","<iframe src=""https://www.google.com/maps/embed?pb=!1m18!1m12!1m3!1d3239.5531120211012!2d139.7014206152596!3d35.712613280186986!2m3!1f0!2f0!3f0!3m2!1i1024!2i768!4f13.1!3m3!1m2!1s0x60188d399ddaa763%3A0x954afc3e292c9a7e!2z6auY55Sw6aas5aC06aeF!5e0!3m2!1sja!2sjp!4v1568164741267!5m2!1sja!2sjp"" width=""600"" height=""450"" frameborder=""0"" style=""border:0;"" allowfullscreen=""""></iframe>",https://telecube.jp/wp/wp-content/uploads/2019/09/takadanobaba_slider02.png,https://telecube.jp/wp/wp-content/uploads/2019/09/takadanobaba_slider01.png,,https://telecube.jp/wp/wp-content/uploads/2019/09/telecube_map_takadanobaba_1909.png,平日,土曜日,日曜日,祝日,朝7時から,夜21時まで,週末価格,"西武鉄道 高田馬場駅,セイブテツドウ タカダノババエキ,10-01,高田馬場駅,JR東日本,山手線,西武鉄道,東京メトロ,東西線 ,東京,新宿区,電源(コンセント / USB),WiFi（ブース内 or 施設内）,スマホスタンド,エアコン（ブース内 or 施設内）,広告掲載, GBP",35.7130327,139.7040558,14,https://telecube.jp/location/takadanobaba-3f/,,,,,,,,,,,東京都,新宿区,東京都-23区
258,新青山ビル B1階,シンアオヤマビル,東京都港区南青山1-1-1,東京メトロ銀座線・半蔵門線「青山一丁目駅」直結,都営地下鉄大江戸線「青山一丁目駅」直結,※徒歩時間は施設までの時間であり、テレキューブまでの時間ではありませんのでご注意ください,,,平日土日祝 8:00-21:00,1人用：2台,青山一丁目駅,"・24時間稼働換気ファン<br />
・WiFi<br />
※このブースは、ビルにて空調管理がされているため、エアコンを設置しておりません。<br />
<br />
※WiFiについて<br />
LTE回線を利用したベストエフォートでの提供となり、時間帯によっては十分な速度が出ない可能性がございます。大事な会議や面接でご利用の際には、代替通信手段のご用意をお願いいたします。","<iframe src=""https://www.google.com/maps/embed?pb=!1m18!1m12!1m3!1d3241.1783890427932!2d139.7228841007491!3d35.67260928795521!2m3!1f0!2f0!3f0!3m2!1i1024!2i768!4f13.1!3m3!1m2!1s0x60188c83bb10e9d5%3A0xd5b04cd5e83f8c21!2z5paw6Z2S5bGx44OT44Or!5e0!3m2!1sja!2sjp!4v1561554755150!5m2!1sja!2sjp"" width=""600"" height=""450"" frameborder=""0"" style=""border:0"" allowfullscreen></iframe>",https://telecube.jp/wp/wp-content/uploads/2019/06/shin-aoyama-bld-b1f-1.jpg,https://telecube.jp/wp/wp-content/uploads/2019/06/shin-aoyama-bld-b1f-2.jpg,https://telecube.jp/wp/wp-content/uploads/2019/06/shin-aoyama-bld-b1f-3.jpg,https://telecube.jp/wp/wp-content/uploads/2019/06/sinaoyama_map.png,平日,土曜日,日曜日,祝日,夜21時まで,,週末価格,"新青山ビル,シンアオヤマビル,07-01,07-02,青山ツイン,アオヤマツイン,青山一丁目駅,東京メトロ,半蔵門線,都営地下鉄,大江戸線,東京,港区,電源(コンセント / USB),WiFi（ブース内 or 施設内）, GBP",35.67250195,139.7251424,12,https://telecube.jp/location/shinaoyama-b1/,https://telecube.jp/wp/wp-content/uploads/2019/06/shin-aoyama-bld-b1f-5.jpg,,,,,,,,,,東京都,港区,東京都-23区
253,横浜ランドマークタワー 3階（WEB会議センター）,ヨコハマランドマークタワー,神奈川県横浜市西区みなとみらい2-2-1 ,JR「桜木町駅」 より動く歩道徒歩5分,みなとみらい線「みなとみらい駅」 より徒歩3分,※徒歩時間は施設までの時間であり、テレキューブまでの時間ではありませんのでご注意ください,,,平日土日祝 8:00-21:00,1人用：6台,桜木町駅・みなとみらい駅,"・24時間稼働換気ファン<br />
・WiFi<br />
・WEB-MTG用LED照明<br />
・モニター（HDMI対応）<br />
・スマホスタンド<br />
※このブースは、ビルにて空調管理がされているため、エアコンを設置しておりません。<br />
<br />
※WiFiについて<br />
LTE回線を利用したベストエフォートでの提供となり、時間帯によっては十分な速度が出ない可能性がございます。大事な会議や面接でご利用の際には、代替通信手段のご用意をお願いいたします。","<iframe src=""https://www.google.com/maps/embed?pb=!1m18!1m12!1m3!1d3249.993378829287!2d139.62919185074384!3d35.45495834985885!2m3!1f0!2f0!3f0!3m2!1i1024!2i768!4f13.1!3m3!1m2!1s0x60185c5d7366a111%3A0x3661ef0a3534c8c7!2z5qiq5rWc44Op44Oz44OJ44Oe44O844Kv44K_44Ov44O8!5e0!3m2!1sja!2sjp!4v1561554287602!5m2!1sja!2sjp"" width=""600"" height=""450"" frameborder=""0"" style=""border:0"" allowfullscreen></iframe>",https://telecube.jp/wp/wp-content/uploads/2019/06/yokohama_landmarktower_2418.jpg,https://telecube.jp/wp/wp-content/uploads/2019/06/yokohama_landmarktower_2446.jpg,https://telecube.jp/wp/wp-content/uploads/2019/06/yokohama_landmarktower_2448.jpg,https://telecube.jp/wp/wp-content/uploads/2019/06/yokohama_landmarktower_floormap_202203.png,平日,土曜日,日曜日,祝日,夜21時まで,,週末価格,"横浜ランドマークタワー,ヨコハマランドマークタワー,06-01,06-02,06-03,06-04,06-05,06-06,桜木町駅,みなとみらい駅,JR東日本,根岸線,京浜東北線,ブルーライン,神奈川県,横浜市,電源(コンセント / USB),WiFi（ブース内 or 施設内）,モニター(HDMI),スマホスタンド,WEB会議照明,広告掲載,ソニー生命, GBP",35.45461987,139.6314993,11,https://telecube.jp/location/yokohama-landmark-tower-3f/,https://telecube.jp/wp/wp-content/uploads/2019/06/yokohama_landmarktower_2450.jpg,,,,,,,https://telecube.jp/wp/wp-content/uploads/2019/06/yokohama_landmarktower_1528.jpg,,,神奈川県,横浜市,神奈川県
246,日比谷国際ビル 1階,ヒビヤコクサイビル,東京都千代田区内幸町2-2-3,都営地下鉄三田線「内幸町駅」 A6出口より直結,東京メトロ千代田線・日比谷線・丸ノ内線「霞ヶ関駅」 B2またはC4出口より徒歩5分,JR「新橋駅」 日比谷口より徒歩7分,※徒歩時間は施設までの時間であり、テレキューブまでの時間ではありませんのでご注意ください,,平日 8:00-21:00 / 土 8:00-20:00,1人用：3台,内幸町駅・霞ヶ関駅・新橋駅,"・24時間稼働換気ファン<br />
・WiFi<br />
※このブースは、ビルにて空調管理がされているため、エアコンを設置しておりません。<br />
<br />
※WiFiについて<br />
LTE回線を利用したベストエフォートでの提供となり、時間帯によっては十分な速度が出ない可能性がございます。大事な会議や面接でご利用の際には、代替通信手段のご用意をお願いいたします。","<iframe src=""https://www.google.com/maps/embed?pb=!1m18!1m12!1m3!1d3241.270585211667!2d139.752232850749!3d35.67033883807966!2m3!1f0!2f0!3f0!3m2!1i1024!2i768!4f13.1!3m3!1m2!1s0x60188bed0548f90b%3A0x85b35124a3c7aadf!2z44CSMTAwLTAwMTEg5p2x5Lqs6YO95Y2D5Luj55Sw5Yy65YaF5bm455S677yS5LiB55uu77yS4oiS77yTIEhJQklZQSBLT0tVU0FJIEJVSUxESU5H!5e0!3m2!1sja!2sjp!4v1561554093274!5m2!1sja!2sjp"" width=""600"" height=""450"" frameborder=""0"" style=""border:0"" allowfullscreen></iframe>",https://telecube.jp/wp/wp-content/uploads/2019/06/hibiya_kokusai_building.jpg,https://telecube.jp/wp/wp-content/uploads/2019/06/hibiya_kokusai_building_1.jpg,,https://telecube.jp/wp/wp-content/uploads/2019/06/hibiya_kokusai_building_floormap_202203.png,平日,土曜日,,,夜21時まで,,週末価格,"日比谷国際ビル,ヒビヤコクサイビル,05-01,05-02,日比国,ヒビコク,内幸町駅,霞ヶ関駅,新橋駅,JR東日本,山手線,京浜東北線,東海道線,横須賀線,東京メトロ,千代田線,都営地下鉄,東京,千代田区,電源(コンセント / USB),WiFi（ブース内 or 施設内）,広告掲載, GBP",35.6703262,139.754314,9,https://telecube.jp/location/hibiyakokusai-1f/,,,,,,,,,,,東京都,千代田区,東京都-23区
234,六本木ヒルズ 森タワー UL階,ロッポンギヒルズ モリタワー,東京都港区六本木6-10-1,東京メトロ日比谷線「六本木駅」 1C出口より徒歩3分,都営地下鉄大江戸線「六本木駅」 3番出口より徒歩6分,都営地下鉄大江戸線「麻布十番駅」7番出口より徒歩9分,東京メトロ南北線「麻布十番駅」4番出口より徒歩12分,※徒歩時間は施設までの時間であり、テレキューブまでの時間ではありませんのでご注意ください,平日土日祝 8:00-20:00,1人用：1台,六本木駅・麻布十番駅,"・２４時間連続換気ファン<br />
・WiFi<br />
※このブースは、ビルにて空調管理がされているため、エアコンを設置しておりません。<br />
<br />
※WiFiについて<br />
LTE回線を利用したベストエフォートでの提供となり、時間帯によっては十分な速度が出ない可能性がございます。大事な会議や面接でご利用の際には、代替通信手段のご用意をお願いいたします。","<iframe src=""https://www.google.com/maps/embed?pb=!1m18!1m12!1m3!1d12966.175974525277!2d139.73041327510552!3d35.663605065063464!2m3!1f0!2f0!3f0!3m2!1i1024!2i768!4f13.1!3m3!1m2!1s0x60188b828453ffff%3A0xb8603beeb9b150d8!2z5YWt5pys5pyo44OS44Or44K65qOu44K_44Ov44O8!5e0!3m2!1sja!2sjp!4v1561552866107!5m2!1sja!2sjp"" width=""600"" height=""450"" frameborder=""0"" style=""border:0"" allowfullscreen></iframe>",https://telecube.jp/wp/wp-content/uploads/2019/06/森タワー1.jpeg,https://telecube.jp/wp/wp-content/uploads/2019/06/森タワー3.jpeg,https://telecube.jp/wp/wp-content/uploads/2019/06/森タワー2.jpeg,https://telecube.jp/wp/wp-content/uploads/2019/06/moritowerUL_map.png,平日,土曜日,日曜日,祝日,,,週末価格,"六本木ヒルズ 森タワー,ロッポンギヒルズ モリタワー,04-01,六本木駅,麻布十番駅,乃木坂駅,東京メトロ,南北線,千代田線,都営地下鉄,大江戸線,東京,港区,電源(コンセント / USB),WiFi（ブース内 or 施設内）,GBP",35.66045241,139.7292543,7,https://telecube.jp/location/mori-tower-ul/,,,,,,,,,,,東京都,港区,東京都-23区
226,新東京ビル 1階オフィスエントランス,シントウキョウビル,東京都千代田区丸の内3-3-1,東京メトロ千代田線「二重橋前駅」 出口1より徒歩2分,JR山手線・京浜東北線「有楽町駅」 国際フォーラム口より徒歩3分,東京メトロ有楽町線「有楽町駅」 D5出口より徒歩3分,JR「東京駅」 丸の内南口より徒歩5分,※徒歩時間は施設までの時間であり、テレキューブまでの時間ではありませんのでご注意ください,平日土 8:00-21:00 / 日祝 10:00-21:00,1人用：3台,東京駅・大手町・有楽町駅・二重橋駅,"・24時間稼働換気ファン<br />
・WiFi<br />
・モニター(WIndows PCのみ対応)<br />
<br />
※このブースは、ビルにて空調管理がされているため、エアコンを設置しておりません。<br />
<br />
※WiFiについて<br />
LTE回線を利用したベストエフォートでの提供となり、時間帯によっては十分な速度が出ない可能性がございます。大事な会議や面接でご利用の際には、代替通信手段のご用意をお願いいたします。","<iframe src=""https://www.google.com/maps/embed?pb=!1m18!1m12!1m3!1d3240.9780998011934!2d139.76047425071377!3d35.67754123768478!2m3!1f0!2f0!3f0!3m2!1i1024!2i768!4f13.1!3m3!1m2!1s0x60188bfa81d85769%3A0x1eae1373f7bfa0d0!2z5paw5p2x5Lqs44OT44Or!5e0!3m2!1sja!2sjp!4v1561552254262!5m2!1sja!2sjp"" width=""600"" height=""450"" frameborder=""0"" style=""border:0"" allowfullscreen></iframe>",https://telecube.jp/wp/wp-content/uploads/2019/06/新東京1.jpeg,https://telecube.jp/wp/wp-content/uploads/2019/06/新東京2.jpeg,,https://telecube.jp/wp/wp-content/uploads/2019/06/shintokyo_map.png,平日,土曜日,日曜日,祝日,夜21時まで,,週末価格,"新東京ビル,シントウキョウビル,03-01,03-02,03-03,東京駅,有楽町駅,JR東日本,山手線,京浜東北線,中央線,東海道線,横須賀線,総武線,京葉線,東京メトロ,東京,千代田区,電源(コンセント / USB),WiFi（ブース内 or 施設内）, GBP",35.6775037,139.7626674,6,https://telecube.jp/location/shintokyo-1f/,,,,,,,,,,,東京都,千代田区,東京都-23区
206,新丸の内ビル 地下1階ホール（WEB会議センター）,シンマルノウチビルディング,東京都千代田区丸の内1-5-1,JR「東京駅」 丸の内地下北口より直結,※徒歩時間は施設までの時間であり、テレキューブまでの時間ではありませんのでご注意ください,,,,平日 8:00-21:00,1人用：11台,東京駅,"・24時間稼働換気ファン<br />
・WiFi<br />
・WEB-MTG用LED照明<br />
・モニター（HDMI対応）<br />
・スマホスタンド<br />
※このブースは、ビルにて空調管理がされているため、エアコンを設置しておりません。<br />
<br />
<br />
※WiFiについて<br />
LTE回線を利用したベストエフォートでの提供となり、時間帯によっては十分な速度が出ない可能性がございます。大事な会議や面接でご利用の際には、代替通信手段のご用意をお願いいたします。","<iframe src=""https://www.google.com/maps/embed?pb=!1m18!1m12!1m3!1d3240.772451376797!2d139.76214691492518!3d35.682604537504695!2m3!1f0!2f0!3f0!3m2!1i1024!2i768!4f13.1!3m3!1m2!1s0x60188bf9b11e03ab%3A0x94bd79343edb8416!2z5paw5Li444Gu5YaF44OT44Or44OH44Kj44Oz44Kw77yI5paw5Li444OT44Or77yJ!5e0!3m2!1sja!2sjp!4v1561544377636!5m2!1sja!2sjp"" width=""600"" height=""450"" frameborder=""0"" style=""border:0"" allowfullscreen></iframe>",https://telecube.jp/wp/wp-content/uploads/2019/06/shinmarunouchibuilding.jpg,https://telecube.jp/wp/wp-content/uploads/2019/06/TWMC_Marunouchi_6.jpg,https://telecube.jp/wp/wp-content/uploads/2019/06/TWMC_Marunouchi_5.jpg,https://telecube.jp/wp/wp-content/uploads/2019/06/shinmarunouchibuilding_floormap_20220510.png,平日,,,,夜21時まで,,,"新丸の内ビルディング,シンマルノウチビルディング,02-01,02-02,02-03,02-04,02-05,02-06,02-07,02-08,02-09,新丸ビル,シンマルビル,東京駅,JR東日本,山手線,京浜東北線,中央線,東海道線,横須賀線,総武線,京葉線,東京メトロ,東京,千代田区,電源(コンセント / USB),WiFi（ブース内 or 施設内）,モニター(HDMI),スマホスタンド,WEB会議照明,広告掲載, モニター,LED, WEB会議センター, GBP",35.682663,139.7645,5,https://telecube.jp/location/shin-marunouchi-b1f/,https://telecube.jp/wp/wp-content/uploads/2019/06/TWMC_Marunouchi_3.jpg,,,,,,,,,,東京都,千代田区,東京都-23区
191,大手町パークビル 1階オフィスエントランス,オオテマチパークビルディング,東京都千代田区大手町1-1-1,東京メトロ「大手町駅」 C6a出口より直結,JR「東京駅」 丸の内北口より徒歩8分,※徒歩時間は施設までの時間であり、テレキューブまでの時間ではありませんのでご注意ください,,,平日 8:00-21:00 / 土 8:00-15:00 ,1人用：3台,大手町駅,"・24時間稼働換気ファン<br />
・WiFi<br />
※このブースは、ビルにて空調管理がされているため、エアコンを設置しておりません。<br />
<br />
※WiFiについて<br />
LTE回線を利用したベストエフォートでの提供となり、時間帯によっては十分な速度が出ない可能性がございます。大事な会議や面接でご利用の際には、代替通信手段のご用意をお願いいたします。","<iframe src=""https://www.google.com/maps/embed?pb=!1m18!1m12!1m3!1d3240.60133961749!2d139.7606594652098!3d35.68681703019309!2m3!1f0!2f0!3f0!3m2!1i1024!2i768!4f13.1!3m3!1m2!1s0x60188c087f6269d5%3A0x8426957205d852c1!2z5aSn5omL55S644OR44O844Kv44OT44Or44OH44Kj44Oz44Kw!5e0!3m2!1sja!2sjp!4v1561539686762!5m2!1sja!2sjp"" width=""600"" height=""450"" frameborder=""0"" style=""border:0"" allowfullscreen></iframe>",https://telecube.jp/wp/wp-content/uploads/2019/06/iOS-の画像-2.jpg,https://telecube.jp/wp/wp-content/uploads/2019/06/iOS-の画像.jpg,https://telecube.jp/wp/wp-content/uploads/2019/06/iOS-の画像-1.jpg,https://telecube.jp/wp/wp-content/uploads/2019/06/ootemachipark_floormap.png,平日,土曜日,,,夜21時まで,,週末価格,"大手町パークビルディング,オオテマチパークビルディング,01-01,01-02,01-03,東京駅,大手町駅,JR東日本,山手線,京浜東北線,中央線,東海道線,横須賀線,総武線,京葉線,東京メトロ,東西線,千代田線,半蔵門線,東京,千代田区,電源(コンセント / USB),WiFi（ブース内 or 施設内）,ソニー生命, GBP",35.686819,139.7627493,4,https://telecube.jp/location/otemachipark-1f/,,,,,,,,,,,東京都,千代田区,東京都-23区
